{
 "type": "FeatureCollection",
 "name": "s2_aereas_mediciones",
 "crs_note": "EPSG:4326 lon/lat",
 "features": [
  {
   "type": "Feature",
   "geometry": {
    "type": "Point",
    "coordinates": [
     -58.46282,
     -34.52968
    ]
   },
   "properties": {
    "id": "M78_rim_-58.46282",
    "fuente": "USIG/GCBA fotografias_aereas_1978_caba_3857 (TMS z17, ~0.98 m/px)",
    "fecha": "1978 (fecha exacta del vuelo no publicada)",
    "lugar": "Vicente López, borde con CABA (Av. Gral. Paz)",
    "objeto": "franja clara continua en el borde agua-tierra de un relleno",
    "ancho_m": 9.8,
    "error_m": 3,
    "metodo": "perfil de brillo perpendicular a la costa, promedio de 7 líneas; ancho a mitad de altura entre pico y fondo; 0.984 m/px",
    "interpretacion": "compatible con arena, pero también con escombro/ripio de borde de relleno (textura granulada)",
    "confianza": "visto: verificado; composición: sin confirmar"
   }
  },
  {
   "type": "Feature",
   "geometry": {
    "type": "Point",
    "coordinates": [
     -58.46239,
     -34.53012
    ]
   },
   "properties": {
    "id": "M78_rim_-58.46239",
    "fuente": "USIG/GCBA fotografias_aereas_1978_caba_3857 (TMS z17, ~0.98 m/px)",
    "fecha": "1978 (fecha exacta del vuelo no publicada)",
    "lugar": "Vicente López, borde con CABA (Av. Gral. Paz)",
    "objeto": "franja clara continua en el borde agua-tierra de un relleno",
    "ancho_m": 9.8,
    "error_m": 3,
    "metodo": "perfil de brillo perpendicular a la costa, promedio de 7 líneas; ancho a mitad de altura entre pico y fondo; 0.984 m/px",
    "interpretacion": "compatible con arena, pero también con escombro/ripio de borde de relleno (textura granulada)",
    "confianza": "visto: verificado; composición: sin confirmar"
   }
  },
  {
   "type": "Feature",
   "geometry": {
    "type": "Point",
    "coordinates": [
     -58.46212,
     -34.53047
    ]
   },
   "properties": {
    "id": "M78_rim_-58.46212",
    "fuente": "USIG/GCBA fotografias_aereas_1978_caba_3857 (TMS z17, ~0.98 m/px)",
    "fecha": "1978 (fecha exacta del vuelo no publicada)",
    "lugar": "Vicente López, borde con CABA (Av. Gral. Paz)",
    "objeto": "franja clara continua en el borde agua-tierra de un relleno",
    "ancho_m": 11.8,
    "error_m": 3,
    "metodo": "perfil de brillo perpendicular a la costa, promedio de 7 líneas; ancho a mitad de altura entre pico y fondo; 0.984 m/px",
    "interpretacion": "compatible con arena, pero también con escombro/ripio de borde de relleno (textura granulada)",
    "confianza": "visto: verificado; composición: sin confirmar"
   }
  },
  {
   "type": "Feature",
   "geometry": {
    "type": "Point",
    "coordinates": [
     -58.46193,
     -34.53087
    ]
   },
   "properties": {
    "id": "M78_rim_-58.46193",
    "fuente": "USIG/GCBA fotografias_aereas_1978_caba_3857 (TMS z17, ~0.98 m/px)",
    "fecha": "1978 (fecha exacta del vuelo no publicada)",
    "lugar": "Vicente López, borde con CABA (Av. Gral. Paz)",
    "objeto": "franja clara continua en el borde agua-tierra de un relleno",
    "ancho_m": 10.8,
    "error_m": 3,
    "metodo": "perfil de brillo perpendicular a la costa, promedio de 7 líneas; ancho a mitad de altura entre pico y fondo; 0.984 m/px",
    "interpretacion": "compatible con arena, pero también con escombro/ripio de borde de relleno (textura granulada)",
    "confianza": "visto: verificado; composición: sin confirmar"
   }
  },
  {
   "type": "Feature",
   "geometry": {
    "type": "Point",
    "coordinates": [
     -58.46217,
     -34.53069
    ]
   },
   "properties": {
    "id": "M65_espiga",
    "fuente": "USIG/GCBA fotografias_aereas_1965_caba_3857 (z17 ~0.98 m/px)",
    "fecha": "1965",
    "lugar": "VL, desembocadura de canal junto a Av. Gral. Paz",
    "objeto": "espiga clara estrecha en margen de canal",
    "ancho_m": "8-13",
    "error_m": 3,
    "metodo": "3 perfiles perpendiculares, ancho a mitad de altura",
    "interpretacion": "sedimento desnudo (arena o limo) o albardón; contraste débil con el agua (brillo 135-145 vs agua 125-140)",
    "confianza": "sin confirmar"
   }
  },
  {
   "type": "Feature",
   "geometry": {
    "type": "Point",
    "coordinates": [
     -58.47092,
     -34.52172
    ]
   },
   "properties": {
    "id": "M65_claro_A",
    "fuente": "USIG/GCBA 1965 z17",
    "fecha": "1965",
    "lugar": "VL sur, ~1,2 km al NO de Av. Gral. Paz",
    "objeto": "área clara (brillo 190-227) detrás de matas oscuras de vegetación costera",
    "ancho_m": "45-65",
    "error_m": 5,
    "metodo": "perfiles E-O a 3 latitudes (filas 1080/1110/1140 del mosaico)",
    "interpretacion": "suelo desnudo claro: arena, relleno o tierra; NO toca el agua en la mayor parte (queda detrás de la franja vegetada)",
    "confianza": "sin confirmar"
   }
  },
  {
   "type": "Feature",
   "geometry": {
    "type": "Point",
    "coordinates": [
     -58.46239,
     -34.53012
    ]
   },
   "properties": {
    "id": "D6578_-58.46239",
    "fuente": "USIG/GCBA 1965 y 1978 z17",
    "fecha": "1965 vs 1978",
    "lugar": "VL borde con CABA",
    "objeto": "desplazamiento de la línea agua-tierra",
    "avance_m": "~30",
    "error_m": 20,
    "metodo": "mismo perfil en ambos mosaicos; borde vegetación/agua (1965) vs borde externo de la franja clara (1978)",
    "interpretacion": "avance hacia el río por relleno; magnitud dentro del orden del error de co-registro",
    "confianza": "probable"
   }
  },
  {
   "type": "Feature",
   "geometry": {
    "type": "Point",
    "coordinates": [
     -58.46212,
     -34.53047
    ]
   },
   "properties": {
    "id": "D6578_-58.46212",
    "fuente": "USIG/GCBA 1965 y 1978 z17",
    "fecha": "1965 vs 1978",
    "lugar": "VL borde con CABA",
    "objeto": "desplazamiento de la línea agua-tierra",
    "avance_m": "~20",
    "error_m": 20,
    "metodo": "mismo perfil en ambos mosaicos; borde vegetación/agua (1965) vs borde externo de la franja clara (1978)",
    "interpretacion": "avance hacia el río por relleno; magnitud dentro del orden del error de co-registro",
    "confianza": "probable"
   }
  },
  {
   "type": "Feature",
   "geometry": {
    "type": "Polygon",
    "coordinates": [
     [
      [
       -58.5,
       -34.536
      ],
      [
       -58.44,
       -34.536
      ],
      [
       -58.44,
       -34.49
      ],
      [
       -58.5,
       -34.49
      ],
      [
       -58.5,
       -34.536
      ]
     ]
    ]
   },
   "properties": {
    "id": "MSS_VL",
    "fuente": "Landsat MSS (USGS C2 L1 vía Planetary Computer)",
    "fecha": "1974-1982 (7 escenas)",
    "objeto": "píxeles costeros brillantes (60 m)",
    "resultado": "1976-07-11: 20/97; 1980-01-19: 55/96; 1974: 3/57; 1975-05-24: 4/72; 1981-01-04: 0/105; 1982-03-03: 8/105",
    "interpretacion": "no concluyente; una franja de 20-50 m es sub-píxel",
    "confianza": "sin confirmar"
   }
  },
  {
   "type": "Feature",
   "geometry": {
    "type": "Polygon",
    "coordinates": [
     [
      [
       -58.53,
       -34.49
      ],
      [
       -58.47,
       -34.49
      ],
      [
       -58.47,
       -34.45
      ],
      [
       -58.53,
       -34.45
      ],
      [
       -58.53,
       -34.49
      ]
     ]
    ]
   },
   "properties": {
    "id": "MSS_SI",
    "fuente": "Landsat MSS",
    "fecha": "1974-1982",
    "objeto": "píxeles costeros brillantes",
    "resultado": "0-9 por escena sobre 79-291 píxeles costeros (<=3%)",
    "interpretacion": "no se detecta borde brillante en San Isidro a 60 m; no excluye una franja estrecha",
    "confianza": "sin confirmar"
   }
  },
  {
   "type": "Feature",
   "geometry": {
    "type": "Point",
    "coordinates": [
     -58.47,
     -34.515
    ]
   },
   "properties": {
    "id": "KH9_1979_VL",
    "fuente": "USGS EE browse D3C1215-200649F003 (KH-9, 1979-06-01)",
    "fecha": "1979-06-01",
    "objeto": "franja clara discontinua a lo largo de la costa de VL; no se ve en la costa de SI",
    "ancho_m": "no medible (browse ~20-30 m/px, estimado)",
    "interpretacion": "superficie clara (arena, relleno o escombro) en VL a fines de los 70",
    "confianza": "sin confirmar (ubicación aproximada, sin georreferenciar)"
   }
  },
  {
   "type": "Feature",
   "geometry": {
    "type": "Point",
    "coordinates": [
     -58.5109,
     -34.4517
    ]
   },
   "properties": {
    "id": "Rios_Fig8_1938",
    "fuente": "AGN, en Ríos 2023 Fig. 8",
    "fecha": "1938",
    "lugar": "Club Náutico San Isidro / canal / terraplén",
    "objeto": "línea clara a lo largo del terraplén del lado del río; parche claro en borde de la isla",
    "ancho_m": "no medible (oblicua, sin escala)",
    "interpretacion": "línea clara = muro/terraplén o franja de arena al pie; parche = banco de arena o barro",
    "confianza": "sin confirmar"
   }
  }
 ]
}