{"type": "FeatureCollection", "features": [{"type": "Feature", "properties": {"addr:city": "Olivos", "addr:housenumber": "1636", "addr:postcode": "1636", "addr:street": "Ricardo Gutiérrez", "leisure": "park", "name": "Plaza Vicente López y Planes", "osm_way": 79289272, "fuente": "OpenStreetMap (c) colaboradores de OSM, ODbL; extraído de tesela local descargada por otra investigación del programa (scratchpad/osm)", "area_m2_calculo_propio": 10502.8}, "geometry": {"type": "Polygon", "coordinates": [[[-58.4869554, -34.5087888], [-58.4859595, -34.5082965], [-58.4854192, -34.509101], [-58.4863898, -34.5095511], [-58.4869554, -34.5087888]]]}}]}