{"type": "FeatureCollection", "features": [{"type": "Feature", "properties": {"partido": "Partido de San Fernando", "osm_rel": 2443418}, "geometry": {"type": "MultiPolygon", "coordinates": [[[[-58.8049956, -34.0851528], [-58.8049505, -34.0860076], [-58.8048597, -34.0870509], [-58.804799, -34.087483], [-58.8046925, -34.0879171], [-58.8046024, -34.0882597], [-58.8044016, -34.0887787], [-58.804242, -34.089094], [-58.8040045, -34.0894366], [-58.8036677, -34.089845], [-58.8020739, -34.0914132], [-58.7996076, -34.0939044], [-58.7981645, -34.0951988], [-58.796673, -34.0964158], [-58.7952691, -34.0974439], [-58.7937676, -34.0984815], [-58.7931313, -34.0989767], [-58.7912168, -34.1009387], [-58.7904202, -34.1019644], [-58.7893875, -34.103347], [-58.7877213, -34.1055216], [-58.7872557, -34.1060649], [-58.7863977, -34.1069308], [-58.7847635, -34.1085324], [-58.7829629, -34.1102133], [-58.7809632, -34.1120808], [-58.7803782, -34.1126779], [-58.7799554, -34.1132582], [-58.7788733, -34.1143267], [-58.7750017, -34.1181246], [-58.7735518, -34.1194773], [-58.7714267, -34.1213647], [-58.7706851, -34.1220336], [-58.7696268, -34.1229224], [-58.7689281, -34.1233897], [-58.7679834, -34.1239937], [-58.7654635, -34.1254349], [-58.7649229, -34.12579], [-58.7644604, -34.1261843], [-58.7641447, -34.1264816], [-58.7640424, -34.126641], [-58.7640096, -34.126824], [-58.7640165, -34.1270579], [-58.7641529, -34.1273563], [-58.7643887, -34.1276989], [-58.76535, -34.1287027], [-58.7661524, -34.1294102], [-58.7674328, -34.1302961], [-58.767832, -34.1306471], [-58.7681079, -34.1309426], [-58.7682954, -34.1313039], [-58.7683996, -34.1315916], [-58.7684054, -34.1318409], [-58.7683533, -34.1321333], [-58.7681744, -34.1325481], [-58.7678378, -34.1333894], [-58.7674102, -34.1347992], [-58.7665636, -34.1380155], [-58.7660308, -34.1399186], [-58.7654766, -34.141843], [-58.7650462, -34.1431782], [-58.7648725, -34.1437294], [-58.7645869, -34.1444379], [-58.7641948, -34.1451243], [-58.7634201, -34.1465278], [-58.7630481, -34.1471471], [-58.7626034, -34.1478168], [-58.7620171, -34.1485754], [-58.7610549, -34.1496752], [-58.7601001, -34.1506029], [-58.7590893, -34.1515189], [-58.7587041, -34.1518078], [-58.7580845, -34.1521223], [-58.7573782, -34.1524375], [-58.7560639, -34.1529569], [-58.7550865, -34.1532773], [-58.7543626, -34.1534451], [-58.7534716, -34.153623], [-58.7520864, -34.1537374], [-58.750872, -34.1538589], [-58.7482979, -34.1542501], [-58.747675, -34.1544035], [-58.7472591, -34.1545818], [-58.7469642, -34.1548326], [-58.7467922, -34.1550834], [-58.7467062, -34.1553138], [-58.7466642, -34.1556379], [-58.7466173, -34.1567291], [-58.7466735, -34.1578827], [-58.7469014, -34.1594028], [-58.7472055, -34.1612082], [-58.7473042, -34.1619052], [-58.7474024, -34.1631048], [-58.7473615, -34.163813], [-58.7473305, -34.1648359], [-58.747226, -34.1651218], [-58.7471035, -34.165382], [-58.7469438, -34.1656192], [-58.7466899, -34.1658394], [-58.7463573, -34.1660005], [-58.744679, -34.1664832], [-58.7428074, -34.1669311], [-58.7403679, -34.1675311], [-58.7389501, -34.167777], [-58.7379172, -34.1679981], [-58.7365484, -34.1682329], [-58.7348792, -34.1684986], [-58.7327764, -34.1688333], [-58.7311409, -34.1690409], [-58.7300135, -34.1691295], [-58.7279477, -34.1690822], [-58.7270471, -34.1690969], [-58.7259824, -34.1690096], [-58.724981, -34.1689054], [-58.7231913, -34.1685936], [-58.7211326, -34.1683582], [-58.7196777, -34.1683739], [-58.7187329, -34.1684416], [-58.7179645, -34.1685458], [-58.717434, -34.168664], [-58.7147014, -34.1693689], [-58.7125037, -34.169932], [-58.7104349, -34.1704919], [-58.7086805, -34.1709169], [-58.7075279, -34.1711723], [-58.7065516, -34.171313], [-58.704908, -34.1714605], [-58.7033104, -34.1715951], [-58.7006185, -34.1717391], [-58.6934037, -34.1721934], [-58.6924449, -34.1721655], [-58.6918927, -34.1722392], [-58.6916165, -34.1723571], [-58.6915453, -34.1725782], [-58.6916328, -34.1729142], [-58.6923113, -34.1741995], [-58.6929568, -34.175701], [-58.6932466, -34.1769556], [-58.6933268, -34.1781715], [-58.6933997, -34.1795308], [-58.6934871, -34.1807285], [-58.6937447, -34.1820668], [-58.6942386, -34.1840382], [-58.6951074, -34.1864898], [-58.695224, -34.1870658], [-58.6952775, -34.1876623], [-58.6952418, -34.1884581], [-58.6950815, -34.1893275], [-58.6947074, -34.190499], [-58.6943244, -34.1919063], [-58.6941641, -34.1929451], [-58.694083, -34.1936853], [-58.6939681, -34.1954722], [-58.6941568, -34.1982831], [-58.6943511, -34.1995464], [-58.6944936, -34.2003052], [-58.6946734, -34.2009056], [-58.6951483, -34.2018511], [-58.6961366, -34.2038188], [-58.698156, -34.2082713], [-58.6995619, -34.2108174], [-58.7002492, -34.2117434], [-58.7011536, -34.2126888], [-58.7028395, -34.2143159], [-58.703952, -34.2150906], [-58.7052339, -34.2159216], [-58.7063836, -34.2164647], [-58.7076235, -34.2172311], [-58.7085611, -34.2177597], [-58.7100905, -34.2185], [-58.7104824, -34.2187946], [-58.7108298, -34.2191555], [-58.7110614, -34.2195974], [-58.7111821, -34.2200998], [-58.7111424, -34.2207156], [-58.7107941, -34.2222121], [-58.7102532, -34.2242086], [-58.70976, -34.2268846], [-58.709626, -34.2278867], [-58.7095738, -34.228951], [-58.7096184, -34.2295622], [-58.7096905, -34.2303719], [-58.7098767, -34.231477], [-58.7100645, -34.2324352], [-58.7106516, -34.2348424], [-58.71111, -34.2377049], [-58.7114533, -34.2404722], [-58.7117108, -34.2443391], [-58.7121471, -34.2483867], [-58.7070731, -34.2494737], [-58.7017938, -34.250896], [-58.6965985, -34.2522957], [-58.6964599, -34.252333], [-58.6855233, -34.2552792], [-58.674985, -34.2581182], [-58.6725429, -34.258859], [-58.6627691, -34.2618236], [-58.6491384, -34.2648138], [-58.6382773, -34.2682473], [-58.6358063, -34.2686796], [-58.6336127, -34.269049], [-58.6243248, -34.2703807], [-58.6172989, -34.2716341], [-58.6152268, -34.2720037], [-58.6082339, -34.273843], [-58.6005608, -34.2763144], [-58.5951821, -34.2780732], [-58.5884629, -34.280483], [-58.5803037, -34.2834091], [-58.5772877, -34.2846341], [-58.5694146, -34.2885346], [-58.5665238, -34.2899951], [-58.5476854, -34.2985594], [-58.5465872, -34.2990623], [-58.5450912, -34.2997474], [-58.5435729, -34.3001267], [-58.5419414, -34.3001993], [-58.540649, -34.3001743], [-58.5348364, -34.299977], [-58.5261746, -34.2991265], [-58.5239085, -34.2991135], [-58.5225713, -34.2991924], [-58.5201626, -34.2994647], [-58.5178342, -34.2999145], [-58.5157696, -34.3005287], [-58.5118678, -34.3035845], [-58.5065916, -34.3082252], [-58.506485, -34.3083057], [-58.4998792, -34.3137589], [-58.4945249, -34.3181165], [-58.4916381, -34.3203371], [-58.4904724, -34.3211491], [-58.480108, -34.3231926], [-58.4634662, -34.3233072], [-58.4382069, -34.3242518], [-58.391355, -34.3835865], [-58.3063502, -34.3483763], [-58.2208628, -34.3103847], [-58.1349261, -34.2709676], [-58.1666729, -34.2533352], [-58.2082594, -34.2216854], [-58.235277, -34.2081911], [-58.2516666, -34.1999997], [-58.2933389, -34.1666636], [-58.3166609, -34.1500078], [-58.3233251, -34.1233549], [-58.3333345, -34.103332], [-58.3387204, -34.0732912], [-58.3449883, -34.0383543], [-58.362189, -34.0175285], [-58.364951, -34.0139774], [-58.3770747, -33.999879], [-58.3873832, -33.9854186], [-58.3893027, -33.988897], [-58.4004686, -33.9949563], [-58.4057459, -33.99782], [-58.4154594, -34.0023623], [-58.4161897, -34.0027038], [-58.4195015, -34.0038083], [-58.4280329, -34.0040972], [-58.4370028, -34.0031259], [-58.4431637, -34.0021897], [-58.4485804, -34.0020336], [-58.4572123, -34.0018719], [-58.464624, -34.0018823], [-58.4695387, -34.0020298], [-58.4740855, -34.0022882], [-58.4773594, -34.0026348], [-58.4796986, -34.0032373], [-58.4844461, -34.00446], [-58.4915442, -34.0065374], [-58.5172308, -34.0160106], [-58.5194858, -34.0168422], [-58.5533216, -34.026824], [-58.5673978, -34.0262549], [-58.5783841, -34.026824], [-58.5907437, -34.0339371], [-58.5949738, -34.0349104], [-58.6019384, -34.0365129], [-58.6083251, -34.037298], [-58.6118784, -34.0374737], [-58.6159618, -34.037752], [-58.6255202, -34.0383158], [-58.6302224, -34.0388377], [-58.6333809, -34.0391882], [-58.6388903, -34.0388974], [-58.6446805, -34.0377633], [-58.6489408, -34.0364914], [-58.657845, -34.0341284], [-58.6636712, -34.0319479], [-58.6739326, -34.0272123], [-58.6804616, -34.0278748], [-58.6810146, -34.0279407], [-58.6814341, -34.0280186], [-58.6819275, -34.0281409], [-58.6822618, -34.0282615], [-58.6836324, -34.0289197], [-58.6846493, -34.0293898], [-58.6871203, -34.0305043], [-58.708063, -34.0398931], [-58.7289962, -34.0492836], [-58.7445278, -34.0562373], [-58.7459393, -34.0569084], [-58.7563646, -34.0615539], [-58.7671574, -34.0663469], [-58.7719, -34.0684711], [-58.7742225, -34.0694664], [-58.776295, -34.0704485], [-58.785212, -34.0744116], [-58.7909754, -34.0770825], [-58.7938078, -34.0782555], [-58.7949403, -34.0787448], [-58.7951725, -34.07887], [-58.7956048, -34.0790259], [-58.7962537, -34.0791481], [-58.7976459, -34.0793034], [-58.799829, -34.0795518], [-58.8012951, -34.079796], [-58.8024377, -34.0800979], [-58.8031006, -34.0803382], [-58.8036336, -34.0805626], [-58.8040759, -34.080817], [-58.8044052, -34.0810628], [-58.8045492, -34.0812861], [-58.8046454, -34.0815387], [-58.8049781, -34.0843255], [-58.8049956, -34.0851528]]], [[[-58.6055477, -34.4774839], [-58.6055301, -34.4777423], [-58.605474, -34.4779598], [-58.605358, -34.4782143], [-58.6051887, -34.4784999], [-58.6047739, -34.479037], [-58.6045846, -34.4792422], [-58.6041261, -34.4797391], [-58.6036642, -34.4803713], [-58.6032514, -34.4809362], [-58.5994429, -34.4861485], [-58.5994982, -34.4879151], [-58.599539, -34.4882094], [-58.599802, -34.4894301], [-58.5926777, -34.4857289], [-58.592448, -34.4855832], [-58.5921256, -34.4853229], [-58.591668, -34.4851324], [-58.5912197, -34.4849216], [-58.5887371, -34.4836364], [-58.5882663, -34.4833281], [-58.5881525, -34.4832712], [-58.5876056, -34.4830684], [-58.5874708, -34.483001], [-58.5863001, -34.4823918], [-58.5861949, -34.4823208], [-58.5861312, -34.4822493], [-58.5848284, -34.4802033], [-58.5847257, -34.4800735], [-58.5846443, -34.4800137], [-58.5845204, -34.4799524], [-58.5827988, -34.4792196], [-58.5811584, -34.4784435], [-58.5790392, -34.4774207], [-58.5789213, -34.477388], [-58.5788081, -34.4773754], [-58.5787438, -34.4773562], [-58.5786691, -34.4773196], [-58.5786283, -34.4772725], [-58.5779718, -34.4760989], [-58.5779005, -34.4760259], [-58.5778241, -34.4759861], [-58.5777221, -34.4759618], [-58.5751227, -34.4755875], [-58.5750302, -34.4755621], [-58.5749177, -34.4755117], [-58.5749449, -34.4754757], [-58.5749891, -34.4754171], [-58.5745254, -34.4751967], [-58.5741636, -34.4750248], [-58.5736748, -34.4747925], [-58.5727011, -34.474329], [-58.5718649, -34.4739295], [-58.5718084, -34.4739025], [-58.5708288, -34.473436], [-58.5698874, -34.4729877], [-58.5689304, -34.472532], [-58.5683937, -34.4722764], [-58.5682222, -34.4721886], [-58.5681015, -34.4721285], [-58.5680661, -34.47211], [-58.5678686, -34.4720052], [-58.5669417, -34.4716011], [-58.5666012, -34.4714523], [-58.5657286, -34.4709733], [-58.5656501, -34.470939], [-58.5655451, -34.4708932], [-58.565305, -34.4707885], [-58.5652273, -34.4707585], [-58.5649549, -34.4706315], [-58.5642239, -34.4702907], [-58.5632575, -34.4698305], [-58.5623251, -34.4693865], [-58.5612881, -34.4688927], [-58.5610557, -34.468782], [-58.5603745, -34.4684576], [-58.5594012, -34.4679941], [-58.5584814, -34.467556], [-58.5582433, -34.4674427], [-58.5574879, -34.4670829], [-58.5565768, -34.466649], [-58.5562226, -34.4664803], [-58.5561202, -34.4664315], [-58.5560374, -34.4663921], [-58.5556514, -34.4662083], [-58.5548711, -34.4658367], [-58.5537379, -34.4652929], [-58.552742, -34.4648149], [-58.5517976, -34.4643617], [-58.5508746, -34.4639188], [-58.5503824, -34.4636825], [-58.5499288, -34.4634648], [-58.5494637, -34.4632456], [-58.549374, -34.4631986], [-58.5489705, -34.4630049], [-58.548941, -34.4629907], [-58.5480417, -34.4625592], [-58.5472374, -34.4621732], [-58.5472074, -34.4621564], [-58.547077, -34.4620962], [-58.5469124, -34.4620535], [-58.546042, -34.4616201], [-58.5457294, -34.4614592], [-58.5449344, -34.461071], [-58.5448192, -34.4610126], [-58.5438644, -34.4605544], [-58.5429159, -34.4600992], [-58.541962, -34.4596414], [-58.5410095, -34.4591842], [-58.5400724, -34.4587345], [-58.5391209, -34.4582778], [-58.5381698, -34.4578253], [-58.5372293, -34.4573699], [-58.5363382, -34.4569471], [-58.5362076, -34.4568815], [-58.5356026, -34.4565985], [-58.5350485, -34.4562721], [-58.5349329, -34.4562097], [-58.5348423, -34.4561601], [-58.5346779, -34.4560749], [-58.5337744, -34.4556066], [-58.5334854, -34.4554568], [-58.5328464, -34.4551255], [-58.5325665, -34.4549804], [-58.5319307, -34.4546509], [-58.5316334, -34.4544968], [-58.531022, -34.4541798], [-58.5306972, -34.4540115], [-58.5301056, -34.4536974], [-58.5297878, -34.4535232], [-58.5292041, -34.4532035], [-58.5288726, -34.4530218], [-58.5281747, -34.4526395], [-58.5277352, -34.4523965], [-58.5276378, -34.4523453], [-58.5275274, -34.4522898], [-58.5268321, -34.4519467], [-58.5266632, -34.4518633], [-58.5264009, -34.4517339], [-58.5259986, -34.4515339], [-58.5243614, -34.4507172], [-58.5241647, -34.450619], [-58.5235665, -34.4503315], [-58.523435, -34.4502699], [-58.5232196, -34.4501637], [-58.5212608, -34.4492162], [-58.5209896, -34.449085], [-58.5208237, -34.4489981], [-58.520674, -34.4489113], [-58.5206037, -34.4488715], [-58.517561, -34.446043], [-58.5175445, -34.4460476], [-58.5194256, -34.445409], [-58.5205248, -34.4451098], [-58.5213984, -34.4448527], [-58.5227303, -34.4444207], [-58.5246503, -34.4435804], [-58.5292164, -34.4418564], [-58.5342666, -34.4390003], [-58.5354617, -34.4383142], [-58.5375941, -34.4359181], [-58.539044, -34.4339629], [-58.5403498, -34.4324401], [-58.542587, -34.4313095], [-58.5449489, -34.4306153], [-58.5491985, -34.4297243], [-58.5513466, -34.4285241], [-58.5583569, -34.4242294], [-58.5588306, -34.4264897], [-58.5591505, -34.4277912], [-58.5593566, -34.4282602], [-58.5600674, -34.4296086], [-58.5603375, -34.4299369], [-58.5617874, -34.4312208], [-58.5665817, -34.4347434], [-58.5705347, -34.4377659], [-58.5722174, -34.4389046], [-58.5726471, -34.4394437], [-58.5727561, -34.4395342], [-58.5744021, -34.4407098], [-58.5759285, -34.441814], [-58.5768406, -34.4424772], [-58.5777901, -34.4431559], [-58.5790426, -34.444043], [-58.5791433, -34.444113], [-58.5794835, -34.4443427], [-58.5797131, -34.4445146], [-58.5800854, -34.4447735], [-58.5801479, -34.4448169], [-58.5803254, -34.444923], [-58.5804708, -34.4449955], [-58.5806079, -34.4450419], [-58.5813993, -34.4452207], [-58.5849569, -34.4460133], [-58.5881767, -34.4467362], [-58.591615, -34.4475154], [-58.5945651, -34.448189], [-58.5947406, -34.4482116], [-58.594882, -34.4482083], [-58.5951177, -34.4482112], [-58.5951664, -34.4482125], [-58.5951997, -34.4482185], [-58.5954316, -34.448271], [-58.5953882, -34.4483728], [-58.5953531, -34.4486605], [-58.5953567, -34.4488839], [-58.5953837, -34.4490397], [-58.5953904, -34.4492765], [-58.5953492, -34.4497119], [-58.5952527, -34.4502267], [-58.5951915, -34.4506917], [-58.5951998, -34.451339], [-58.5952894, -34.4516765], [-58.5954547, -34.4520967], [-58.5956972, -34.4525345], [-58.5990738, -34.4582116], [-58.599445, -34.458867], [-58.5996521, -34.4593605], [-58.6004247, -34.4619444], [-58.6013565, -34.4649252], [-58.6032362, -34.4705155], [-58.6039578, -34.4728647], [-58.604057, -34.4731334], [-58.6043299, -34.4738721], [-58.604713, -34.4749966], [-58.6053303, -34.4765104], [-58.6054359, -34.4769037], [-58.6055033, -34.4771502], [-58.6055477, -34.4774839]]]]}}, {"type": "Feature", "properties": {"partido": "Partido de Tigre", "osm_rel": 2411762}, "geometry": {"type": "Polygon", "coordinates": [[[-58.7341263, -34.4022193], [-58.7322724, -34.4045968], [-58.7321945, -34.4047006], [-58.7321818, -34.4047175], [-58.7320779, -34.40485], [-58.7310987, -34.4060912], [-58.7304007, -34.4069916], [-58.7302434, -34.4071992], [-58.7301872, -34.4072572], [-58.7300983, -34.4073219], [-58.7300515, -34.4073506], [-58.730007, -34.4073778], [-58.7298101, -34.4074987], [-58.7295245, -34.407657], [-58.7294899, -34.4076707], [-58.7289775, -34.4083867], [-58.728307, -34.4092384], [-58.7276137, -34.4101348], [-58.7265324, -34.4115415], [-58.7254343, -34.4129519], [-58.7241049, -34.4146468], [-58.7234299, -34.4155381], [-58.7227588, -34.4163614], [-58.7221596, -34.4171319], [-58.7220341, -34.4173091], [-58.7216673, -34.4177797], [-58.721432, -34.4180816], [-58.7213699, -34.4181614], [-58.7206709, -34.4190479], [-58.7194265, -34.4206854], [-58.7184744, -34.4219397], [-58.7182355, -34.4222366], [-58.717876, -34.4227076], [-58.7167696, -34.424101], [-58.7154477, -34.4257993], [-58.7146491, -34.4268545], [-58.7145815, -34.4269438], [-58.7144983, -34.4270536], [-58.7141758, -34.4274797], [-58.714021, -34.4277379], [-58.7138621, -34.4280295], [-58.713449, -34.4289473], [-58.7134041, -34.4290471], [-58.7132132, -34.4294937], [-58.7130862, -34.4298136], [-58.7129522, -34.429871], [-58.7128893, -34.4299045], [-58.7125787, -34.430208], [-58.7119894, -34.4309878], [-58.7115385, -34.4315845], [-58.7111653, -34.4321227], [-58.708514, -34.436595], [-58.7082441, -34.4368242], [-58.707463, -34.4375193], [-58.7070705, -34.4378899], [-58.7066732, -34.4382533], [-58.7065372, -34.4383539], [-58.7064261, -34.4384361], [-58.7062505, -34.4385805], [-58.7061098, -34.4386998], [-58.7059816, -34.4388151], [-58.7059228, -34.4388583], [-58.7058519, -34.4389184], [-58.7057688, -34.439003], [-58.7056459, -34.4391281], [-58.7055882, -34.4391964], [-58.7055082, -34.4392911], [-58.7054147, -34.4394121], [-58.7053898, -34.4394443], [-58.7053135, -34.439543], [-58.7052891, -34.4395742], [-58.7051683, -34.4397284], [-58.7049544, -34.4400416], [-58.7047907, -34.4403407], [-58.7046727, -34.4405388], [-58.7045546, -34.4407044], [-58.7044414, -34.4408447], [-58.7039769, -34.44142], [-58.7034519, -34.442092], [-58.7028144, -34.4429122], [-58.7026851, -34.4430822], [-58.702141, -34.4437827], [-58.7003825, -34.4460469], [-58.7002985, -34.4461562], [-58.7001131, -34.4463615], [-58.6997554, -34.4467033], [-58.6995849, -34.4468682], [-58.6995588, -34.4468994], [-58.699431, -34.4470523], [-58.6992425, -34.4473014], [-58.6991399, -34.4474512], [-58.6991345, -34.4474561], [-58.6989605, -34.4476384], [-58.698876, -34.4477718], [-58.6988306, -34.4478288], [-58.6987587, -34.4479493], [-58.698605, -34.4482068], [-58.6983, -34.4487178], [-58.6981118, -34.4489827], [-58.697533, -34.4497159], [-58.6967598, -34.4507167], [-58.6961512, -34.4515008], [-58.695988, -34.4517111], [-58.6956676, -34.4521116], [-58.695119, -34.4526814], [-58.6945153, -34.4532837], [-58.6943275, -34.4536043], [-58.69423, -34.4537583], [-58.693837, -34.4544417], [-58.6920521, -34.4567623], [-58.6916631, -34.4572595], [-58.6914454, -34.4575415], [-58.6913773, -34.4576223], [-58.6912234, -34.4578048], [-58.6909645, -34.4580789], [-58.6906475, -34.4583904], [-58.6905068, -34.4585446], [-58.6903067, -34.4587592], [-58.6900407, -34.4590836], [-58.6899319, -34.4592085], [-58.6897351, -34.4594558], [-58.6896362, -34.459604], [-58.689559, -34.4597531], [-58.6894439, -34.4599701], [-58.6893109, -34.460219], [-58.6892228, -34.4603544], [-58.6889586, -34.4606836], [-58.6889133, -34.4607421], [-58.6887926, -34.4608964], [-58.6887119, -34.4609957], [-58.6884826, -34.4612915], [-58.6884023, -34.4613952], [-58.6879896, -34.461937], [-58.6875434, -34.4625155], [-58.6874204, -34.4626446], [-58.6873369, -34.4627527], [-58.6872242, -34.4628887], [-58.6870478, -34.4630947], [-58.6868806, -34.4632452], [-58.6865183, -34.4636409], [-58.6861595, -34.4640281], [-58.6859407, -34.4643193], [-58.6858063, -34.4645105], [-58.685681, -34.4647382], [-58.6853919, -34.4652591], [-58.6852207, -34.4654556], [-58.6843984, -34.4663499], [-58.6806261, -34.4714016], [-58.6785516, -34.4740336], [-58.6783499, -34.4742904], [-58.6781951, -34.4744711], [-58.6780778, -34.4746031], [-58.6776375, -34.4750093], [-58.6766305, -34.475872], [-58.6749269, -34.4773486], [-58.6747918, -34.4774699], [-58.6740721, -34.478081], [-58.6734896, -34.4785668], [-58.6733999, -34.4786545], [-58.6726266, -34.4792846], [-58.6724696, -34.4794126], [-58.6721489, -34.4796817], [-58.6718822, -34.4799201], [-58.6716869, -34.4800808], [-58.6710765, -34.4806105], [-58.6704619, -34.481145], [-58.6704363, -34.4811686], [-58.6698192, -34.4816759], [-58.6692376, -34.4821692], [-58.6691803, -34.4822174], [-58.6686643, -34.4826485], [-58.6685489, -34.4827515], [-58.6678937, -34.4833144], [-58.6677911, -34.4834008], [-58.6672019, -34.4838948], [-58.6670998, -34.4839804], [-58.6666375, -34.4843644], [-58.6663036, -34.4846478], [-58.6660674, -34.4848479], [-58.6654751, -34.4853547], [-58.6647935, -34.4859454], [-58.6647142, -34.4860226], [-58.6640755, -34.4865537], [-58.6639076, -34.4867029], [-58.6633733, -34.4871272], [-58.6631028, -34.4873755], [-58.6626943, -34.4877186], [-58.6621705, -34.4881749], [-58.6619795, -34.4883316], [-58.6615005, -34.4887333], [-58.6613169, -34.4888833], [-58.6603192, -34.489715], [-58.6601753, -34.4898382], [-58.6591395, -34.4907265], [-58.6583086, -34.4914253], [-58.6574693, -34.4921213], [-58.6565988, -34.4928336], [-58.655805, -34.4935497], [-58.6549378, -34.4942967], [-58.6541273, -34.4949823], [-58.6534946, -34.495501], [-58.6533918, -34.4955868], [-58.6531733, -34.4957648], [-58.6526925, -34.496161], [-58.6526409, -34.4962076], [-58.652457, -34.496373], [-58.6518744, -34.4968794], [-58.6498595, -34.4985834], [-58.6483006, -34.4998885], [-58.6465679, -34.5013688], [-58.6463242, -34.5015771], [-58.6461611, -34.5017144], [-58.6459344, -34.5018953], [-58.6458707, -34.5019424], [-58.6455797, -34.5021789], [-58.6435551, -34.5038893], [-58.642367, -34.5048908], [-58.6381414, -34.508453], [-58.6073326, -34.5344203], [-58.6069873, -34.5347113], [-58.6063478, -34.5342284], [-58.6059258, -34.5338406], [-58.6053932, -34.5331317], [-58.6052666, -34.5327296], [-58.605035, -34.5314756], [-58.6049005, -34.5301027], [-58.604882, -34.5299137], [-58.6048223, -34.5293046], [-58.6045741, -34.528242], [-58.6044602, -34.5277541], [-58.6042801, -34.5269762], [-58.604218, -34.5264798], [-58.6041357, -34.5261071], [-58.6035533, -34.5244121], [-58.6034317, -34.5239096], [-58.603311, -34.5235983], [-58.6030998, -34.5231582], [-58.6028772, -34.5227995], [-58.6018017, -34.5214152], [-58.6015439, -34.5209536], [-58.6014561, -34.5206242], [-58.6014166, -34.5202587], [-58.601462, -34.5196958], [-58.6015491, -34.5190536], [-58.601723, -34.5177713], [-58.602212, -34.5153936], [-58.6024601, -34.514024], [-58.6026989, -34.5127056], [-58.6027689, -34.512305], [-58.6027899, -34.512011], [-58.6027316, -34.5115189], [-58.6013679, -34.5055312], [-58.6009319, -34.5033484], [-58.600824, -34.5028793], [-58.6007016, -34.5025305], [-58.6005197, -34.5021327], [-58.5985825, -34.4990631], [-58.5984267, -34.4985776], [-58.5983816, -34.4980937], [-58.5984398, -34.4975234], [-58.5985221, -34.4971217], [-58.5986174, -34.4968115], [-58.5988132, -34.4962158], [-58.5990901, -34.4956234], [-58.5996609, -34.4949874], [-58.6003685, -34.4942993], [-58.6006263, -34.4939411], [-58.6007682, -34.493601], [-58.6008713, -34.4930961], [-58.6009039, -34.4926557], [-58.6007677, -34.4916812], [-58.6004291, -34.4905502], [-58.599802, -34.4894301], [-58.599539, -34.4882094], [-58.5994982, -34.4879151], [-58.5994429, -34.4861485], [-58.6032514, -34.4809362], [-58.6036642, -34.4803713], [-58.6041261, -34.4797391], [-58.6045846, -34.4792422], [-58.6047739, -34.479037], [-58.6051887, -34.4784999], [-58.605358, -34.4782143], [-58.605474, -34.4779598], [-58.6055301, -34.4777423], [-58.6055477, -34.4774839], [-58.6055033, -34.4771502], [-58.6054359, -34.4769037], [-58.6053303, -34.4765104], [-58.604713, -34.4749966], [-58.6043299, -34.4738721], [-58.604057, -34.4731334], [-58.6039578, -34.4728647], [-58.6032362, -34.4705155], [-58.6013565, -34.4649252], [-58.6004247, -34.4619444], [-58.5996521, -34.4593605], [-58.599445, -34.458867], [-58.5990738, -34.4582116], [-58.5956972, -34.4525345], [-58.5954547, -34.4520967], [-58.5952894, -34.4516765], [-58.5951998, -34.451339], [-58.5951915, -34.4506917], [-58.5952527, -34.4502267], [-58.5953492, -34.4497119], [-58.5953904, -34.4492765], [-58.5953837, -34.4490397], [-58.5953567, -34.4488839], [-58.5953531, -34.4486605], [-58.5953882, -34.4483728], [-58.5954316, -34.448271], [-58.5951997, -34.4482185], [-58.5951664, -34.4482125], [-58.5951177, -34.4482112], [-58.594882, -34.4482083], [-58.5947406, -34.4482116], [-58.5945651, -34.448189], [-58.591615, -34.4475154], [-58.5881767, -34.4467362], [-58.5849569, -34.4460133], [-58.5813993, -34.4452207], [-58.5806079, -34.4450419], [-58.5804708, -34.4449955], [-58.5803254, -34.444923], [-58.5801479, -34.4448169], [-58.5800854, -34.4447735], [-58.5797131, -34.4445146], [-58.5794835, -34.4443427], [-58.5791433, -34.444113], [-58.5790426, -34.444043], [-58.5777901, -34.4431559], [-58.5768406, -34.4424772], [-58.5759285, -34.441814], [-58.5744021, -34.4407098], [-58.5727561, -34.4395342], [-58.5726471, -34.4394437], [-58.5722174, -34.4389046], [-58.5705347, -34.4377659], [-58.5665817, -34.4347434], [-58.5617874, -34.4312208], [-58.5603375, -34.4299369], [-58.5600674, -34.4296086], [-58.5593566, -34.4282602], [-58.5591505, -34.4277912], [-58.5588306, -34.4264897], [-58.5583569, -34.4242294], [-58.5513466, -34.4285241], [-58.5491985, -34.4297243], [-58.5449489, -34.4306153], [-58.542587, -34.4313095], [-58.5403498, -34.4324401], [-58.539044, -34.4339629], [-58.5375941, -34.4359181], [-58.5354617, -34.4383142], [-58.5342666, -34.4390003], [-58.5292164, -34.4418564], [-58.5246503, -34.4435804], [-58.5227303, -34.4444207], [-58.5213984, -34.4448527], [-58.5205248, -34.4451098], [-58.5194256, -34.445409], [-58.5175445, -34.4460476], [-58.5161438, -34.4433383], [-58.514396, -34.4434949], [-58.5108909, -34.4441526], [-58.391355, -34.3835865], [-58.4382069, -34.3242518], [-58.4634662, -34.3233072], [-58.480108, -34.3231926], [-58.4904724, -34.3211491], [-58.4916381, -34.3203371], [-58.4945249, -34.3181165], [-58.4998792, -34.3137589], [-58.506485, -34.3083057], [-58.5065916, -34.3082252], [-58.5118678, -34.3035845], [-58.5157696, -34.3005287], [-58.5178342, -34.2999145], [-58.5201626, -34.2994647], [-58.5225713, -34.2991924], [-58.5239085, -34.2991135], [-58.5261746, -34.2991265], [-58.5348364, -34.299977], [-58.540649, -34.3001743], [-58.5419414, -34.3001993], [-58.5435729, -34.3001267], [-58.5450912, -34.2997474], [-58.5465872, -34.2990623], [-58.5476854, -34.2985594], [-58.5665238, -34.2899951], [-58.5694146, -34.2885346], [-58.5772877, -34.2846341], [-58.5803037, -34.2834091], [-58.5884629, -34.280483], [-58.5951821, -34.2780732], [-58.6005608, -34.2763144], [-58.6082339, -34.273843], [-58.6152268, -34.2720037], [-58.6172989, -34.2716341], [-58.6243248, -34.2703807], [-58.6336127, -34.269049], [-58.6358063, -34.2686796], [-58.6382773, -34.2682473], [-58.6491384, -34.2648138], [-58.6506563, -34.2685166], [-58.6520248, -34.2697802], [-58.6528821, -34.2704369], [-58.6534995, -34.27102], [-58.6538935, -34.2714914], [-58.6542562, -34.2721834], [-58.6621581, -34.2949864], [-58.6698897, -34.3176519], [-58.6739819, -34.329601], [-58.6759008, -34.3353823], [-58.6780827, -34.3413488], [-58.6781232, -34.3414979], [-58.6784128, -34.3424324], [-58.6787996, -34.3434222], [-58.6791983, -34.3443741], [-58.6799082, -34.345686], [-58.6807185, -34.3468115], [-58.681286, -34.3474693], [-58.6818873, -34.34808], [-58.6826385, -34.3487015], [-58.6838588, -34.3496095], [-58.6849354, -34.3504727], [-58.6858239, -34.3512351], [-58.6860595, -34.3514189], [-58.6879292, -34.3494646], [-58.6882498, -34.3490654], [-58.6884597, -34.3487445], [-58.6887258, -34.3484249], [-58.6890582, -34.3480418], [-58.6894126, -34.3477213], [-58.6903422, -34.3470296], [-58.6904808, -34.3469009], [-58.6947807, -34.3490528], [-58.6998801, -34.3517074], [-58.7131824, -34.358508], [-58.7132952, -34.3585664], [-58.7163379, -34.360155], [-58.7190532, -34.3615273], [-58.7191812, -34.3616266], [-58.7192923, -34.3617128], [-58.7205247, -34.3631548], [-58.7205942, -34.3633053], [-58.7208371, -34.3639049], [-58.7209101, -34.3640081], [-58.7210043, -34.3641262], [-58.7211235, -34.3642445], [-58.7212034, -34.3643063], [-58.7212816, -34.3643666], [-58.7214479, -34.3644438], [-58.7214004, -34.36447], [-58.7199901, -34.3651883], [-58.7193693, -34.3655125], [-58.7192459, -34.3655863], [-58.7191202, -34.3656752], [-58.7167416, -34.3669178], [-58.7153553, -34.3676395], [-58.7089913, -34.3709402], [-58.708327, -34.3712841], [-58.7081506, -34.3713821], [-58.7075249, -34.3717239], [-58.7064457, -34.3722716], [-58.7062071, -34.3723927], [-58.7050426, -34.3730553], [-58.706487, -34.3754182], [-58.7109721, -34.3827337], [-58.7130245, -34.3860662], [-58.7139177, -34.3874557], [-58.7142632, -34.3879587], [-58.7144094, -34.3881353], [-58.7145503, -34.3882907], [-58.7148262, -34.3885609], [-58.715179, -34.3888545], [-58.7154422, -34.3890434], [-58.7156091, -34.3891518], [-58.7158088, -34.3892712], [-58.7160387, -34.3893959], [-58.7164052, -34.3895693], [-58.7167556, -34.389709], [-58.7171148, -34.3898282], [-58.7174394, -34.3899167], [-58.7177962, -34.389994], [-58.7181127, -34.3900438], [-58.7184332, -34.3900711], [-58.7189342, -34.3901035], [-58.7194921, -34.3900919], [-58.7198842, -34.3900507], [-58.7203721, -34.3899632], [-58.7205547, -34.3899224], [-58.7208896, -34.3898475], [-58.7185827, -34.3908567], [-58.7167139, -34.3917215], [-58.7161758, -34.3919886], [-58.7155781, -34.3922964], [-58.7158488, -34.3924415], [-58.7164606, -34.3927688], [-58.7175255, -34.3933403], [-58.7185727, -34.393897], [-58.7196145, -34.3944561], [-58.7206818, -34.3950206], [-58.7217462, -34.3955838], [-58.7227879, -34.3961586], [-58.7238372, -34.3967092], [-58.7248992, -34.397283], [-58.7259351, -34.3978357], [-58.7269751, -34.3984005], [-58.728057, -34.3989714], [-58.7290896, -34.3995184], [-58.7301499, -34.4000786], [-58.7312017, -34.4006408], [-58.7322391, -34.4012005], [-58.7332788, -34.4017659], [-58.7341263, -34.4022193]]]}}, {"type": "Feature", "properties": {"partido": "Partido de General San Martin", "osm_rel": 1719022}, "geometry": {"type": "Polygon", "coordinates": [[[-58.6182215, -34.5474313], [-58.6114388, -34.5525707], [-58.6105219, -34.5532805], [-58.6095882, -34.5539743], [-58.608668, -34.5546724], [-58.6077515, -34.5553787], [-58.6068208, -34.556066], [-58.6060846, -34.5566234], [-58.6053328, -34.5571999], [-58.6045725, -34.5577813], [-58.6037991, -34.5583826], [-58.603342, -34.5587364], [-58.6031804, -34.5588659], [-58.6028988, -34.5590873], [-58.6025311, -34.559374], [-58.6022293, -34.5596093], [-58.6019923, -34.5598006], [-58.6013274, -34.560319], [-58.6010778, -34.5605185], [-58.6006967, -34.5608271], [-58.6005575, -34.5609398], [-58.6001779, -34.561238], [-58.5991561, -34.5620395], [-58.5986762, -34.5624187], [-58.5985156, -34.5625507], [-58.5984388, -34.5626143], [-58.5983652, -34.5626752], [-58.5982646, -34.5627523], [-58.5981734, -34.5628269], [-58.5979494, -34.5629967], [-58.597141, -34.5636423], [-58.5970121, -34.5637441], [-58.5965208, -34.56414], [-58.596432, -34.5642127], [-58.5958267, -34.5646856], [-58.5954527, -34.5649743], [-58.5952223, -34.5651565], [-58.5949215, -34.5653848], [-58.5945921, -34.5656505], [-58.5943784, -34.5658206], [-58.593943, -34.5661613], [-58.593342, -34.5666397], [-58.5926938, -34.567149], [-58.5923039, -34.5674604], [-58.5920686, -34.5676488], [-58.5913402, -34.5682217], [-58.5912067, -34.5683268], [-58.5908573, -34.5685905], [-58.5907526, -34.5686696], [-58.5906747, -34.568732], [-58.5905985, -34.5687898], [-58.5905059, -34.5688619], [-58.5903514, -34.5689883], [-58.5902985, -34.5690301], [-58.5890177, -34.5700426], [-58.5877328, -34.5710553], [-58.5868277, -34.571781], [-58.5867407, -34.5718505], [-58.5866488, -34.5719246], [-58.5866202, -34.5719473], [-58.5861454, -34.5723191], [-58.5851083, -34.5731457], [-58.5846192, -34.5735165], [-58.5841609, -34.5738772], [-58.5839254, -34.5740697], [-58.5838043, -34.5741613], [-58.583573, -34.5743374], [-58.5830897, -34.5747278], [-58.5829847, -34.574817], [-58.5828792, -34.5749024], [-58.5823883, -34.5752804], [-58.5821344, -34.5754772], [-58.581799, -34.5757391], [-58.5812998, -34.5761352], [-58.5809389, -34.5764296], [-58.5804858, -34.5767925], [-58.580093, -34.5771013], [-58.5796515, -34.5774392], [-58.5794569, -34.5775883], [-58.578819, -34.5780901], [-58.5781114, -34.5786611], [-58.5780008, -34.5787454], [-58.5779037, -34.5788254], [-58.5772219, -34.5793558], [-58.5766323, -34.5798207], [-58.576585, -34.5798594], [-58.5763744, -34.5800178], [-58.5760195, -34.5803021], [-58.5756587, -34.580583], [-58.5755566, -34.5806629], [-58.5754261, -34.5807636], [-58.5753392, -34.5808312], [-58.5748209, -34.5812346], [-58.5747294, -34.5813058], [-58.5742319, -34.5816929], [-58.5738993, -34.5819518], [-58.5736383, -34.5821548], [-58.5730522, -34.582611], [-58.5723696, -34.5831422], [-58.5722255, -34.5832543], [-58.5721307, -34.5833303], [-58.5714273, -34.5839026], [-58.5712285, -34.5840547], [-58.5706329, -34.5845278], [-58.5698293, -34.5851472], [-58.5690471, -34.5857737], [-58.5680797, -34.5865238], [-58.5673398, -34.5871165], [-58.5663371, -34.5879176], [-58.5654634, -34.5886055], [-58.5652079, -34.5888025], [-58.5650916, -34.5888987], [-58.5640882, -34.5896699], [-58.5637131, -34.5899968], [-58.5630513, -34.5906187], [-58.5626451, -34.5910587], [-58.5624139, -34.591307], [-58.5623869, -34.5913252], [-58.5623469, -34.5913413], [-58.5622665, -34.5913529], [-58.5621965, -34.5913475], [-58.5621559, -34.5913279], [-58.5620313, -34.5912321], [-58.5604483, -34.5914922], [-58.5598916, -34.5915818], [-58.5600983, -34.591697], [-58.5601972, -34.5917509], [-58.5602407, -34.5917767], [-58.5603111, -34.591822], [-58.5601142, -34.5918747], [-58.5586433, -34.5921098], [-58.5582917, -34.5921666], [-58.5571749, -34.5923426], [-58.5567963, -34.5924019], [-58.5562116, -34.5924914], [-58.5559985, -34.592524], [-58.5556859, -34.592571], [-58.5554749, -34.592603], [-58.5543234, -34.5927813], [-58.5541798, -34.5927999], [-58.5527309, -34.5930186], [-58.5514417, -34.5931839], [-58.5510601, -34.5932485], [-58.5501018, -34.5934052], [-58.5487225, -34.5936252], [-58.5480201, -34.5937301], [-58.5477275, -34.593775], [-58.5460309, -34.5940276], [-58.5458702, -34.5940489], [-58.5448372, -34.5942137], [-58.544791, -34.5942264], [-58.5447516, -34.5942528], [-58.5446133, -34.5943833], [-58.544242, -34.5947689], [-58.5441077, -34.5949063], [-58.5439173, -34.595094], [-58.5438355, -34.595038], [-58.5435714, -34.5948723], [-58.542189, -34.5950917], [-58.5417432, -34.5951615], [-58.5408237, -34.5953038], [-58.5406618, -34.5953294], [-58.5400252, -34.5954303], [-58.5394533, -34.5955134], [-58.5393825, -34.5955391], [-58.5393467, -34.5955648], [-58.5392806, -34.5955213], [-58.5386999, -34.5951393], [-58.538504, -34.5951691], [-58.5382179, -34.5952126], [-58.5366873, -34.5954452], [-58.5366005, -34.5954582], [-58.5364388, -34.595483], [-58.5345537, -34.5957695], [-58.5334029, -34.5959443], [-58.5326784, -34.5960569], [-58.5312359, -34.5962676], [-58.5300048, -34.5964605], [-58.5299757, -34.5964754], [-58.5272737, -34.596876], [-58.5225671, -34.5975694], [-58.5222204, -34.596651], [-58.5220491, -34.5960895], [-58.5219844, -34.5958457], [-58.5217632, -34.5948946], [-58.5217366, -34.5948215], [-58.5216904, -34.5947257], [-58.5216433, -34.5946292], [-58.5216262, -34.5945922], [-58.5215689, -34.594468], [-58.5215079, -34.5943451], [-58.521336, -34.5939519], [-58.5210211, -34.593286], [-58.5209597, -34.5931516], [-58.5205181, -34.5922092], [-58.5205029, -34.5921788], [-58.5203676, -34.5918725], [-58.5202736, -34.5916799], [-58.5198974, -34.5908873], [-58.5197944, -34.5906647], [-58.5192597, -34.5895202], [-58.5192072, -34.5894298], [-58.5191494, -34.5893154], [-58.519095, -34.5892015], [-58.5190569, -34.5891181], [-58.5190406, -34.5890845], [-58.5190133, -34.5890243], [-58.5188431, -34.5886555], [-58.5187663, -34.5884695], [-58.5184945, -34.5878901], [-58.517609, -34.5860027], [-58.5175391, -34.5858535], [-58.5175267, -34.5858232], [-58.5172775, -34.5853346], [-58.5171446, -34.5850443], [-58.5168946, -34.5845154], [-58.5168286, -34.584374], [-58.516813, -34.5843449], [-58.5167836, -34.5842784], [-58.5162228, -34.5830869], [-58.5160135, -34.5827848], [-58.5157848, -34.5824205], [-58.5156203, -34.5821575], [-58.5154611, -34.5818902], [-58.5153748, -34.581739], [-58.5153009, -34.5815892], [-58.5151848, -34.5813481], [-58.5151672, -34.5813109], [-58.5151542, -34.5812846], [-58.5148625, -34.5806216], [-58.5148026, -34.580452], [-58.5147515, -34.5802824], [-58.5146489, -34.5799577], [-58.5145097, -34.5794982], [-58.5144828, -34.5794095], [-58.5144176, -34.579156], [-58.5143314, -34.5789455], [-58.5142413, -34.5787419], [-58.5141519, -34.578562], [-58.5141309, -34.5785114], [-58.5140764, -34.578385], [-58.514031, -34.5782789], [-58.5140218, -34.5782557], [-58.5139744, -34.5781268], [-58.5138576, -34.5778049], [-58.5137013, -34.5773524], [-58.513651, -34.5772282], [-58.5135998, -34.577115], [-58.5133539, -34.5765733], [-58.5131925, -34.5762305], [-58.5131543, -34.5761417], [-58.5131246, -34.5760798], [-58.5131127, -34.5760548], [-58.512975, -34.5757665], [-58.5129237, -34.5756589], [-58.5128226, -34.5754386], [-58.5126564, -34.5750793], [-58.5122483, -34.5742187], [-58.5120577, -34.5738168], [-58.5118374, -34.5734061], [-58.5118093, -34.5733474], [-58.5117998, -34.5733275], [-58.5117462, -34.5732142], [-58.5115561, -34.5728076], [-58.5114765, -34.5726391], [-58.5113704, -34.572405], [-58.5112301, -34.5721025], [-58.511019, -34.5716563], [-58.5109986, -34.571616], [-58.5107699, -34.5711252], [-58.5107272, -34.5710335], [-58.5106128, -34.5707745], [-58.5104095, -34.5703186], [-58.5102646, -34.5699999], [-58.5101805, -34.5698151], [-58.5100552, -34.5695461], [-58.5099963, -34.5694196], [-58.5099227, -34.5692534], [-58.5100187, -34.569121], [-58.5100371, -34.5690964], [-58.510578, -34.5683733], [-58.5107873, -34.5680881], [-58.5108471, -34.5680068], [-58.5109203, -34.5679209], [-58.5109637, -34.5678773], [-58.511006, -34.5678357], [-58.5115663, -34.5672965], [-58.5123015, -34.5666187], [-58.5130112, -34.5659347], [-58.5130218, -34.5659246], [-58.5130957, -34.5658555], [-58.5131986, -34.5657384], [-58.5132141, -34.5657215], [-58.5137125, -34.5650746], [-58.5139819, -34.5647195], [-58.5142467, -34.5643705], [-58.5150461, -34.5633165], [-58.5151027, -34.5632419], [-58.5151125, -34.5632293], [-58.515211, -34.5630991], [-58.5152497, -34.5630481], [-58.5156812, -34.5624791], [-58.5158273, -34.5622874], [-58.5166135, -34.5612358], [-58.5166692, -34.5611625], [-58.5173976, -34.560214], [-58.5174175, -34.5601874], [-58.5175131, -34.560064], [-58.5176177, -34.5599241], [-58.5180183, -34.5593975], [-58.518194, -34.559169], [-58.5182638, -34.5590773], [-58.5186903, -34.5585206], [-58.518881, -34.55827], [-58.5190085, -34.5581025], [-58.5191047, -34.5579733], [-58.5195408, -34.5573723], [-58.5197496, -34.5570819], [-58.5202483, -34.5563741], [-58.520506, -34.556017], [-58.5207335, -34.5557218], [-58.5208354, -34.5555902], [-58.5210853, -34.5552701], [-58.521135, -34.5552114], [-58.5215633, -34.5546531], [-58.521763, -34.5544057], [-58.5221562, -34.5539187], [-58.5222874, -34.5537569], [-58.5224789, -34.5535128], [-58.5227934, -34.5531122], [-58.5230646, -34.5527178], [-58.5232063, -34.5525118], [-58.523336, -34.5523233], [-58.5236123, -34.5519214], [-58.5240939, -34.5511917], [-58.5241452, -34.551114], [-58.5245783, -34.5504454], [-58.5247326, -34.5500842], [-58.5247466, -34.5500507], [-58.524803, -34.5498896], [-58.5249803, -34.5493829], [-58.5251011, -34.5490379], [-58.5251557, -34.5489014], [-58.5253094, -34.5484969], [-58.5254416, -34.5481437], [-58.5256655, -34.5475457], [-58.5259605, -34.5467381], [-58.5259912, -34.546654], [-58.5260682, -34.5464433], [-58.5262483, -34.5459571], [-58.52653, -34.5451966], [-58.5265672, -34.5451234], [-58.5266148, -34.5450545], [-58.5267547, -34.5448975], [-58.5268123, -34.5448332], [-58.5274139, -34.5441611], [-58.527794, -34.5437448], [-58.5282243, -34.5432721], [-58.5282756, -34.5432183], [-58.5290888, -34.5423654], [-58.5287936, -34.5422362], [-58.5276731, -34.5417089], [-58.5275194, -34.5416342], [-58.5278869, -34.5409357], [-58.5281451, -34.5404451], [-58.5281894, -34.5403608], [-58.5282574, -34.5402316], [-58.5285486, -34.5396782], [-58.5286678, -34.5394516], [-58.5287865, -34.539226], [-58.5288692, -34.5390687], [-58.5292021, -34.5384306], [-58.529495, -34.537887], [-58.529533, -34.5378164], [-58.5298122, -34.5373146], [-58.5299425, -34.5373957], [-58.5300214, -34.5374444], [-58.5308423, -34.5379517], [-58.531735, -34.5385137], [-58.5318239, -34.5385712], [-58.5320961, -34.5387516], [-58.5326014, -34.5390844], [-58.5330701, -34.5393755], [-58.5333254, -34.539534], [-58.5333258, -34.5395342], [-58.5333923, -34.5395752], [-58.5334588, -34.5396162], [-58.5335819, -34.5396909], [-58.5336475, -34.5397417], [-58.5340033, -34.5401237], [-58.5341669, -34.5402993], [-58.5351721, -34.5413871], [-58.5352865, -34.5415087], [-58.5353121, -34.5415358], [-58.5357635, -34.5420156], [-58.5366874, -34.543029], [-58.5368242, -34.543176], [-58.5373816, -34.543752], [-58.5375736, -34.5439705], [-58.5377452, -34.544153], [-58.5387807, -34.5432483], [-58.5390509, -34.5430227], [-58.5393887, -34.542726], [-58.5400334, -34.5421641], [-58.5401257, -34.5420772], [-58.5407324, -34.5415371], [-58.5413407, -34.5409891], [-58.5415717, -34.5407767], [-58.5425748, -34.5399], [-58.542678, -34.539804], [-58.5435559, -34.5390499], [-58.5438187, -34.5388141], [-58.5450387, -34.5377117], [-58.5456211, -34.5371853], [-58.5457461, -34.5370723], [-58.546269, -34.5366155], [-58.5468985, -34.5360772], [-58.5472591, -34.5357689], [-58.5475265, -34.5355403], [-58.5481484, -34.5350084], [-58.5487645, -34.5344816], [-58.5489196, -34.5343454], [-58.549396, -34.5339318], [-58.5496518, -34.5337142], [-58.5500037, -34.5334308], [-58.5506404, -34.5328629], [-58.551237, -34.5323307], [-58.5517384, -34.5318981], [-58.5527538, -34.5310068], [-58.5537214, -34.5301774], [-58.5547264, -34.5293261], [-58.55555, -34.5286173], [-58.5556969, -34.5284902], [-58.556329, -34.5279532], [-58.556885, -34.5274913], [-58.5571072, -34.5272974], [-58.5578584, -34.5266381], [-58.5582211, -34.5263259], [-58.5586133, -34.5259973], [-58.5589918, -34.5256804], [-58.5593813, -34.5253481], [-58.5600752, -34.5247415], [-58.5608974, -34.524057], [-58.5610951, -34.5238829], [-58.5616531, -34.5234107], [-58.5619607, -34.5231535], [-58.5624272, -34.5227482], [-58.5632721, -34.5220391], [-58.5634482, -34.5218891], [-58.5640154, -34.5214011], [-58.5645386, -34.5209489], [-58.564698, -34.520812], [-58.5654272, -34.5201826], [-58.566141, -34.5195683], [-58.5664746, -34.5192862], [-58.5668741, -34.5189283], [-58.5674861, -34.5184105], [-58.5684958, -34.5175346], [-58.5686164, -34.5174314], [-58.5687173, -34.5173502], [-58.5695088, -34.5166689], [-58.570067, -34.5161815], [-58.5705401, -34.5157793], [-58.570773, -34.515583], [-58.5715236, -34.5149358], [-58.5721815, -34.5143713], [-58.5725498, -34.5140528], [-58.5735718, -34.513182], [-58.5742866, -34.5125676], [-58.5745867, -34.5123138], [-58.5748932, -34.5120462], [-58.5755811, -34.5114455], [-58.5763478, -34.5107873], [-58.5765825, -34.5105851], [-58.577044, -34.5101888], [-58.5775936, -34.5097211], [-58.5783815, -34.5090388], [-58.5784539, -34.5089761], [-58.5786096, -34.5088438], [-58.5791701, -34.5083635], [-58.5796196, -34.507976], [-58.5798727, -34.5077535], [-58.5800619, -34.5076406], [-58.5807498, -34.5070374], [-58.5808839, -34.5068694], [-58.5814096, -34.5064284], [-58.5815705, -34.50633], [-58.5821181, -34.5058563], [-58.5822009, -34.5057388], [-58.5823354, -34.5056245], [-58.5823698, -34.5055951], [-58.5824547, -34.5055725], [-58.5826913, -34.5053665], [-58.5831793, -34.5049483], [-58.58325, -34.5048856], [-58.5837394, -34.5044583], [-58.5838076, -34.5044039], [-58.5844106, -34.503886], [-58.5849562, -34.5034273], [-58.5849848, -34.5033898], [-58.5850602, -34.5033551], [-58.5851043, -34.5033251], [-58.5856168, -34.5028924], [-58.586276, -34.5023145], [-58.5863991, -34.5021845], [-58.5864485, -34.502142], [-58.5871306, -34.5015546], [-58.5871869, -34.5015063], [-58.587874, -34.500917], [-58.5886406, -34.5002584], [-58.5893595, -34.4996182], [-58.5901087, -34.4989506], [-58.5907411, -34.4983522], [-58.5962432, -34.4929345], [-58.599802, -34.4894301], [-58.6004291, -34.4905502], [-58.6007677, -34.4916812], [-58.6009039, -34.4926557], [-58.6008713, -34.4930961], [-58.6007682, -34.493601], [-58.6006263, -34.4939411], [-58.6003685, -34.4942993], [-58.5996609, -34.4949874], [-58.5990901, -34.4956234], [-58.5988132, -34.4962158], [-58.5986174, -34.4968115], [-58.5985221, -34.4971217], [-58.5984398, -34.4975234], [-58.5983816, -34.4980937], [-58.5984267, -34.4985776], [-58.5985825, -34.4990631], [-58.6005197, -34.5021327], [-58.6007016, -34.5025305], [-58.600824, -34.5028793], [-58.6009319, -34.5033484], [-58.6013679, -34.5055312], [-58.6027316, -34.5115189], [-58.6027899, -34.512011], [-58.6027689, -34.512305], [-58.6026989, -34.5127056], [-58.6024601, -34.514024], [-58.602212, -34.5153936], [-58.601723, -34.5177713], [-58.6015491, -34.5190536], [-58.601462, -34.5196958], [-58.6014166, -34.5202587], [-58.6014561, -34.5206242], [-58.6015439, -34.5209536], [-58.6018017, -34.5214152], [-58.6028772, -34.5227995], [-58.6030998, -34.5231582], [-58.603311, -34.5235983], [-58.6034317, -34.5239096], [-58.6035533, -34.5244121], [-58.6041357, -34.5261071], [-58.604218, -34.5264798], [-58.6042801, -34.5269762], [-58.6044602, -34.5277541], [-58.6045741, -34.528242], [-58.6048223, -34.5293046], [-58.604882, -34.5299137], [-58.6049005, -34.5301027], [-58.605035, -34.5314756], [-58.6052666, -34.5327296], [-58.6053932, -34.5331317], [-58.6059258, -34.5338406], [-58.6063478, -34.5342284], [-58.6069873, -34.5347113], [-58.6073579, -34.5349803], [-58.607791, -34.535356], [-58.6083956, -34.5359421], [-58.6086333, -34.5362349], [-58.6088767, -34.5366089], [-58.6094041, -34.5375052], [-58.6107692, -34.5397719], [-58.6112705, -34.5406548], [-58.6113464, -34.5408039], [-58.6118415, -34.5417764], [-58.6123203, -34.5425833], [-58.6125224, -34.5430175], [-58.6126761, -34.5433359], [-58.6127377, -34.543436], [-58.6128347, -34.5435935], [-58.6132296, -34.5441246], [-58.6136249, -34.5445335], [-58.6142135, -34.5450368], [-58.6153125, -34.5458643], [-58.6162208, -34.5465918], [-58.6165437, -34.5468741], [-58.6166928, -34.5469892], [-58.6169444, -34.5471529], [-58.6171991, -34.5472757], [-58.6174965, -34.5473594], [-58.6182215, -34.5474313]]]}}, {"type": "Feature", "properties": {"partido": "Partido de Vicente Lopez", "osm_rel": 2752665}, "geometry": {"type": "Polygon", "coordinates": [[[-58.5537214, -34.5301774], [-58.5527538, -34.5310068], [-58.5517384, -34.5318981], [-58.551237, -34.5323307], [-58.5506404, -34.5328629], [-58.5500037, -34.5334308], [-58.5496518, -34.5337142], [-58.549396, -34.5339318], [-58.5489196, -34.5343454], [-58.5487645, -34.5344816], [-58.5481484, -34.5350084], [-58.5475265, -34.5355403], [-58.5472591, -34.5357689], [-58.5468985, -34.5360772], [-58.546269, -34.5366155], [-58.5457461, -34.5370723], [-58.5456211, -34.5371853], [-58.5450387, -34.5377117], [-58.5438187, -34.5388141], [-58.5435559, -34.5390499], [-58.542678, -34.539804], [-58.5425748, -34.5399], [-58.5415717, -34.5407767], [-58.5413407, -34.5409891], [-58.5407324, -34.5415371], [-58.5401257, -34.5420772], [-58.5400334, -34.5421641], [-58.5393887, -34.542726], [-58.5390509, -34.5430227], [-58.5387807, -34.5432483], [-58.5377452, -34.544153], [-58.5375736, -34.5439705], [-58.5373816, -34.543752], [-58.5368242, -34.543176], [-58.5366874, -34.543029], [-58.5357635, -34.5420156], [-58.5353121, -34.5415358], [-58.5352865, -34.5415087], [-58.5351721, -34.5413871], [-58.5341669, -34.5402993], [-58.5340033, -34.5401237], [-58.5336475, -34.5397417], [-58.5335819, -34.5396909], [-58.5334588, -34.5396162], [-58.5333923, -34.5395752], [-58.5333258, -34.5395342], [-58.5333254, -34.539534], [-58.5330701, -34.5393755], [-58.5326014, -34.5390844], [-58.5320961, -34.5387516], [-58.5318239, -34.5385712], [-58.531735, -34.5385137], [-58.5308423, -34.5379517], [-58.5300214, -34.5374444], [-58.5299425, -34.5373957], [-58.5298122, -34.5373146], [-58.529533, -34.5378164], [-58.529495, -34.537887], [-58.5292021, -34.5384306], [-58.5288692, -34.5390687], [-58.5287865, -34.539226], [-58.5286678, -34.5394516], [-58.5285486, -34.5396782], [-58.5282574, -34.5402316], [-58.5281894, -34.5403608], [-58.5281451, -34.5404451], [-58.5278869, -34.5409357], [-58.5275194, -34.5416342], [-58.5276731, -34.5417089], [-58.5287936, -34.5422362], [-58.5290888, -34.5423654], [-58.5282756, -34.5432183], [-58.5282243, -34.5432721], [-58.527794, -34.5437448], [-58.5274139, -34.5441611], [-58.5268123, -34.5448332], [-58.5267547, -34.5448975], [-58.5266148, -34.5450545], [-58.5265672, -34.5451234], [-58.52653, -34.5451966], [-58.5262483, -34.5459571], [-58.5260682, -34.5464433], [-58.5259912, -34.546654], [-58.5259605, -34.5467381], [-58.5256655, -34.5475457], [-58.5254416, -34.5481437], [-58.5253094, -34.5484969], [-58.5251557, -34.5489014], [-58.5251011, -34.5490379], [-58.5249803, -34.5493829], [-58.524803, -34.5498896], [-58.5247466, -34.5500507], [-58.5247326, -34.5500842], [-58.5245783, -34.5504454], [-58.5241452, -34.551114], [-58.5240939, -34.5511917], [-58.5236123, -34.5519214], [-58.523336, -34.5523233], [-58.5232063, -34.5525118], [-58.5230646, -34.5527178], [-58.5227934, -34.5531122], [-58.5224789, -34.5535128], [-58.5222874, -34.5537569], [-58.5221562, -34.5539187], [-58.521763, -34.5544057], [-58.5215633, -34.5546531], [-58.521135, -34.5552114], [-58.5210853, -34.5552701], [-58.5208354, -34.5555902], [-58.5207335, -34.5557218], [-58.520506, -34.556017], [-58.5202483, -34.5563741], [-58.5197496, -34.5570819], [-58.5195408, -34.5573723], [-58.5191047, -34.5579733], [-58.5190085, -34.5581025], [-58.518881, -34.55827], [-58.5186903, -34.5585206], [-58.5182638, -34.5590773], [-58.518194, -34.559169], [-58.5180183, -34.5593975], [-58.5176177, -34.5599241], [-58.5175131, -34.560064], [-58.5174175, -34.5601874], [-58.5173976, -34.560214], [-58.5166692, -34.5611625], [-58.5166135, -34.5612358], [-58.5158273, -34.5622874], [-58.5156812, -34.5624791], [-58.5152497, -34.5630481], [-58.515211, -34.5630991], [-58.5151125, -34.5632293], [-58.5151027, -34.5632419], [-58.5150461, -34.5633165], [-58.5142467, -34.5643705], [-58.5139819, -34.5647195], [-58.5137125, -34.5650746], [-58.5132141, -34.5657215], [-58.5131986, -34.5657384], [-58.5130957, -34.5658555], [-58.5130218, -34.5659246], [-58.5130112, -34.5659347], [-58.5123015, -34.5666187], [-58.5115663, -34.5672965], [-58.511006, -34.5678357], [-58.5109637, -34.5678773], [-58.5109203, -34.5679209], [-58.5108471, -34.5680068], [-58.5107873, -34.5680881], [-58.510578, -34.5683733], [-58.5100371, -34.5690964], [-58.5100187, -34.569121], [-58.5099227, -34.5692534], [-58.5098544, -34.5691278], [-58.5098471, -34.5691144], [-58.509837, -34.5690958], [-58.5095421, -34.5685481], [-58.5093435, -34.5681821], [-58.5092408, -34.5679957], [-58.5087064, -34.5670262], [-58.5085641, -34.5667376], [-58.5083404, -34.5662575], [-58.5079631, -34.5654524], [-58.5073179, -34.5640743], [-58.5070193, -34.5634385], [-58.5066613, -34.5626743], [-58.5066063, -34.562557], [-58.5064435, -34.5622093], [-58.5061153, -34.5615067], [-58.5060487, -34.5613623], [-58.5060427, -34.5613489], [-58.5060004, -34.5612543], [-58.5059432, -34.5611003], [-58.5059303, -34.5610621], [-58.505773, -34.560623], [-58.5057281, -34.5605034], [-58.5053106, -34.5596035], [-58.5050765, -34.5591091], [-58.5050002, -34.5589474], [-58.504858, -34.5586472], [-58.5047162, -34.5583844], [-58.5044824, -34.5579899], [-58.5042333, -34.5575155], [-58.5041785, -34.5574112], [-58.5041008, -34.5572527], [-58.5040701, -34.557177], [-58.5040225, -34.5570648], [-58.5038625, -34.5566921], [-58.5037873, -34.5565375], [-58.5034787, -34.5558974], [-58.503306, -34.5555148], [-58.5032322, -34.5553738], [-58.5030223, -34.5549237], [-58.502952, -34.5547804], [-58.5029379, -34.5547547], [-58.502761, -34.5543845], [-58.5022692, -34.5532877], [-58.502098, -34.5529026], [-58.5020632, -34.5528032], [-58.5020296, -34.5526729], [-58.5019581, -34.5522599], [-58.5019255, -34.5520776], [-58.5019103, -34.552008], [-58.5018817, -34.5519307], [-58.5016336, -34.5514341], [-58.5012205, -34.5506269], [-58.5011537, -34.550502], [-58.5008447, -34.5498996], [-58.5007775, -34.5497717], [-58.500639, -34.5496086], [-58.500531, -34.5494701], [-58.5004713, -34.5494587], [-58.5004122, -34.5494382], [-58.5003658, -34.5494209], [-58.5000098, -34.549263], [-58.4991673, -34.5488388], [-58.4983819, -34.5484658], [-58.4975638, -34.5480869], [-58.4968718, -34.5477459], [-58.4963212, -34.5474723], [-58.4956868, -34.5471769], [-58.4940714, -34.5464356], [-58.4925934, -34.5457624], [-58.4925123, -34.545723], [-58.4918804, -34.5454155], [-58.4917418, -34.5453495], [-58.491549, -34.5452577], [-58.4911734, -34.5450789], [-58.4910436, -34.5450207], [-58.4904503, -34.5447549], [-58.4897183, -34.5444201], [-58.4894554, -34.5443023], [-58.4889991, -34.5441175], [-58.4882778, -34.5438154], [-58.4875329, -34.5435199], [-58.4871653, -34.5433836], [-58.487052, -34.5433429], [-58.4868044, -34.5432386], [-58.4866924, -34.5431936], [-58.4865376, -34.5431314], [-58.4864276, -34.5430873], [-58.4863453, -34.5430542], [-58.4862512, -34.5430105], [-58.4858893, -34.5428693], [-58.4851527, -34.5425776], [-58.4844277, -34.542282], [-58.4843373, -34.54224], [-58.4837089, -34.5419595], [-58.4829809, -34.5416527], [-58.4814955, -34.5409736], [-58.4813528, -34.5409074], [-58.4811912, -34.5408271], [-58.4808587, -34.5406673], [-58.480819, -34.540647], [-58.4807537, -34.5406135], [-58.4806785, -34.540575], [-58.4805772, -34.5405232], [-58.4803593, -34.5404117], [-58.4803294, -34.5403964], [-58.4801758, -34.5403177], [-58.4800951, -34.5402764], [-58.4799511, -34.5402025], [-58.4787306, -34.5396004], [-58.4780472, -34.5392453], [-58.4773441, -34.5388795], [-58.477187, -34.5388064], [-58.4770327, -34.538737], [-58.4767178, -34.5385949], [-58.4764727, -34.5384808], [-58.4764551, -34.5384724], [-58.4762506, -34.5383744], [-58.4761779, -34.5383388], [-58.4761043, -34.5383028], [-58.4758944, -34.5382184], [-58.4753116, -34.537986], [-58.4749056, -34.5378095], [-58.4742662, -34.5375637], [-58.4735209, -34.5372999], [-58.4733519, -34.53724], [-58.4730777, -34.537152], [-58.4718286, -34.536761], [-58.4716652, -34.5367052], [-58.4708328, -34.5364156], [-58.4703832, -34.5362193], [-58.4702325, -34.5361548], [-58.4697183, -34.5359334], [-58.4686893, -34.535486], [-58.4685794, -34.5354407], [-58.4684991, -34.5354076], [-58.4684634, -34.5353929], [-58.4683645, -34.5353521], [-58.468245, -34.5352998], [-58.4680298, -34.535149], [-58.4678677, -34.5350183], [-58.467755, -34.5349542], [-58.4676044, -34.5348842], [-58.4674748, -34.5348343], [-58.4673779, -34.5347985], [-58.4669303, -34.534686], [-58.4661772, -34.5343841], [-58.4658272, -34.5342317], [-58.465274, -34.533929], [-58.4648092, -34.5337225], [-58.4646096, -34.5336422], [-58.4638142, -34.5332545], [-58.4630235, -34.5325966], [-58.461676, -34.5314607], [-58.4615031, -34.5313151], [-58.4615178, -34.5312658], [-58.4614963, -34.5312216], [-58.4614608, -34.5311786], [-58.4613971, -34.5311376], [-58.4613481, -34.5310418], [-58.4612878, -34.5309522], [-58.4612642, -34.530729], [-58.4613125, -34.5305169], [-58.4612508, -34.5303357], [-58.4612749, -34.5301368], [-58.4612548, -34.5300341], [-58.4611811, -34.5299534], [-58.4611301, -34.5298131], [-58.4610644, -34.5297208], [-58.4610148, -34.5296197], [-58.460864, -34.5294962], [-58.4607508, -34.5293461], [-58.4606762, -34.5291857], [-58.4604622, -34.5288662], [-58.4602691, -34.5286121], [-58.460127, -34.5284243], [-58.4598051, -34.5280796], [-58.4596737, -34.5279647], [-58.4595235, -34.5277835], [-58.459509, -34.5274007], [-58.4595578, -34.5271876], [-58.459629, -34.5270444], [-58.4596411, -34.5269057], [-58.4597899, -34.5268584], [-58.4601418, -34.5266648], [-58.4607371, -34.5265598], [-58.4612414, -34.5265438], [-58.4616958, -34.5266034], [-58.4618744, -34.5266519], [-58.4621037, -34.5267731], [-58.4622356, -34.5268212], [-58.462256, -34.5268724], [-58.4624784, -34.526993], [-58.4625603, -34.5268212], [-58.4626649, -34.5266736], [-58.4629054, -34.5265641], [-58.4632084, -34.5264079], [-58.4635315, -34.5262245], [-58.4637713, -34.5260431], [-58.464398, -34.5254266], [-58.464502, -34.5252888], [-58.4645256, -34.5251704], [-58.4646034, -34.5250216], [-58.4647489, -34.5247916], [-58.4649451, -34.5246419], [-58.4651367, -34.5245935], [-58.4653534, -34.5245789], [-58.4654147, -34.5245041], [-58.4653142, -34.5243662], [-58.4652472, -34.5241532], [-58.4653437, -34.5239676], [-58.4655798, -34.5238394], [-58.4657675, -34.5238261], [-58.4659445, -34.5238527], [-58.4658963, -34.5240383], [-58.4657943, -34.5242753], [-58.4659745, -34.5241163], [-58.4661032, -34.5240027], [-58.4661114, -34.5239197], [-58.4661505, -34.5238399], [-58.4662849, -34.5237578], [-58.4666282, -34.5235244], [-58.467066, -34.5233547], [-58.4673578, -34.5232769], [-58.4676582, -34.523185], [-58.4677869, -34.522697], [-58.4682075, -34.5217989], [-58.4685767, -34.5214145], [-58.4685513, -34.520672], [-58.4684285, -34.5199626], [-58.4688489, -34.5195124], [-58.4692126, -34.5189169], [-58.4697431, -34.5183783], [-58.4697883, -34.5181569], [-58.4697933, -34.5179351], [-58.4697733, -34.5176999], [-58.4697257, -34.5174451], [-58.4696865, -34.5172145], [-58.4696095, -34.517063], [-58.469087, -34.5169637], [-58.4688399, -34.5168576], [-58.4686674, -34.5166808], [-58.468544, -34.5164707], [-58.4684881, -34.5162879], [-58.468509, -34.516052], [-58.468568, -34.5159009], [-58.468866, -34.5155275], [-58.4689344, -34.5154145], [-58.4689726, -34.5153548], [-58.4690347, -34.515367], [-58.4691124, -34.5154649], [-58.4691263, -34.5155285], [-58.4691304, -34.5156319], [-58.4691452, -34.515693], [-58.4692545, -34.5157674], [-58.4692949, -34.5157341], [-58.4692504, -34.5156785], [-58.4692113, -34.5156241], [-58.4691763, -34.5154611], [-58.4692243, -34.5153087], [-58.4694759, -34.5152083], [-58.4701284, -34.5153133], [-58.4708848, -34.5155365], [-58.4712415, -34.5154724], [-58.4719067, -34.5153133], [-58.472293, -34.5153752], [-58.4723234, -34.515329], [-58.4723439, -34.5152978], [-58.4719684, -34.5152315], [-58.4715714, -34.5152581], [-58.4709706, -34.5154061], [-58.4707668, -34.5154083], [-58.4705844, -34.5153332], [-58.4698733, -34.5151534], [-58.4692103, -34.5149858], [-58.468916, -34.5148728], [-58.468805, -34.5148267], [-58.468639, -34.5146771], [-58.468628, -34.5145359], [-58.4685349, -34.5143676], [-58.468465, -34.5142248], [-58.4684275, -34.5141232], [-58.4683761, -34.5139991], [-58.4683477, -34.5137747], [-58.4684034, -34.5134879], [-58.4685055, -34.5132242], [-58.4686485, -34.513039], [-58.4688392, -34.5129268], [-58.4690298, -34.5128932], [-58.469343, -34.5128819], [-58.4697652, -34.5128539], [-58.4699757, -34.5127864], [-58.4701616, -34.5126971], [-58.4702462, -34.5125992], [-58.4702982, -34.5123859], [-58.4704053, -34.5114626], [-58.4706446, -34.5113325], [-58.4710545, -34.5109657], [-58.4711583, -34.5109125], [-58.4712888, -34.5108725], [-58.4719411, -34.5098257], [-58.4720695, -34.509784], [-58.4723556, -34.5097892], [-58.4723556, -34.5096721], [-58.4727223, -34.5096279], [-58.4728315, -34.5096669], [-58.4728991, -34.5097372], [-58.4729043, -34.509836], [-58.4729059, -34.5098387], [-58.4729797, -34.5099634], [-58.4730682, -34.5099972], [-58.4731488, -34.5097606], [-58.4732554, -34.5096045], [-58.4734427, -34.5095395], [-58.4735701, -34.5095655], [-58.4739582, -34.5095386], [-58.4742229, -34.5095005], [-58.4745075, -34.5094388], [-58.4746899, -34.5094476], [-58.4748296, -34.5094769], [-58.4748817, -34.5094554], [-58.4747703, -34.509388], [-58.4745839, -34.5093913], [-58.4745115, -34.5093523], [-58.4742281, -34.5092534], [-58.4740746, -34.5092248], [-58.473968, -34.5091806], [-58.4739342, -34.5090766], [-58.4739446, -34.5088945], [-58.4739914, -34.5084238], [-58.4740812, -34.5081266], [-58.4742707, -34.507927], [-58.4744706, -34.5077932], [-58.4748168, -34.5076732], [-58.4750561, -34.5075172], [-58.4752782, -34.5073506], [-58.4755284, -34.5068816], [-58.4755819, -34.506753], [-58.4755891, -34.5066573], [-58.4757252, -34.5064014], [-58.475898, -34.5064862], [-58.4762622, -34.506661], [-58.4765823, -34.5068173], [-58.4766339, -34.5067484], [-58.4767889, -34.5065415], [-58.4771617, -34.5060437], [-58.4771228, -34.5060264], [-58.4773599, -34.505664], [-58.4776657, -34.5045704], [-58.477729, -34.5043395], [-58.4774621, -34.5042073], [-58.4769738, -34.5039534], [-58.4762925, -34.5040994], [-58.4759109, -34.5046346], [-58.475654, -34.5049515], [-58.475559, -34.5050687], [-58.4752606, -34.5055751], [-58.4746692, -34.5053216], [-58.4754453, -34.5041034], [-58.4755256, -34.5039773], [-58.47585, -34.5041336], [-58.4758931, -34.5040737], [-58.4760492, -34.504134], [-58.4761282, -34.5040344], [-58.4761968, -34.5039494], [-58.4765106, -34.5038799], [-58.4765978, -34.5036604], [-58.4766362, -34.5035638], [-58.4766675, -34.5034851], [-58.476564, -34.5034238], [-58.47647, -34.5033586], [-58.476515, -34.5032481], [-58.4766579, -34.5032416], [-58.4767514, -34.5030686], [-58.4766525, -34.5030423], [-58.4765906, -34.5029394], [-58.4769443, -34.5014831], [-58.4769816, -34.5012789], [-58.4771675, -34.500261], [-58.4773048, -34.4995944], [-58.4774033, -34.4995967], [-58.4774784, -34.4995985], [-58.4775123, -34.4995461], [-58.4775281, -34.4995217], [-58.4772739, -34.4992114], [-58.4770203, -34.4990108], [-58.4767758, -34.4988048], [-58.4766323, -34.4985525], [-58.4765414, -34.4983267], [-58.4765209, -34.4981838], [-58.4765596, -34.4978712], [-58.4766218, -34.4975961], [-58.4767582, -34.4973212], [-58.476864, -34.4971746], [-58.4770846, -34.4969486], [-58.4773945, -34.4968502], [-58.4777391, -34.4968705], [-58.4781063, -34.4970462], [-58.4784367, -34.4970564], [-58.478761, -34.496892], [-58.4789226, -34.4965418], [-58.4789355, -34.4963145], [-58.4787647, -34.4961106], [-58.4789318, -34.4959332], [-58.479141, -34.4959465], [-58.4794092, -34.496004], [-58.4796238, -34.4960305], [-58.4797955, -34.4960261], [-58.4798437, -34.4959597], [-58.4796506, -34.4958094], [-58.479318, -34.495721], [-58.4787236, -34.4955408], [-58.478732, -34.4952143], [-58.4790603, -34.4952475], [-58.4793471, -34.4951396], [-58.4795862, -34.4950711], [-58.4795004, -34.4949252], [-58.4795111, -34.4945847], [-58.4794039, -34.4943681], [-58.4792661, -34.4939473], [-58.4794146, -34.4938508], [-58.4794843, -34.4937403], [-58.4795004, -34.4936253], [-58.4792429, -34.4935015], [-58.4789532, -34.4934529], [-58.4786987, -34.4933159], [-58.4786565, -34.4932723], [-58.4786269, -34.4932418], [-58.4785645, -34.493162], [-58.4785276, -34.493048], [-58.4785129, -34.4928779], [-58.4785485, -34.4926249], [-58.478568, -34.4925321], [-58.4787035, -34.4922448], [-58.4787036, -34.4922095], [-58.4786607, -34.4921078], [-58.4786719, -34.492026], [-58.4787072, -34.4919465], [-58.4787841, -34.4918244], [-58.4788475, -34.4918017], [-58.4788066, -34.4910555], [-58.4789841, -34.4903931], [-58.479223, -34.4898906], [-58.4793981, -34.4897551], [-58.4795556, -34.4897782], [-58.4795625, -34.4897681], [-58.4801624, -34.4900236], [-58.4803458, -34.4900879], [-58.4804457, -34.4901293], [-58.4809676, -34.4903458], [-58.4810583, -34.4903834], [-58.4811609, -34.4904259], [-58.4812019, -34.4904429], [-58.4812864, -34.4904779], [-58.4814173, -34.4905322], [-58.4825401, -34.491001], [-58.4832575, -34.4912864], [-58.4834057, -34.4913486], [-58.4835003, -34.4913881], [-58.4840199, -34.4916053], [-58.4842698, -34.4917127], [-58.4843016, -34.4917264], [-58.4844309, -34.4917819], [-58.4845403, -34.4918291], [-58.4846248, -34.4918656], [-58.4867073, -34.4928251], [-58.4873222, -34.4931013], [-58.4881724, -34.4934795], [-58.4895619, -34.4940981], [-58.4908966, -34.4947075], [-58.491, -34.4947547], [-58.4911158, -34.4948056], [-58.4912103, -34.4948534], [-58.4913816, -34.4949337], [-58.4915353, -34.4950035], [-58.4915715, -34.4950208], [-58.4919843, -34.4952199], [-58.4921898, -34.4953135], [-58.4931134, -34.4957291], [-58.4932126, -34.4957737], [-58.4932386, -34.4957854], [-58.4933383, -34.4958302], [-58.4934593, -34.4958846], [-58.4940832, -34.4961683], [-58.4944196, -34.4963166], [-58.4946026, -34.4963989], [-58.4950209, -34.496587], [-58.4950867, -34.4966166], [-58.4954322, -34.496772], [-58.4955183, -34.4968107], [-58.495836, -34.4969537], [-58.4959864, -34.4970213], [-58.4968646, -34.4974163], [-58.4969546, -34.4974568], [-58.497173, -34.4975462], [-58.4972399, -34.4975856], [-58.4973909, -34.4976537], [-58.4975474, -34.4977216], [-58.4976306, -34.4977635], [-58.497679, -34.4977878], [-58.4978485, -34.4978613], [-58.4979611, -34.4979101], [-58.4980051, -34.4979301], [-58.4985893, -34.4981957], [-58.4992697, -34.4985051], [-58.4993665, -34.4985491], [-58.4994695, -34.498596], [-58.5001846, -34.4989212], [-58.500305, -34.4989759], [-58.5003747, -34.4990076], [-58.5004351, -34.499035], [-58.5005276, -34.4990772], [-58.5005972, -34.499109], [-58.5011696, -34.4993718], [-58.5012312, -34.4994001], [-58.5013905, -34.4994714], [-58.502259, -34.4998691], [-58.5023112, -34.4998924], [-58.5023572, -34.4999129], [-58.5024741, -34.4999663], [-58.5025729, -34.5000114], [-58.5033181, -34.5003518], [-58.5033933, -34.5003862], [-58.5036122, -34.5004861], [-58.5041369, -34.5007258], [-58.5042219, -34.5007646], [-58.5043352, -34.5008194], [-58.5044622, -34.5008746], [-58.5044805, -34.5008826], [-58.5049819, -34.5011117], [-58.5050996, -34.5011654], [-58.505257, -34.5012373], [-58.505538, -34.5013657], [-58.5060405, -34.5015949], [-58.5061122, -34.5016276], [-58.5062211, -34.5016773], [-58.5062826, -34.5017054], [-58.5063839, -34.5017517], [-58.5068117, -34.5019466], [-58.5070834, -34.5020713], [-58.5071815, -34.5021163], [-58.5077876, -34.5023932], [-58.5079115, -34.5024498], [-58.5080285, -34.5025032], [-58.5081486, -34.502558], [-58.5082065, -34.5025844], [-58.5082921, -34.5026235], [-58.5085072, -34.5027217], [-58.5086197, -34.5027731], [-58.5090569, -34.5029728], [-58.5091425, -34.5030119], [-58.50917, -34.5030245], [-58.5092239, -34.5030491], [-58.5092946, -34.5030814], [-58.5093218, -34.5030938], [-58.5098092, -34.5033164], [-58.5101259, -34.503461], [-58.5104506, -34.5036093], [-58.5109654, -34.5038445], [-58.5110604, -34.5038879], [-58.5111334, -34.5039212], [-58.5112208, -34.5039611], [-58.5113083, -34.5040011], [-58.5122429, -34.5044279], [-58.5126661, -34.5046214], [-58.5133031, -34.5049127], [-58.5133539, -34.5049363], [-58.5134017, -34.5049585], [-58.5134282, -34.5049705], [-58.5135592, -34.5050296], [-58.5144581, -34.5054396], [-58.5146538, -34.5055302], [-58.5155864, -34.5059568], [-58.5157672, -34.5060375], [-58.5160671, -34.5061671], [-58.5170183, -34.506578], [-58.5173553, -34.5067293], [-58.5180375, -34.5070355], [-58.5180757, -34.5070526], [-58.5182159, -34.5071155], [-58.5188562, -34.5074029], [-58.51919, -34.5075527], [-58.519857, -34.5078521], [-58.5198717, -34.5078568], [-58.5199746, -34.5079049], [-58.5200427, -34.5079392], [-58.5202006, -34.5080085], [-58.5202982, -34.5080501], [-58.5203572, -34.508079], [-58.5208625, -34.5083034], [-58.5210766, -34.5083995], [-58.5213937, -34.5085393], [-58.5215089, -34.5085909], [-58.5221291, -34.5088686], [-58.522476, -34.5090278], [-58.5225376, -34.509056], [-58.5227796, -34.509167], [-58.5235579, -34.5095241], [-58.5237879, -34.5096296], [-58.5241211, -34.5097714], [-58.5241555, -34.5097872], [-58.5243664, -34.5098844], [-58.5244971, -34.5099446], [-58.5246332, -34.510007], [-58.5247767, -34.510073], [-58.5248609, -34.5101069], [-58.5248849, -34.5101183], [-58.5250143, -34.51018], [-58.5252004, -34.5102693], [-58.5252251, -34.5102811], [-58.5256034, -34.5104661], [-58.5260345, -34.5106718], [-58.5261874, -34.5107445], [-58.5263709, -34.51083], [-58.5265041, -34.5108919], [-58.5265453, -34.5109103], [-58.5267914, -34.5110232], [-58.527362, -34.5112846], [-58.5276426, -34.5114139], [-58.5278927, -34.5115276], [-58.5283425, -34.5117336], [-58.528446, -34.5117834], [-58.5289391, -34.5120092], [-58.5289809, -34.5120284], [-58.52942, -34.5122295], [-58.5300996, -34.5125384], [-58.5302297, -34.5125988], [-58.5303207, -34.5126396], [-58.5304307, -34.51269], [-58.5309662, -34.5129353], [-58.5310241, -34.5129618], [-58.5311537, -34.5130221], [-58.5312201, -34.5130626], [-58.5311567, -34.513152], [-58.5310652, -34.5132811], [-58.5309662, -34.5134207], [-58.5305779, -34.5139737], [-58.5305343, -34.5140357], [-58.530598, -34.5140714], [-58.5308024, -34.5141859], [-58.5313501, -34.5145094], [-58.5314207, -34.5145511], [-58.531474, -34.5145824], [-58.5320061, -34.5148948], [-58.5320589, -34.5149277], [-58.5321305, -34.5149723], [-58.5322226, -34.5150325], [-58.5331881, -34.5156648], [-58.5332912, -34.5157313], [-58.5335117, -34.5158974], [-58.5335525, -34.5159279], [-58.5338515, -34.5161453], [-58.5339062, -34.5161833], [-58.5339925, -34.5162458], [-58.5344775, -34.5165962], [-58.5344941, -34.5166088], [-58.534507, -34.5166175], [-58.5345771, -34.5166682], [-58.5346318, -34.5167072], [-58.5350066, -34.5169786], [-58.5351122, -34.5170549], [-58.5356167, -34.5174225], [-58.5357704, -34.5175335], [-58.5364086, -34.5179919], [-58.5364465, -34.5180191], [-58.5364771, -34.5180423], [-58.5370209, -34.5184342], [-58.5370708, -34.5184741], [-58.537102, -34.518499], [-58.5371445, -34.518466], [-58.5376964, -34.5180369], [-58.5378198, -34.5179327], [-58.538466, -34.5174108], [-58.5385554, -34.5173395], [-58.5386795, -34.5172512], [-58.539418, -34.5178832], [-58.5398888, -34.5182903], [-58.5400864, -34.5184526], [-58.5403381, -34.5186728], [-58.5405672, -34.5188732], [-58.540595, -34.5188971], [-58.5406653, -34.5189575], [-58.5407124, -34.5189987], [-58.5414949, -34.5196821], [-58.5415591, -34.5197382], [-58.54161, -34.5197812], [-58.5424316, -34.5204752], [-58.5431714, -34.5211239], [-58.5432866, -34.5212152], [-58.5434216, -34.5213328], [-58.5441765, -34.5219854], [-58.5443041, -34.5221003], [-58.5449393, -34.5226589], [-58.5450391, -34.5227466], [-58.5456258, -34.5232148], [-58.5459403, -34.5234301], [-58.5463619, -34.5238152], [-58.5468147, -34.524174], [-58.5475597, -34.5248401], [-58.5481909, -34.5253832], [-58.5483833, -34.5255543], [-58.5492419, -34.5262848], [-58.5505191, -34.5273977], [-58.5506386, -34.5275009], [-58.5511706, -34.5279594], [-58.5518211, -34.5285241], [-58.5524469, -34.5290673], [-58.5531053, -34.5296325], [-58.5537214, -34.5301774]]]}}]}