{"type": "FeatureCollection", "name": "zonas_propuestas_sanisidro", "crs": {"type": "name", "properties": {"name": "urn:ogc:def:crs:OGC:1.3:CRS84"}}, "features": [{"type": "Feature", "properties": {"zona": "Boulogne Sur Mer", "relacion_osm": "1770848", "radios": 79, "poblacion": 74832, "hogares": 25138, "viviendas": 26209, "pct_nbi": 5.09, "pct_privacion_convergente": 3.6, "pct_sin_cloaca": 9.16, "pct_sin_gas_red": 27.64, "pct_sin_agua_red": 2.19, "pct_hacinamiento": 12.42, "pct_hacinamiento_critico": 1.98, "pct_vivienda_precaria": 1.72, "pct_inquilinos": 19.49, "pct_tenencia_precaria": 13.03, "pct_edu_hasta_primaria": 30.18, "pct_edu_secundaria_completa_o_mas": 47.57, "pct_edu_universitaria_completa_o_mas": 9.0, "pct_hasta_14_anos": 18.74, "pct_15_a_64_anos": 65.91, "pct_65_y_mas_anos": 15.35, "orden_peor_a_mejor": 1, "limite": "OpenStreetMap, relaciones administrativas de localidad (no es fuente oficial), proyectadas sobre los radios censales del INDEC", "fuente_geometria": "INDEC, Censo Nacional de Poblacion, Hogares y Viviendas 2022, radios censales, via catalogo.datos.gba.gob.ar", "fuente_datos": "INDEC, Censo Nacional de Poblacion, Hogares y Viviendas 2022, procesado con Redatam 7", "fecha_descarga": "2026-09-28"}, "geometry": {"type": "Polygon", "coordinates": [[[-58.57773638908903, -34.50962376320941], [-58.578608219440945, -34.50886640350742], [-58.57916743430624, -34.508380601584335], [-58.57963293150246, -34.50797620928623], [-58.58053497969348, -34.50719255327279], [-58.58085475914925, -34.50691473921017], [-58.58086866567795, -34.506902657649604], [-58.581104190897385, -34.506698038448235], [-58.581349797738355, -34.50648466019909], [-58.581662934693014, -34.506212609367736], [-58.58241306032046, -34.50558248298972], [-58.58317020728131, -34.50494694126369], [-58.583730243323096, -34.50447684305088], [-58.584441586112604, -34.5038743817395], [-58.58494770186019, -34.503454436221126], [-58.58504632894455, -34.50337260059314], [-58.58641447796623, -34.502198319873756], [-58.587149193918734, -34.50155310332281], [-58.58788250055934, -34.500909109722166], [-58.58860300222675, -34.50027634682134], [-58.589359613549625, -34.49961185578692], [-58.590083549495034, -34.498946497792986], [-58.59075698351984, -34.498326054240074], [-58.5931165113557, -34.496308645574636], [-58.59487492342421, -34.49479844631994], [-58.59599324987064, -34.493818130459815], [-58.60016398774141, -34.490161799192116], [-58.59994054164504, -34.489537288410936], [-58.59967593856033, -34.48899766356474], [-58.5993697275843, -34.488014747295345], [-58.59929785638959, -34.48762381390558], [-58.59935694209969, -34.487326725416054], [-58.599135754133464, -34.48675301538193], [-58.599115713846665, -34.486363410695446], [-58.598085410872315, -34.486432396899794], [-58.59750548995572, -34.48641245185617], [-58.59714342335907, -34.486399184299636], [-58.59681904707517, -34.486388838986976], [-58.59639084721364, -34.48637410842898], [-58.595645082676306, -34.486348449125394], [-58.59560426745158, -34.48643382837937], [-58.59540389557945, -34.48658622397652], [-58.5950841843029, -34.486646247398745], [-58.594712890213735, -34.48666927702181], [-58.59418700550203, -34.486572227724686], [-58.593936502286205, -34.48643739580909], [-58.59390926624136, -34.48628870656818], [-58.59261130327587, -34.48558580935447], [-58.59233955509204, -34.4854442360918], [-58.590613589681226, -34.48458722177648], [-58.588112653024204, -34.48334532733438], [-58.588059361233626, -34.48331886319881], [-58.586150860394454, -34.48224220230501], [-58.585980315980464, -34.48196682351647], [-58.5857512555426, -34.48159695538651], [-58.58507405466818, -34.48050344605228], [-58.584879810207454, -34.480189783618066], [-58.58477338015822, -34.480017921550996], [-58.5837468225816, -34.47958028518422], [-58.58289120619002, -34.47921551309369], [-58.58207838576913, -34.47883155949112], [-58.58132460610241, -34.47847093722379], [-58.5806339858964, -34.478141016063425], [-58.58022602426659, -34.47794612202917], [-58.57980691020549, -34.47782142569814], [-58.578924790906854, -34.477400686179195], [-58.57870442950603, -34.477580891270826], [-58.5786854239275, -34.47730335853415], [-58.5784288384885, -34.476838888042735], [-58.57803173773314, -34.47612004767806], [-58.5779202841783, -34.475918289895155], [-58.5775979600408, -34.4758817090885], [-58.57671949640301, -34.4757709797625], [-58.57671937910713, -34.47577096487593], [-58.57649085848441, -34.47574132620998], [-58.575867735687886, -34.47565925198303], [-58.575577138011376, -34.47562097509855], [-58.57511344785807, -34.47553913473103], [-58.57497166287569, -34.47537897537934], [-58.57450783856647, -34.476003963399265], [-58.57447450273952, -34.47604413572483], [-58.57388456875557, -34.476812420109454], [-58.57337570857129, -34.477293213741596], [-58.57311024118767, -34.4775424939841], [-58.57275679237269, -34.47784482760549], [-58.57204927389427, -34.47848553965981], [-58.57201601266691, -34.478521205345054], [-58.571773837991664, -34.478680618795785], [-58.571102179280565, -34.47913245879045], [-58.570606631058816, -34.47946917852943], [-58.57044139582224, -34.479584422196446], [-58.56953857585252, -34.48018677969809], [-58.5695273856337, -34.48020467587361], [-58.56896606767175, -34.48056765951819], [-58.56837132606711, -34.48097531682653], [-58.56796389556359, -34.481249962759065], [-58.567127107014514, -34.48180800775314], [-58.56675903620071, -34.48232647688214], [-58.566457492498884, -34.482773617596436], [-58.566022419007396, -34.4833904484654], [-58.56545319500958, -34.484213014058646], [-58.56511269758692, -34.484709268450864], [-58.56447124760012, -34.48561660978514], [-58.564208197266964, -34.485721680885916], [-58.56259785355562, -34.486315668646284], [-58.56217062232691, -34.486472885081234], [-58.56131646360444, -34.486769291635326], [-58.561019054114176, -34.4869731003961], [-58.56076533047779, -34.48716841035368], [-58.56061064034043, -34.48730179064857], [-58.560467143931625, -34.48741727639512], [-58.55966608853444, -34.48810638503012], [-58.559569411066306, -34.48831809696838], [-58.55939274878053, -34.488483984502714], [-58.55916740786826, -34.4886189860049], [-58.55886561364977, -34.4886829633994], [-58.5585619049501, -34.48869578172032], [-58.55837345167652, -34.48880771315981], [-58.558283203940576, -34.488972286842014], [-58.55816397276597, -34.4890486100631], [-58.557908065248846, -34.48937007700384], [-58.557797366687296, -34.48947693304236], [-58.55772009476356, -34.48953911578685], [-58.55765370641724, -34.489601426966885], [-58.55755420132175, -34.489690386899326], [-58.55752092944262, -34.48972604830825], [-58.55747677491117, -34.48976158121674], [-58.55738877397409, -34.48981462350655], [-58.55731150143566, -34.48987680597371], [-58.557223345048676, -34.48993885986212], [-58.55549743211973, -34.491229935623], [-58.55520551134409, -34.49142928780343], [-58.55478096149042, -34.49174424658631], [-58.554224244902436, -34.49214777534947], [-58.553512889404644, -34.49268016712047], [-58.55346873053353, -34.49271569846857], [-58.55328696395997, -34.49283973583788], [-58.552373150490176, -34.49343281702585], [-58.551134164675894, -34.49425351106139], [-58.54978239333595, -34.49499297710501], [-58.54905668994277, -34.49540799566236], [-58.54897419810768, -34.49545659035238], [-58.548468674167744, -34.495730003688635], [-58.54716029514119, -34.496471586918986], [-58.54698442259747, -34.49656864319259], [-58.545840852109464, -34.49722203666284], [-58.54651704088012, -34.497779908284244], [-58.54723646400061, -34.49835631655331], [-58.54790746323217, -34.49890059861051], [-58.54804749819416, -34.49902085052631], [-58.54651668785448, -34.49968175436475], [-58.54577040960831, -34.50002440020544], [-58.5449909993984, -34.50039368643176], [-58.54469459737759, -34.50053437115141], [-58.544769852966354, -34.50058934882309], [-58.54513509071337, -34.50087311853732], [-58.545199539012735, -34.50092345957221], [-58.54530705918722, -34.501001354974896], [-58.54561865750034, -34.50123941687322], [-58.545704641868014, -34.50130353523975], [-58.54588021296969, -34.5012245035947], [-58.545896697198515, -34.50121568629229], [-58.54604505510383, -34.501136330466046], [-58.54622062554566, -34.50105729831254], [-58.54639619455834, -34.50097826678545], [-58.54654983769874, -34.50090798674914], [-58.546637700706086, -34.50086396449582], [-58.546879048715944, -34.50075867336392], [-58.54712055359498, -34.500644370082775], [-58.5473619014622, -34.50053907887581], [-58.547559238477454, -34.50046030359163], [-58.5481916113675, -34.50103567224457], [-58.548856023796276, -34.50164747151852], [-58.549188155000955, -34.50195787660163], [-58.549456225947125, -34.50219541098929], [-58.55009935420773, -34.502779911201856], [-58.54884217966017, -34.5037023877658], [-58.54942125052798, -34.50421402228501], [-58.55009689434243, -34.50480792218801], [-58.54915818538494, -34.50557193762761], [-58.549124903452324, -34.50560759641011], [-58.549801024346536, -34.50617446303993], [-58.55047699836255, -34.5067503368778], [-58.55144867743351, -34.50596867539033], [-58.55265220983379, -34.50500047003801], [-58.55331746483684, -34.50556718874665], [-58.55399361359154, -34.50613403196068], [-58.554648000774925, -34.50670061490482], [-58.555324168760336, -34.50726745202076], [-58.55412078839165, -34.50822667253134], [-58.5541097466288, -34.508235555353046], [-58.553149105417305, -34.50900835495559], [-58.55407161650172, -34.50981246750114], [-58.55494049226502, -34.51057087193602], [-58.555409618328774, -34.51020236082838], [-58.55592290744519, -34.5097983158715], [-58.55653020123895, -34.50930975110115], [-58.55713733260302, -34.50883019479085], [-58.557984453405325, -34.50958832091551], [-58.55799518444007, -34.50959746113615], [-58.558864404975, -34.510337814213244], [-58.557650287258824, -34.511287928801266], [-58.55667875504309, -34.51206062717614], [-58.55570720599401, -34.51283331728908], [-58.55480189246688, -34.51355270197024], [-58.55549124681561, -34.51417786490655], [-58.554958341785785, -34.51458209263352], [-58.55483687371553, -34.51467980414058], [-58.5544945541876, -34.514955171348255], [-58.55403107280149, -34.51531022481427], [-58.554008987330285, -34.51532799037293], [-58.553766203363395, -34.515514399575565], [-58.55347909009235, -34.515745349936545], [-58.55356509627234, -34.51580946316088], [-58.55422523086879, -34.5163625962905], [-58.55462719393104, -34.516732400511216], [-58.55478995737752, -34.51687103284018], [-58.55489597260127, -34.51696133092777], [-58.554992066682416, -34.517043177644844], [-58.55534095605168, -34.51732893060441], [-58.555951214462056, -34.51686057737239], [-58.556512544151744, -34.51642853141389], [-58.55661163341059, -34.51636110151756], [-58.55669111671555, -34.516308224721655], [-58.55688785127892, -34.51628098063606], [-58.557191293789614, -34.516280460066206], [-58.557837954332, -34.516226668710836], [-58.558325847596485, -34.51663747041478], [-58.557484296158684, -34.51734698651769], [-58.557047108147295, -34.51772795844528], [-58.556440543019654, -34.518295156103854], [-58.55593225759345, -34.51872179500501], [-58.5568040371467, -34.51931797763692], [-58.55768687327036, -34.51990527121383], [-58.557934491928805, -34.520070437736315], [-58.558558988331306, -34.52048341845951], [-58.55789563033587, -34.5210614638003], [-58.55770758629323, -34.52123049992721], [-58.55838435531793, -34.521770287212526], [-58.55905040035294, -34.52230093076673], [-58.55937284788744, -34.52254809897699], [-58.559727185635566, -34.52284071093809], [-58.560393402811854, -34.52336233581576], [-58.56112079842222, -34.52393518070306], [-58.561665758772186, -34.5234674633451], [-58.56197284603349, -34.52319878865269], [-58.5624233571342, -34.522804624421184], [-58.56326290926156, -34.52209802597014], [-58.564539620283725, -34.52100281926881], [-58.564720529150456, -34.520847626178146], [-58.56544367050229, -34.5202272679386], [-58.566443052126495, -34.519361628858846], [-58.56752740140347, -34.51842195099453], [-58.56868245150871, -34.51741180448987], [-58.5694999859832, -34.51669266902804], [-58.57054965844304, -34.515802134037564], [-58.57077962629121, -34.51560644633764], [-58.57156057438858, -34.51494189684979], [-58.57258099336125, -34.51407084926553], [-58.573568005887736, -34.5132236562663], [-58.57459425256715, -34.51234278027972], [-58.57493893687751, -34.51205298401806], [-58.57557041497323, -34.511503823605864], [-58.57634932018982, -34.510828420895706], [-58.57662415511167, -34.510589931783215], [-58.577626688896586, -34.50971905796602], [-58.57773638908903, -34.50962376320941]]]}}, {"type": "Feature", "properties": {"zona": "Beccar", "relacion_osm": "1770851", "radios": 73, "poblacion": 63719, "hogares": 22055, "viviendas": 23403, "pct_nbi": 4.93, "pct_privacion_convergente": 6.7, "pct_sin_cloaca": 10.59, "pct_sin_gas_red": 37.27, "pct_sin_agua_red": 2.14, "pct_hacinamiento": 12.67, "pct_hacinamiento_critico": 2.37, "pct_vivienda_precaria": 1.72, "pct_inquilinos": 17.6, "pct_tenencia_precaria": 9.82, "pct_edu_hasta_primaria": 30.63, "pct_edu_secundaria_completa_o_mas": 47.71, "pct_edu_universitaria_completa_o_mas": 12.85, "pct_hasta_14_anos": 20.96, "pct_15_a_64_anos": 65.05, "pct_65_y_mas_anos": 13.99, "orden_peor_a_mejor": 2, "limite": "OpenStreetMap, relaciones administrativas de localidad (no es fuente oficial), proyectadas sobre los radios censales del INDEC", "fuente_geometria": "INDEC, Censo Nacional de Poblacion, Hogares y Viviendas 2022, radios censales, via catalogo.datos.gba.gob.ar", "fuente_datos": "INDEC, Censo Nacional de Poblacion, Hogares y Viviendas 2022, procesado con Redatam 7", "fecha_descarga": "2026-09-28"}, "geometry": {"type": "Polygon", "coordinates": [[[-58.540540708837916, -34.47400309422856], [-58.54092930710619, -34.47418800581511], [-58.541080394689516, -34.474261918154305], [-58.541544382822686, -34.4744927947297], [-58.54166314014763, -34.474548293379975], [-58.542181226461885, -34.474797841183715], [-58.542321433493065, -34.47487162220631], [-58.54300149660913, -34.47519520620228], [-58.54308386958406, -34.47523285998188], [-58.543163469659554, -34.47526924579114], [-58.54411323517627, -34.47573124211383], [-58.54423183947953, -34.47579575003719], [-58.54426121556279, -34.47580972669475], [-58.544426146225405, -34.475888200285986], [-58.54578615476163, -34.476544353601774], [-58.54601279816823, -34.47665521330329], [-58.547432706083214, -34.47733875041259], [-58.54870055213733, -34.47794906167614], [-58.5487761213109, -34.47797866107074], [-58.5489486566284, -34.47807819802261], [-58.549142818045524, -34.47817965180979], [-58.55099383630963, -34.479084944025175], [-58.551430985127844, -34.479297438188006], [-58.55152814716288, -34.47934365780852], [-58.55162530821879, -34.47938987734119], [-58.552240618009876, -34.47968560328389], [-58.55344964152056, -34.480267775872655], [-58.554028280392494, -34.47953551313106], [-58.55408378075139, -34.47947307491687], [-58.55419478120309, -34.47934819930588], [-58.55500550740001, -34.478411366310176], [-58.5552391614181, -34.47811668221524], [-58.55523139281286, -34.478567267988936], [-58.55522346865751, -34.479026865460234], [-58.555220671863985, -34.479189075740756], [-58.555295456097134, -34.479902030998105], [-58.55531302586796, -34.48014560417298], [-58.55541393252955, -34.481237437040605], [-58.556180384342454, -34.48160703783978], [-58.557044010239615, -34.48202284933423], [-58.557119568410236, -34.48205979587301], [-58.55806964557877, -34.48251267533618], [-58.55840421948648, -34.482678867425854], [-58.55862545643128, -34.482789640271385], [-58.56014225405467, -34.48351959492692], [-58.560625034429265, -34.483769398584016], [-58.560104832014915, -34.48509067965127], [-58.55886561364977, -34.4886829633994], [-58.55916740786826, -34.4886189860049], [-58.55939274878053, -34.488483984502714], [-58.559569411066306, -34.48831809696838], [-58.55966608853444, -34.48810638503012], [-58.560467143931625, -34.48741727639512], [-58.56061064034043, -34.48730179064857], [-58.56076533047779, -34.48716841035368], [-58.561019054114176, -34.4869731003961], [-58.56131646360444, -34.486769291635326], [-58.56217062232691, -34.486472885081234], [-58.56259785355562, -34.486315668646284], [-58.564208197266964, -34.485721680885916], [-58.56447124760012, -34.48561660978514], [-58.56511269758692, -34.484709268450864], [-58.56545319500958, -34.484213014058646], [-58.566022419007396, -34.4833904484654], [-58.566457492498884, -34.482773617596436], [-58.56675903620071, -34.48232647688214], [-58.567127107014514, -34.48180800775314], [-58.56796389556359, -34.481249962759065], [-58.56837132606711, -34.48097531682653], [-58.56896606767175, -34.48056765951819], [-58.5695273856337, -34.48020467587361], [-58.56953857585252, -34.48018677969809], [-58.57044139582224, -34.479584422196446], [-58.570606631058816, -34.47946917852943], [-58.571102179280565, -34.47913245879045], [-58.571773837991664, -34.478680618795785], [-58.57201601266691, -34.478521205345054], [-58.57204927389427, -34.47848553965981], [-58.57275679237269, -34.47784482760549], [-58.57311024118767, -34.4775424939841], [-58.57337570857129, -34.477293213741596], [-58.57388456875557, -34.476812420109454], [-58.57447450273952, -34.47604413572483], [-58.57450783856647, -34.476003963399265], [-58.57497166287569, -34.47537897537934], [-58.57184033940093, -34.473870468817125], [-58.57148610871831, -34.47369981120013], [-58.570870502518126, -34.473405991708724], [-58.56992217114059, -34.47295335827688], [-58.56897093427366, -34.47249932521192], [-58.5683944500094, -34.472224159002224], [-58.56727998424352, -34.47167927699549], [-58.56676820729824, -34.47142926072861], [-58.56630619272799, -34.471205024568945], [-58.56529238337483, -34.47071376735753], [-58.564239388415004, -34.470220026944766], [-58.563301754047, -34.4697658442583], [-58.5620137156804, -34.46916802402355], [-58.56134425286003, -34.468857867762544], [-58.560404940127746, -34.468422681001755], [-58.559465440094236, -34.46798775531741], [-58.55848708217026, -34.46753409633258], [-58.55824086412034, -34.46742001466657], [-58.55640292085738, -34.466568403845294], [-58.55617979253923, -34.46644627848798], [-58.55499155658647, -34.46579590546805], [-58.55467515482159, -34.46562246345545], [-58.5543384186166, -34.46546424471617], [-58.55379645749322, -34.46520959586245], [-58.552927158553096, -34.46480113550201], [-58.55280830432563, -34.46474528791921], [-58.55187677232591, -34.464307572381834], [-58.551853907446905, -34.46429682857343], [-58.550896866492444, -34.4638471154944], [-58.55088337505981, -34.46384077581551], [-58.55087887251745, -34.463838660121226], [-58.550459654927856, -34.463641714762986], [-58.54993071901508, -34.463393220950415], [-58.54903349527748, -34.4629716973052], [-58.54808075788517, -34.46252408037984], [-58.54710794134247, -34.46206701727692], [-58.54578574365607, -34.461442851523664], [-58.54482744579722, -34.46099045636234], [-58.54383385687199, -34.4605213881627], [-58.54290783897672, -34.460084208101904], [-58.54199267071531, -34.45965213866075], [-58.54099636505204, -34.45918174979675], [-58.54005623935673, -34.45873787312054], [-58.53909939559641, -34.45828159863183], [-58.538136937493725, -34.45782520183573], [-58.53719980906291, -34.45738086612747], [-58.53719971625448, -34.457380821751634], [-58.536342741648724, -34.45697448008647], [-58.53632422419062, -34.45696569995485], [-58.53630260394654, -34.45695544860484], [-58.536298577339416, -34.45695353908288], [-58.53627409339509, -34.45694008876919], [-58.53595170602854, -34.45676298407478], [-58.53581225737255, -34.456686376645884], [-58.53491948056999, -34.45619591606157], [-58.53465578430194, -34.45605914866015], [-58.53376419416272, -34.45560135556887], [-58.533486350103196, -34.455458691449635], [-58.53282699758065, -34.455120133111336], [-58.531927388593935, -34.45465119975969], [-58.530995856904674, -34.45417745868898], [-58.530716045197224, -34.45403529111044], [-58.530075667518915, -34.453709923067684], [-58.53004893615782, -34.45369629938101], [-58.529805058292496, -34.45356003491407], [-58.529524849153674, -34.45340346880655], [-58.529192342754264, -34.45321794315654], [-58.528872523412694, -34.45304058417358], [-58.52757126638485, -34.45231940097284], [-58.52639901265125, -34.45174837414792], [-58.52596491375053, -34.45153691069795], [-58.525318605126124, -34.45122159495569], [-58.52417420637005, -34.45066319657247], [-58.52381830529368, -34.45048953517145], [-58.52359242472252, -34.45037963319848], [-58.52060787431263, -34.448873772747504], [-58.51972534796975, -34.44843287176373], [-58.51823543745259, -34.44769696288122], [-58.51676309611616, -34.44696988156352], [-58.51520028282263, -34.447158221040795], [-58.51376439040021, -34.447140771879056], [-58.51288697001204, -34.44725368494919], [-58.51106189533323, -34.447570239529256], [-58.5102403847798, -34.44762150920752], [-58.509862637808396, -34.44767028056685], [-58.508040397022455, -34.44800845404706], [-58.505609239046436, -34.449226417965505], [-58.5051152495997, -34.44951996984936], [-58.505376748556884, -34.44994934194512], [-58.505697861066146, -34.45040376528266], [-58.506258927130354, -34.45128042728927], [-58.506285160460386, -34.4513348290785], [-58.506416166055374, -34.45161584950859], [-58.5068321505402, -34.45239158720356], [-58.506848037438125, -34.45302723460107], [-58.50700731055571, -34.45326781344504], [-58.50691836871149, -34.45427195870774], [-58.50666146429987, -34.45525580026021], [-58.50628606945421, -34.45647705068874], [-58.50612961548093, -34.45732260406279], [-58.50636732232214, -34.45737092919157], [-58.506552398013106, -34.457408696807775], [-58.50703787293593, -34.45764447180561], [-58.50939704899916, -34.45898923959919], [-58.50952640151588, -34.45905841855185], [-58.50963415540514, -34.459118320472456], [-58.51042611309955, -34.45956062345659], [-58.51117504185086, -34.45997535665546], [-58.511293436685655, -34.460048907053974], [-58.51144431176647, -34.4601318664564], [-58.51328683332184, -34.461163806825795], [-58.51337198436363, -34.46121048531966], [-58.513543859748154, -34.46131277384866], [-58.513626110994856, -34.46136172346383], [-58.513717710853896, -34.461412411850766], [-58.5138151489627, -34.461440637329204], [-58.51401002756087, -34.46149708808412], [-58.515433398403246, -34.46223546753246], [-58.515562840821595, -34.46230013451981], [-58.51708352229044, -34.46307573014881], [-58.51719423526213, -34.46296891099073], [-58.51730510729275, -34.462853081020945], [-58.51827634476874, -34.463315535795246], [-58.518427392083694, -34.46338947525625], [-58.518578438581685, -34.46346341452337], [-58.51948504697828, -34.463889022274294], [-58.519646975520835, -34.463963092063054], [-58.51979802526989, -34.46403702898226], [-58.5204132650886, -34.46432389855015], [-58.520531993493975, -34.464379417099394], [-58.520661442209516, -34.46444407883736], [-58.52135773397932, -34.46476347125899], [-58.5214278996295, -34.46479586754344], [-58.52158967388553, -34.464878946467294], [-58.52173512690098, -34.46496182776522], [-58.521791895660044, -34.464992040061695], [-58.52188246442395, -34.46504024023765], [-58.522279658069, -34.465247831881406], [-58.52234557554494, -34.46521257472444], [-58.5231872566047, -34.465619344179345], [-58.523305988751474, -34.465674860116295], [-58.52429889558057, -34.466146543068945], [-58.52440674874509, -34.46620192658874], [-58.525528966968274, -34.46674726926625], [-58.52568018558597, -34.46681218751228], [-58.52669456425437, -34.46730213829104], [-58.526867228322594, -34.46738534070935], [-58.52822695655764, -34.46804168422347], [-58.52835641706556, -34.46810633806928], [-58.52965151623, -34.468725833496585], [-58.53023434081269, -34.46900324985638], [-58.530439338729735, -34.46910486416102], [-58.53077380356256, -34.4692711295253], [-58.530935752861865, -34.46934518481287], [-58.53117323851596, -34.4694562019839], [-58.53143778402073, -34.46957665116923], [-58.531529309256705, -34.46963173763847], [-58.53172510367457, -34.469724244605466], [-58.53199340236838, -34.46985363857706], [-58.53259043393479, -34.47013923116791], [-58.533042902593905, -34.47035566789597], [-58.53331270044475, -34.470494595315934], [-58.533614113647836, -34.47064980141796], [-58.53462678085684, -34.4711200983302], [-58.535582590381246, -34.47157771760888], [-58.53598788075591, -34.47177175731534], [-58.53611389066763, -34.47182639814144], [-58.53624508665814, -34.47188328854723], [-58.53740606004294, -34.4723867062207], [-58.53832108026584, -34.472828962743755], [-58.53872991015788, -34.4730382552032], [-58.539029879396146, -34.47317563090376], [-58.53977017463294, -34.47355339948364], [-58.54008984847476, -34.47371700316736], [-58.540411228420574, -34.47393845286894], [-58.540540708837916, -34.47400309422856]]]}}, {"type": "Feature", "properties": {"zona": "Villa Adelina", "relacion_osm": "1770850", "radios": 42, "poblacion": 35542, "hogares": 13048, "viviendas": 13928, "pct_nbi": 2.73, "pct_privacion_convergente": 1.15, "pct_sin_cloaca": 5.54, "pct_sin_gas_red": 15.59, "pct_sin_agua_red": 1.51, "pct_hacinamiento": 7.28, "pct_hacinamiento_critico": 0.83, "pct_vivienda_precaria": 1.16, "pct_inquilinos": 21.75, "pct_tenencia_precaria": 12.85, "pct_edu_hasta_primaria": 24.69, "pct_edu_secundaria_completa_o_mas": 54.84, "pct_edu_universitaria_completa_o_mas": 9.32, "pct_hasta_14_anos": 15.87, "pct_15_a_64_anos": 65.69, "pct_65_y_mas_anos": 18.44, "orden_peor_a_mejor": 3, "limite": "OpenStreetMap, relaciones administrativas de localidad (no es fuente oficial), proyectadas sobre los radios censales del INDEC", "fuente_geometria": "INDEC, Censo Nacional de Poblacion, Hogares y Viviendas 2022, radios censales, via catalogo.datos.gba.gob.ar", "fuente_datos": "INDEC, Censo Nacional de Poblacion, Hogares y Viviendas 2022, procesado con Redatam 7", "fecha_descarga": "2026-09-28"}, "geometry": {"type": "Polygon", "coordinates": [[[-58.5537896832748, -34.53014894521964], [-58.554753882040764, -34.52935363385806], [-58.554761066907666, -34.529347707791686], [-58.55550887936292, -34.52873086240016], [-58.55558945851833, -34.52866439457139], [-58.55578181914876, -34.52850572017105], [-58.5564100415713, -34.52798684104221], [-58.55693293867624, -34.52753631800187], [-58.55714531032767, -34.52735333856339], [-58.55788973247941, -34.52671193554709], [-58.55826416460675, -34.52638931516568], [-58.55865384945424, -34.52605354803813], [-58.55903749311341, -34.52572298122623], [-58.55940166076918, -34.5254093343079], [-58.56017207372739, -34.52474871807992], [-58.560911702792154, -34.52411448340943], [-58.56112079842222, -34.52393518070306], [-58.560393402811854, -34.52336233581576], [-58.559727185635566, -34.52284071093809], [-58.55937284788744, -34.52254809897699], [-58.55905040035294, -34.52230093076673], [-58.55838435531793, -34.521770287212526], [-58.55770758629323, -34.52123049992721], [-58.55789563033587, -34.5210614638003], [-58.558558988331306, -34.52048341845951], [-58.557934491928805, -34.520070437736315], [-58.55768687327036, -34.51990527121383], [-58.5568040371467, -34.51931797763692], [-58.55593225759345, -34.51872179500501], [-58.556440543019654, -34.518295156103854], [-58.557047108147295, -34.51772795844528], [-58.557484296158684, -34.51734698651769], [-58.558325847596485, -34.51663747041478], [-58.557837954332, -34.516226668710836], [-58.557191293789614, -34.516280460066206], [-58.55688785127892, -34.51628098063606], [-58.55669111671555, -34.516308224721655], [-58.55661163341059, -34.51636110151756], [-58.556512544151744, -34.51642853141389], [-58.555951214462056, -34.51686057737239], [-58.55534095605168, -34.51732893060441], [-58.554992066682416, -34.517043177644844], [-58.55489597260127, -34.51696133092777], [-58.55478995737752, -34.51687103284018], [-58.55462719393104, -34.516732400511216], [-58.55422523086879, -34.5163625962905], [-58.55356509627234, -34.51580946316088], [-58.55347909009235, -34.515745349936545], [-58.553766203363395, -34.515514399575565], [-58.554008987330285, -34.51532799037293], [-58.55403107280149, -34.51531022481427], [-58.5544945541876, -34.514955171348255], [-58.55483687371553, -34.51467980414058], [-58.554958341785785, -34.51458209263352], [-58.55549124681561, -34.51417786490655], [-58.55480189246688, -34.51355270197024], [-58.55570720599401, -34.51283331728908], [-58.55667875504309, -34.51206062717614], [-58.557650287258824, -34.511287928801266], [-58.558864404975, -34.510337814213244], [-58.55799518444007, -34.50959746113615], [-58.557984453405325, -34.50958832091551], [-58.55713733260302, -34.50883019479085], [-58.55653020123895, -34.50930975110115], [-58.55592290744519, -34.5097983158715], [-58.555409618328774, -34.51020236082838], [-58.55494049226502, -34.51057087193602], [-58.55407161650172, -34.50981246750114], [-58.553149105417305, -34.50900835495559], [-58.5541097466288, -34.508235555353046], [-58.55412078839165, -34.50822667253134], [-58.555324168760336, -34.50726745202076], [-58.554648000774925, -34.50670061490482], [-58.55399361359154, -34.50613403196068], [-58.55331746483684, -34.50556718874665], [-58.55265220983379, -34.50500047003801], [-58.55144867743351, -34.50596867539033], [-58.55047699836255, -34.5067503368778], [-58.549801024346536, -34.50617446303993], [-58.549124903452324, -34.50560759641011], [-58.54915818538494, -34.50557193762761], [-58.55009689434243, -34.50480792218801], [-58.54942125052798, -34.50421402228501], [-58.54884217966017, -34.5037023877658], [-58.55009935420773, -34.502779911201856], [-58.549456225947125, -34.50219541098929], [-58.549188155000955, -34.50195787660163], [-58.548856023796276, -34.50164747151852], [-58.5481916113675, -34.50103567224457], [-58.547559238477454, -34.50046030359163], [-58.5473619014622, -34.50053907887581], [-58.54712055359498, -34.500644370082775], [-58.546879048715944, -34.50075867336392], [-58.546637700706086, -34.50086396449582], [-58.54654983769874, -34.50090798674914], [-58.54639619455834, -34.50097826678545], [-58.54622062554566, -34.50105729831254], [-58.54604505510383, -34.501136330466046], [-58.545896697198515, -34.50121568629229], [-58.54588021296969, -34.5012245035947], [-58.545704641868014, -34.50130353523975], [-58.54561865750034, -34.50123941687322], [-58.54530705918722, -34.501001354974896], [-58.545199539012735, -34.50092345957221], [-58.54513509071337, -34.50087311853732], [-58.544769852966354, -34.50058934882309], [-58.54469459737759, -34.50053437115141], [-58.5449909993984, -34.50039368643176], [-58.54577040960831, -34.50002440020544], [-58.54651668785448, -34.49968175436475], [-58.54804749819416, -34.49902085052631], [-58.54790746323217, -34.49890059861051], [-58.54723646400061, -34.49835631655331], [-58.54651704088012, -34.497779908284244], [-58.545840852109464, -34.49722203666284], [-58.54447737690376, -34.497998987703255], [-58.54434965406839, -34.498071767065696], [-58.54379563100989, -34.498387457252036], [-58.54355693772452, -34.49852626647582], [-58.543476680973654, -34.49857293797119], [-58.543332983925794, -34.49869741393912], [-58.54298717657263, -34.49898568780421], [-58.542793576900316, -34.49914707768533], [-58.542205321101854, -34.499684461486034], [-58.5420830763275, -34.4998272180544], [-58.541960832204495, -34.49996997540075], [-58.54138319806176, -34.500630078288175], [-58.54124990838732, -34.50078171650259], [-58.54108333486507, -34.50096901113284], [-58.54038343618204, -34.50177186499324], [-58.54032791044241, -34.5018342961278], [-58.54016117560552, -34.502030600100696], [-58.540005797748, -34.50219999992345], [-58.53951694328696, -34.50276200575907], [-58.538994798049565, -34.50335966628279], [-58.53897287000213, -34.50336841752332], [-58.53845763936604, -34.50356956380218], [-58.53823835869495, -34.5036570750417], [-58.537832764957, -34.503814463925686], [-58.53718580112634, -34.50407712238068], [-58.53695531739683, -34.50418252412776], [-58.53672491078281, -34.50428341869858], [-58.53667001072572, -34.504309801550036], [-58.53631876093569, -34.50447234307095], [-58.53658002813933, -34.50509740453098], [-58.53661095211139, -34.50519692268408], [-58.53665260423854, -34.50530558376008], [-58.53668392216477, -34.505382573748705], [-58.53671003360582, -34.505445981098525], [-58.536725574471006, -34.50549123480137], [-58.53674119411252, -34.5055319826927], [-58.53675129217527, -34.50557717119105], [-58.536766833084684, -34.505622424888855], [-58.53677148834666, -34.50566754728398], [-58.53676549419074, -34.50569902275077], [-58.53675926374994, -34.50574401564556], [-58.53673118315041, -34.50579325354262], [-58.53670333880687, -34.50582897400394], [-58.53593954441904, -34.506856372787496], [-58.5356390069383, -34.507231336363795], [-58.53533830795696, -34.50761531070707], [-58.534736744937504, -34.5083922685113], [-58.53424687237795, -34.509008321419365], [-58.53397929241915, -34.50936564908177], [-58.53369530300501, -34.50972728586246], [-58.533177329375754, -34.51039257010454], [-58.533088027971054, -34.5105176865472], [-58.5325635753589, -34.51124147785978], [-58.53251908177254, -34.51129502424063], [-58.532128418078614, -34.511840151938955], [-58.531882592748715, -34.51219773605348], [-58.53169293827553, -34.51245684652782], [-58.53124133605188, -34.5129885565589], [-58.53056010901744, -34.51398115246603], [-58.53220872199547, -34.51497356665962], [-58.53330706494854, -34.51573121520346], [-58.53357323579549, -34.51591481902404], [-58.53451017351227, -34.51658244537181], [-58.53460069804577, -34.51664717130176], [-58.535793800920544, -34.51750023664042], [-58.53712325638797, -34.51848527063396], [-58.53767989940121, -34.5180314107086], [-58.538702968395114, -34.51719722619342], [-58.53945112134012, -34.51784859433316], [-58.53985370067885, -34.51819908732688], [-58.539925201205214, -34.51826133666047], [-58.54010647001448, -34.51841915044278], [-58.54069751059445, -34.51893327638005], [-58.54069753847737, -34.51893330104965], [-58.54158649255341, -34.5196949783502], [-58.54230605122354, -34.5203114986326], [-58.54244256007024, -34.52042845829213], [-58.543303890573824, -34.52116642976392], [-58.544195569052675, -34.521932332937865], [-58.54506388388047, -34.522674299065756], [-58.5459976936597, -34.52347430619651], [-58.546246999546966, -34.52368788628313], [-58.54680828556295, -34.524168733349384], [-58.54756237789988, -34.52481474236906], [-58.54818683410653, -34.52534968540871], [-58.54923185533122, -34.52624488396512], [-58.55056329539732, -34.52738539956841], [-58.55122050329016, -34.527948347903894], [-58.55186284677918, -34.52849855528373], [-58.55251001308848, -34.52905288160422], [-58.5531524980474, -34.52960318766], [-58.5537896832748, -34.53014894521964]]]}}, {"type": "Feature", "properties": {"zona": "San Isidro", "relacion_osm": "1877221", "radios": 67, "poblacion": 45872, "hogares": 19358, "viviendas": 22472, "pct_nbi": 1.83, "pct_privacion_convergente": 0.88, "pct_sin_cloaca": 2.97, "pct_sin_gas_red": 16.64, "pct_sin_agua_red": 1.38, "pct_hacinamiento": 4.18, "pct_hacinamiento_critico": 0.58, "pct_vivienda_precaria": 0.78, "pct_inquilinos": 28.89, "pct_tenencia_precaria": 10.56, "pct_edu_hasta_primaria": 19.11, "pct_edu_secundaria_completa_o_mas": 67.42, "pct_edu_universitaria_completa_o_mas": 25.25, "pct_hasta_14_anos": 15.58, "pct_15_a_64_anos": 65.28, "pct_65_y_mas_anos": 19.14, "orden_peor_a_mejor": 4, "limite": "OpenStreetMap, relaciones administrativas de localidad (no es fuente oficial), proyectadas sobre los radios censales del INDEC", "fuente_geometria": "INDEC, Censo Nacional de Poblacion, Hogares y Viviendas 2022, radios censales, via catalogo.datos.gba.gob.ar", "fuente_datos": "INDEC, Censo Nacional de Poblacion, Hogares y Viviendas 2022, procesado con Redatam 7", "fecha_descarga": "2026-09-28"}, "geometry": {"type": "Polygon", "coordinates": [[[-58.52656198125491, -34.49062750374984], [-58.5274521192603, -34.49107989704314], [-58.52838524805823, -34.49156434909503], [-58.52930750394228, -34.49204866323778], [-58.53021376212146, -34.492514751031024], [-58.53115252341558, -34.49299023650695], [-58.53209105859909, -34.493479233332955], [-58.53301375227377, -34.4939409913805], [-58.533919735591546, -34.49442507581983], [-58.53485869875567, -34.4948915221372], [-58.535819203794006, -34.495371739805194], [-58.536768993086575, -34.49584280816242], [-58.537675019322776, -34.496326865677666], [-58.53861370979192, -34.49681130732637], [-58.53952007291002, -34.49727732834821], [-58.540470062372556, -34.497739358117485], [-58.54132241390723, -34.49818218683868], [-58.54256532662956, -34.49899737752239], [-58.542793576900316, -34.49914707768533], [-58.54298717657263, -34.49898568780421], [-58.543332983925794, -34.49869741393912], [-58.543476680973654, -34.49857293797119], [-58.54355693772452, -34.49852626647582], [-58.54379563100989, -34.498387457252036], [-58.54434965406839, -34.498071767065696], [-58.54447737690376, -34.497998987703255], [-58.545840852109464, -34.49722203666284], [-58.54698442259747, -34.49656864319259], [-58.54716029514119, -34.496471586918986], [-58.548468674167744, -34.495730003688635], [-58.54897419810768, -34.49545659035238], [-58.54905668994277, -34.49540799566236], [-58.54978239333595, -34.49499297710501], [-58.551134164675894, -34.49425351106139], [-58.552373150490176, -34.49343281702585], [-58.55328696395997, -34.49283973583788], [-58.55346873053353, -34.49271569846857], [-58.553512889404644, -34.49268016712047], [-58.554224244902436, -34.49214777534947], [-58.55478096149042, -34.49174424658631], [-58.55520551134409, -34.49142928780343], [-58.55549743211973, -34.491229935623], [-58.557223345048676, -34.48993885986212], [-58.55731150143566, -34.48987680597371], [-58.55738877397409, -34.48981462350655], [-58.55747677491117, -34.48976158121674], [-58.55752092944262, -34.48972604830825], [-58.55755420132175, -34.489690386899326], [-58.55765370641724, -34.489601426966885], [-58.55772009476356, -34.48953911578685], [-58.557797366687296, -34.48947693304236], [-58.557908065248846, -34.48937007700384], [-58.55816397276597, -34.4890486100631], [-58.558283203940576, -34.488972286842014], [-58.55837345167652, -34.48880771315981], [-58.5585619049501, -34.48869578172032], [-58.55886561364977, -34.4886829633994], [-58.560104832014915, -34.48509067965127], [-58.560625034429265, -34.483769398584016], [-58.56014225405467, -34.48351959492692], [-58.55862545643128, -34.482789640271385], [-58.55840421948648, -34.482678867425854], [-58.55806964557877, -34.48251267533618], [-58.557119568410236, -34.48205979587301], [-58.557044010239615, -34.48202284933423], [-58.556180384342454, -34.48160703783978], [-58.55541393252955, -34.481237437040605], [-58.55531302586796, -34.48014560417298], [-58.555295456097134, -34.479902030998105], [-58.555220671863985, -34.479189075740756], [-58.55522346865751, -34.479026865460234], [-58.55523139281286, -34.478567267988936], [-58.5552391614181, -34.47811668221524], [-58.55500550740001, -34.478411366310176], [-58.55419478120309, -34.47934819930588], [-58.55408378075139, -34.47947307491687], [-58.554028280392494, -34.47953551313106], [-58.55344964152056, -34.480267775872655], [-58.552240618009876, -34.47968560328389], [-58.55162530821879, -34.47938987734119], [-58.55152814716288, -34.47934365780852], [-58.551430985127844, -34.479297438188006], [-58.55099383630963, -34.479084944025175], [-58.549142818045524, -34.47817965180979], [-58.5489486566284, -34.47807819802261], [-58.5487761213109, -34.47797866107074], [-58.54870055213733, -34.47794906167614], [-58.547432706083214, -34.47733875041259], [-58.54601279816823, -34.47665521330329], [-58.54578615476163, -34.476544353601774], [-58.544426146225405, -34.475888200285986], [-58.54426121556279, -34.47580972669475], [-58.54423183947953, -34.47579575003719], [-58.54411323517627, -34.47573124211383], [-58.543163469659554, -34.47526924579114], [-58.54308386958406, -34.47523285998188], [-58.54300149660913, -34.47519520620228], [-58.542321433493065, -34.47487162220631], [-58.542181226461885, -34.474797841183715], [-58.54166314014763, -34.474548293379975], [-58.541544382822686, -34.4744927947297], [-58.541080394689516, -34.474261918154305], [-58.54092930710619, -34.47418800581511], [-58.540540708837916, -34.47400309422856], [-58.540411228420574, -34.47393845286894], [-58.54008984847476, -34.47371700316736], [-58.53977017463294, -34.47355339948364], [-58.539029879396146, -34.47317563090376], [-58.53872991015788, -34.4730382552032], [-58.53832108026584, -34.472828962743755], [-58.53740606004294, -34.4723867062207], [-58.53624508665814, -34.47188328854723], [-58.53611389066763, -34.47182639814144], [-58.53598788075591, -34.47177175731534], [-58.535582590381246, -34.47157771760888], [-58.53462678085684, -34.4711200983302], [-58.533614113647836, -34.47064980141796], [-58.53331270044475, -34.470494595315934], [-58.533042902593905, -34.47035566789597], [-58.53259043393479, -34.47013923116791], [-58.53199340236838, -34.46985363857706], [-58.53172510367457, -34.469724244605466], [-58.531529309256705, -34.46963173763847], [-58.53143778402073, -34.46957665116923], [-58.53117323851596, -34.4694562019839], [-58.530935752861865, -34.46934518481287], [-58.53077380356256, -34.4692711295253], [-58.530439338729735, -34.46910486416102], [-58.53023434081269, -34.46900324985638], [-58.52965151623, -34.468725833496585], [-58.52835641706556, -34.46810633806928], [-58.52822695655764, -34.46804168422347], [-58.526867228322594, -34.46738534070935], [-58.52669456425437, -34.46730213829104], [-58.52568018558597, -34.46681218751228], [-58.525528966968274, -34.46674726926625], [-58.52440674874509, -34.46620192658874], [-58.52429889558057, -34.466146543068945], [-58.523305988751474, -34.465674860116295], [-58.5231872566047, -34.465619344179345], [-58.52234557554494, -34.46521257472444], [-58.522279658069, -34.465247831881406], [-58.52188246442395, -34.46504024023765], [-58.521791895660044, -34.464992040061695], [-58.52173512690098, -34.46496182776522], [-58.52158967388553, -34.464878946467294], [-58.5214278996295, -34.46479586754344], [-58.52135773397932, -34.46476347125899], [-58.520661442209516, -34.46444407883736], [-58.520531993493975, -34.464379417099394], [-58.5204132650886, -34.46432389855015], [-58.51979802526989, -34.46403702898226], [-58.519646975520835, -34.463963092063054], [-58.51948504697828, -34.463889022274294], [-58.518578438581685, -34.46346341452337], [-58.518427392083694, -34.46338947525625], [-58.51827634476874, -34.463315535795246], [-58.51730510729275, -34.462853081020945], [-58.51719423526213, -34.46296891099073], [-58.51708352229044, -34.46307573014881], [-58.515562840821595, -34.46230013451981], [-58.515433398403246, -34.46223546753246], [-58.51401002756087, -34.46149708808412], [-58.5138151489627, -34.461440637329204], [-58.513717710853896, -34.461412411850766], [-58.513626110994856, -34.46136172346383], [-58.513543859748154, -34.46131277384866], [-58.51337198436363, -34.46121048531966], [-58.51328683332184, -34.461163806825795], [-58.51144431176647, -34.4601318664564], [-58.511293436685655, -34.460048907053974], [-58.51117504185086, -34.45997535665546], [-58.51042611309955, -34.45956062345659], [-58.50963415540514, -34.459118320472456], [-58.50952640151588, -34.45905841855185], [-58.50939704899916, -34.45898923959919], [-58.50703787293593, -34.45764447180561], [-58.506552398013106, -34.457408696807775], [-58.50636732232214, -34.45737092919157], [-58.50612961548093, -34.45732260406279], [-58.50628606945421, -34.45647705068874], [-58.50666146429987, -34.45525580026021], [-58.50691836871149, -34.45427195870774], [-58.50700731055571, -34.45326781344504], [-58.506848037438125, -34.45302723460107], [-58.5068321505402, -34.45239158720356], [-58.506416166055374, -34.45161584950859], [-58.506285160460386, -34.4513348290785], [-58.506258927130354, -34.45128042728927], [-58.505697861066146, -34.45040376528266], [-58.505376748556884, -34.44994934194512], [-58.5051152495997, -34.44951996984936], [-58.504558323057765, -34.44985874850825], [-58.506209982472676, -34.45273172762138], [-58.50596088187758, -34.45297126350207], [-58.50479388694475, -34.45411529307631], [-58.5047712456981, -34.45416459052944], [-58.50472716805889, -34.45419559868537], [-58.50468309040334, -34.45422660592324], [-58.50464429145488, -34.45426669215457], [-58.504616772997196, -34.454284382555194], [-58.50459485462641, -34.454293127932544], [-58.50454525708895, -34.45432857525335], [-58.50450645802723, -34.45436866143733], [-58.50447293767382, -34.45441782572393], [-58.50443949762558, -34.45446248421841], [-58.50441141663278, -34.45451171503973], [-58.50438333560615, -34.45456094585336], [-58.50434445600648, -34.45460553776087], [-58.504316374923675, -34.45465476765534], [-58.50428829379095, -34.45470399844333], [-58.504260212624416, -34.45475322922358], [-58.50423221286934, -34.454797954228596], [-58.504204131636804, -34.454847184993554], [-58.50417069126829, -34.454891843403225], [-58.50413733122649, -34.45493199602195], [-58.50409301185127, -34.45497652127019], [-58.50405957137055, -34.45502117964564], [-58.5040154126458, -34.45505669330226], [-58.50397661300311, -34.455096778396836], [-58.503937813306976, -34.455136864379035], [-58.503893734846244, -34.45516787220821], [-58.50384949559477, -34.45520789158001], [-58.503816054889896, -34.455252549881386], [-58.50379341274273, -34.45530184712147], [-58.50375997196921, -34.45534650540509], [-58.50373197065359, -34.45539123026584], [-58.50372556652234, -34.455445233030666], [-58.5037246018987, -34.45549930148135], [-58.503723637256435, -34.45555337083267], [-58.503722672611566, -34.455607440183506], [-58.50372235106271, -34.45562546330033], [-58.50372170796414, -34.455661509533826], [-58.50372074331414, -34.45571557888365], [-58.50371977866156, -34.45576964823295], [-58.50370793496223, -34.45582358440389], [-58.503685292585274, -34.455872881613814], [-58.50365201229977, -34.45590852829865], [-58.503276563804846, -34.45634606284125], [-58.50314732032738, -34.456410792641954], [-58.5029683993935, -34.45656774956199], [-58.50285279582855, -34.456765270187894], [-58.50260676530972, -34.45709381608237], [-58.50244124391456, -34.45739682289863], [-58.50235457614974, -34.45776710906809], [-58.50231924534072, -34.45795234928209], [-58.50222833451596, -34.4580897226193], [-58.50219774333748, -34.45813057108214], [-58.502164221154416, -34.458179734644844], [-58.50212549961169, -34.45821531419813], [-58.502092137228765, -34.4582554661773], [-58.502053335135216, -34.458295551479345], [-58.502041570437015, -34.458344981656154], [-58.50201892635468, -34.458394278494204], [-58.50201796050853, -34.45844834777769], [-58.50197915828765, -34.45848843305175], [-58.50192419795134, -34.458519305846146], [-58.50187459675803, -34.45855475196445], [-58.50184123411627, -34.45859490386627], [-58.50181315014416, -34.45864413398229], [-58.50179594554505, -34.458693497449275], [-58.501784100130536, -34.458747433365666], [-58.50178313412029, -34.45880150264022], [-58.50180400746327, -34.458851332859375], [-58.50182488083008, -34.45890116307523], [-58.501851274454836, -34.45894655329092], [-58.501877587594876, -34.4589964501754], [-58.501887581585635, -34.459046147028886], [-58.501881336894435, -34.45909113808178], [-58.50184245380186, -34.45913572907166], [-58.501787653971675, -34.45915759114491], [-58.50173805233484, -34.459193037192854], [-58.501710048595484, -34.459237761501285], [-58.50169284380108, -34.459287124944375], [-58.501686437967365, -34.45934112752695], [-58.501685471888834, -34.459395195892675], [-58.501635950576706, -34.45942613612088], [-58.501570673571315, -34.459425335854114], [-58.50149995681837, -34.45942446885911], [-58.5014559567834, -34.45945096994705], [-58.5014333925592, -34.45949576087953], [-58.501432345773814, -34.45955433591035], [-58.50143137950767, -34.45960840516905], [-58.50143041323898, -34.45966247442724], [-58.50141856742999, -34.45971641029017], [-58.50140680212858, -34.459765840379774], [-58.50139495630345, -34.45981977533759], [-58.50137239194029, -34.45986456625277], [-58.501355186806194, -34.459913929634844], [-58.5013108632576, -34.459958453731474], [-58.501282859022865, -34.46000317792397], [-58.50124405571142, -34.460043262926746], [-58.50120525236258, -34.46008334791593], [-58.501182607285905, -34.460132644560325], [-58.50114380386544, -34.46017272952763], [-58.50110483932433, -34.46022182602219], [-58.50107139510059, -34.460266482545414], [-58.50104874989254, -34.46031577916022], [-58.50102074539364, -34.460360503283354], [-58.500981861239296, -34.46040509396302], [-58.50095377612317, -34.46045432383841], [-58.50092033170694, -34.460498981215245], [-58.50088144743338, -34.46054357185893], [-58.50084256311801, -34.46058816248882], [-58.500814558414376, -34.460632886557505], [-58.50077567512509, -34.46067747627567], [-58.500742230522285, -34.46072213359739], [-58.500697986778114, -34.460762151677145], [-58.500669981936944, -34.460806875707895], [-58.50064733633763, -34.4608561722341], [-58.50064653065514, -34.46090122992395], [-58.500661963943344, -34.46095099358346], [-58.50027624710115, -34.4612181763711], [-58.50015989928127, -34.46125507771049], [-58.50007416691042, -34.461305131320536], [-58.499979807753455, -34.46140618380726], [-58.49997800811523, -34.46142265374466], [-58.49869063602194, -34.46187628216836], [-58.496942230050124, -34.4630264989402], [-58.49743698038905, -34.46385994309234], [-58.498509107351374, -34.465550391529064], [-58.49979239207596, -34.467281313971384], [-58.4998199965134, -34.46725911906925], [-58.50100186373924, -34.46811187552643], [-58.502147686394466, -34.46885151106522], [-58.50231569364332, -34.46888962417826], [-58.50234478797857, -34.468906773797066], [-58.50247185439765, -34.468981672032335], [-58.50392482972478, -34.46989180452985], [-58.50407587426616, -34.469965760720214], [-58.504172998134045, -34.470012017115245], [-58.504820063635954, -34.470344421934804], [-58.504938789515826, -34.47039995553681], [-58.50506823469818, -34.47046463366274], [-58.50645967236013, -34.4711666721156], [-58.50661072149667, -34.471240626176545], [-58.50677265306169, -34.47131471302822], [-58.5073011704116, -34.471582560821595], [-58.50740901863588, -34.4716379591884], [-58.50748454457234, -34.471674935680404], [-58.5080561099346, -34.471970347444454], [-58.50896210999952, -34.47243207990863], [-58.50912388572881, -34.472515175299364], [-58.509242616552314, -34.47257070484074], [-58.510321129106536, -34.47312466688095], [-58.51046146522361, -34.47318947124175], [-58.51059092020605, -34.47325414372376], [-58.511453743034714, -34.47369730560511], [-58.511610323117786, -34.47376681329261], [-58.51174514060763, -34.47383605664158], [-58.51175995607958, -34.47384491708984], [-58.511798986570874, -34.47386825970997], [-58.51191764223533, -34.47392829253119], [-58.51197156941275, -34.473955989756995], [-58.51257549122726, -34.47426980082693], [-58.51188787979169, -34.474991522794575], [-58.51110008004966, -34.47583820818341], [-58.51043452674597, -34.47654216229305], [-58.50980240898682, -34.477201452778544], [-58.50865871939567, -34.47663767778058], [-58.50859262690981, -34.47668193775311], [-58.50788640684652, -34.47722313899551], [-58.50779806838569, -34.477294168283485], [-58.50773181444183, -34.477347440204476], [-58.50701470132592, -34.47788850226423], [-58.50692652199111, -34.4779505193383], [-58.50840387091243, -34.478725695409466], [-58.50767169494444, -34.47950092822806], [-58.507211256454916, -34.479991045474534], [-58.507133556895376, -34.48007572442566], [-58.50671736383667, -34.48052581951516], [-58.50660077116201, -34.480655089362706], [-58.50667102416572, -34.48068298847127], [-58.50672519468767, -34.48069717075075], [-58.5067740043828, -34.480706780745294], [-58.50683905722975, -34.480721095963766], [-58.50689890982943, -34.480721827357605], [-58.50698604844722, -34.48071838538349], [-58.507040700755915, -34.48070553292016], [-58.50710631452933, -34.480688307610926], [-58.507172089919194, -34.480662070743385], [-58.50723810608896, -34.480622316535296], [-58.507293320175926, -34.48057792448072], [-58.50733773221939, -34.4805288927921], [-58.507382465270865, -34.48046183801202], [-58.508608056269935, -34.48101310558213], [-58.50974628275702, -34.48158132251599], [-58.510790503161985, -34.482234011542964], [-58.511840901592954, -34.48284620538785], [-58.51270911068514, -34.48329843830225], [-58.51380346742424, -34.48388861686336], [-58.5147683642837, -34.48441411852705], [-58.51593861037307, -34.48502322864125], [-58.51709270987542, -34.48562311824042], [-58.51821409727474, -34.48622710712954], [-58.51938431595156, -34.48684069115946], [-58.52056583205761, -34.48743186718051], [-58.5217087975073, -34.488049606026486], [-58.52284681509614, -34.48864023399499], [-58.524182778622276, -34.48942703234519], [-58.52463615476907, -34.48964432558772], [-58.52560694792112, -34.49015178714744], [-58.52656198125491, -34.49062750374984]]]}}, {"type": "Feature", "properties": {"zona": "Martinez", "relacion_osm": "1770849", "radios": 83, "poblacion": 64978, "hogares": 26155, "viviendas": 29623, "pct_nbi": 1.43, "pct_privacion_convergente": 0.44, "pct_sin_cloaca": 1.81, "pct_sin_gas_red": 14.55, "pct_sin_agua_red": 2.71, "pct_hacinamiento": 2.96, "pct_hacinamiento_critico": 0.21, "pct_vivienda_precaria": 0.82, "pct_inquilinos": 21.28, "pct_tenencia_precaria": 10.29, "pct_edu_hasta_primaria": 17.81, "pct_edu_secundaria_completa_o_mas": 68.55, "pct_edu_universitaria_completa_o_mas": 24.39, "pct_hasta_14_anos": 14.92, "pct_15_a_64_anos": 62.69, "pct_65_y_mas_anos": 22.38, "orden_peor_a_mejor": 5, "limite": "OpenStreetMap, relaciones administrativas de localidad (no es fuente oficial), proyectadas sobre los radios censales del INDEC", "fuente_geometria": "INDEC, Censo Nacional de Poblacion, Hogares y Viviendas 2022, radios censales, via catalogo.datos.gba.gob.ar", "fuente_datos": "INDEC, Censo Nacional de Poblacion, Hogares y Viviendas 2022, procesado con Redatam 7", "fecha_descarga": "2026-09-28"}, "geometry": {"type": "Polygon", "coordinates": [[[-58.52901208521293, -34.51196675398673], [-58.529473519437936, -34.51217826321416], [-58.53012555599864, -34.512477133978], [-58.53037364298037, -34.51259084733608], [-58.53124133605188, -34.5129885565589], [-58.53169293827553, -34.51245684652782], [-58.531882592748715, -34.51219773605348], [-58.532128418078614, -34.511840151938955], [-58.53251908177254, -34.51129502424063], [-58.5325635753589, -34.51124147785978], [-58.533088027971054, -34.5105176865472], [-58.533177329375754, -34.51039257010454], [-58.53369530300501, -34.50972728586246], [-58.53397929241915, -34.50936564908177], [-58.53424687237795, -34.509008321419365], [-58.534736744937504, -34.5083922685113], [-58.53533830795696, -34.50761531070707], [-58.5356390069383, -34.507231336363795], [-58.53593954441904, -34.506856372787496], [-58.53670333880687, -34.50582897400394], [-58.53673118315041, -34.50579325354262], [-58.53675926374994, -34.50574401564556], [-58.53676549419074, -34.50569902275077], [-58.53677148834666, -34.50566754728398], [-58.536766833084684, -34.505622424888855], [-58.53675129217527, -34.50557717119105], [-58.53674119411252, -34.5055319826927], [-58.536725574471006, -34.50549123480137], [-58.53671003360582, -34.505445981098525], [-58.53668392216477, -34.505382573748705], [-58.53665260423854, -34.50530558376008], [-58.53661095211139, -34.50519692268408], [-58.53658002813933, -34.50509740453098], [-58.53631876093569, -34.50447234307095], [-58.53667001072572, -34.504309801550036], [-58.53672491078281, -34.50428341869858], [-58.53695531739683, -34.50418252412776], [-58.53718580112634, -34.50407712238068], [-58.537832764957, -34.503814463925686], [-58.53823835869495, -34.5036570750417], [-58.53845763936604, -34.50356956380218], [-58.53897287000213, -34.50336841752332], [-58.538994798049565, -34.50335966628279], [-58.53951694328696, -34.50276200575907], [-58.540005797748, -34.50219999992345], [-58.54016117560552, -34.502030600100696], [-58.54032791044241, -34.5018342961278], [-58.54038343618204, -34.50177186499324], [-58.54108333486507, -34.50096901113284], [-58.54124990838732, -34.50078171650259], [-58.54138319806176, -34.500630078288175], [-58.541960832204495, -34.49996997540075], [-58.5420830763275, -34.4998272180544], [-58.542205321101854, -34.499684461486034], [-58.542793576900316, -34.49914707768533], [-58.54256532662956, -34.49899737752239], [-58.54132241390723, -34.49818218683868], [-58.540470062372556, -34.497739358117485], [-58.53952007291002, -34.49727732834821], [-58.53861370979192, -34.49681130732637], [-58.537675019322776, -34.496326865677666], [-58.536768993086575, -34.49584280816242], [-58.535819203794006, -34.495371739805194], [-58.53485869875567, -34.4948915221372], [-58.533919735591546, -34.49442507581983], [-58.53301375227377, -34.4939409913805], [-58.53209105859909, -34.493479233332955], [-58.53115252341558, -34.49299023650695], [-58.53021376212146, -34.492514751031024], [-58.52930750394228, -34.49204866323778], [-58.52838524805823, -34.49156434909503], [-58.5274521192603, -34.49107989704314], [-58.52656198125491, -34.49062750374984], [-58.52560694792112, -34.49015178714744], [-58.52463615476907, -34.48964432558772], [-58.524182778622276, -34.48942703234519], [-58.52284681509614, -34.48864023399499], [-58.5217087975073, -34.488049606026486], [-58.52056583205761, -34.48743186718051], [-58.51938431595156, -34.48684069115946], [-58.51821409727474, -34.48622710712954], [-58.51709270987542, -34.48562311824042], [-58.51593861037307, -34.48502322864125], [-58.5147683642837, -34.48441411852705], [-58.51380346742424, -34.48388861686336], [-58.51270911068514, -34.48329843830225], [-58.511840901592954, -34.48284620538785], [-58.510790503161985, -34.482234011542964], [-58.50974628275702, -34.48158132251599], [-58.508608056269935, -34.48101310558213], [-58.507382465270865, -34.48046183801202], [-58.50733773221939, -34.4805288927921], [-58.507293320175926, -34.48057792448072], [-58.50723810608896, -34.480622316535296], [-58.507172089919194, -34.480662070743385], [-58.50710631452933, -34.480688307610926], [-58.507040700755915, -34.48070553292016], [-58.50698604844722, -34.48071838538349], [-58.50689890982943, -34.480721827357605], [-58.50683905722975, -34.480721095963766], [-58.5067740043828, -34.480706780745294], [-58.50672519468767, -34.48069717075075], [-58.50667102416572, -34.48068298847127], [-58.50660077116201, -34.480655089362706], [-58.50649465992446, -34.48080702184772], [-58.506293878730524, -34.48107947824641], [-58.50571498065467, -34.4818024921378], [-58.50487966375492, -34.482864876522136], [-58.50462341377487, -34.4831952388705], [-58.504378528073694, -34.483498700178565], [-58.50389947201151, -34.484114764097804], [-58.50350019189315, -34.48392059111664], [-58.50306842775769, -34.48371700628957], [-58.502636826835214, -34.483504407570635], [-58.502129533252685, -34.48326383988879], [-58.501206811696925, -34.48281987734982], [-58.50114744138265, -34.482792109507706], [-58.501058074037, -34.48274921586302], [-58.5008776355303, -34.48266261068366], [-58.50049981308268, -34.48248671827761], [-58.499841629834485, -34.48216316800649], [-58.498805798174, -34.4816547053267], [-58.498298688729015, -34.48140510984598], [-58.497888715302516, -34.4812017738869], [-58.49692843683361, -34.480730278247904], [-58.4959897719607, -34.480268054695806], [-58.495072720000984, -34.479815103713484], [-58.494123192836334, -34.47935273224862], [-58.49363771378889, -34.47911239776013], [-58.49266660207537, -34.47864073556694], [-58.492472349299945, -34.478548204355576], [-58.49092938147224, -34.477799068555015], [-58.489655966405415, -34.4771929535688], [-58.48936451584525, -34.47705865541755], [-58.48883602494634, -34.47679072995801], [-58.48860410018759, -34.476675194007754], [-58.48840441579044, -34.47658258924054], [-58.4882964932548, -34.476531680034945], [-58.486851352497496, -34.47582752000548], [-58.48671903051167, -34.475761333202364], [-58.486389096414214, -34.4755963004482], [-58.48571145087959, -34.47527118574085], [-58.48430303358539, -34.47661867981357], [-58.483349369230886, -34.47780374412291], [-58.48289253999732, -34.47828880035645], [-58.48235323103532, -34.478539435766926], [-58.48191073264414, -34.47903065106779], [-58.48161489959545, -34.47940399753675], [-58.481522778178785, -34.479702077106985], [-58.48133683593533, -34.47999300559863], [-58.48143358441921, -34.48005604757628], [-58.48192820503544, -34.48056199281103], [-58.481806228891, -34.48113201623384], [-58.48135998357542, -34.481672794422245], [-58.48093169109642, -34.48201072269538], [-58.48080874891005, -34.482405580694746], [-58.48062770446705, -34.4828740085326], [-58.48052875361061, -34.48329302581087], [-58.48011674219453, -34.48362410042331], [-58.480000846897426, -34.48385799813195], [-58.480116218919996, -34.48421244250117], [-58.480059598602445, -34.48453915628981], [-58.480059533018476, -34.48453953133487], [-58.48038028103562, -34.48565228006868], [-58.48035867843724, -34.48684314052118], [-58.480482004232805, -34.4872537497436], [-58.48040456713616, -34.48751748094864], [-58.48039714779313, -34.48792646397984], [-58.48054067628835, -34.48802450188376], [-58.48052649179098, -34.48846824494494], [-58.4804592311126, -34.488575569769736], [-58.480423475496465, -34.48874637963139], [-58.48038673879756, -34.488971258848956], [-58.48030385293462, -34.48933977823308], [-58.48016704128714, -34.489680586369964], [-58.4801624629011, -34.48993290585228], [-58.480253175707325, -34.490017965685034], [-58.48034842066037, -34.490107274879826], [-58.48121717327457, -34.49044814933359], [-58.48133046651934, -34.49049260230126], [-58.481429132071966, -34.490531315655886], [-58.48248401543625, -34.49094659680174], [-58.484390843149555, -34.491703296652915], [-58.48671800828084, -34.49277086115093], [-58.48730410804173, -34.493030374640604], [-58.4896484650529, -34.494069288169854], [-58.4913994914967, -34.4948692319615], [-58.492160612613795, -34.495214055317525], [-58.49334909661473, -34.49576569351953], [-58.494082366574496, -34.496083265421866], [-58.49600036136585, -34.49695659068861], [-58.496936685668786, -34.497391923966994], [-58.49758483789791, -34.4976719818945], [-58.498661999225725, -34.498135388616504], [-58.49955209144475, -34.49854529733488], [-58.501275046134126, -34.49933293106802], [-58.50240298347105, -34.499857276035364], [-58.5033546224067, -34.500294993807955], [-58.50435309393454, -34.50075424030278], [-58.50532960568612, -34.50120337365898], [-58.506204561383626, -34.50160578721787], [-58.50715436293392, -34.50204261237308], [-58.50917507031379, -34.50298208771845], [-58.509846591614505, -34.50328630734988], [-58.511145888592566, -34.5038747000486], [-58.51225137452958, -34.50437530704926], [-58.513308025558025, -34.50485378474115], [-58.5134815576175, -34.504932454430914], [-58.51579159586442, -34.50598198455841], [-58.5180865319411, -34.507005494501044], [-58.519206509764345, -34.50750474061971], [-58.51999191268022, -34.50785068600019], [-58.52027465455585, -34.50797522302367], [-58.52080729297288, -34.508209827331946], [-58.52112223060077, -34.50834854203478], [-58.521404878008674, -34.50847892688384], [-58.52243099314095, -34.5089531398583], [-58.523521240754114, -34.50945260201118], [-58.524624364681735, -34.50995771102941], [-58.52532026168892, -34.51027596695878], [-58.52564263849044, -34.5104232741152], [-58.526317588437124, -34.510731683042366], [-58.52686639753011, -34.51098323318457], [-58.52767266749742, -34.51135279223398], [-58.52794503846085, -34.51147763829741], [-58.528477605926156, -34.51172175943697], [-58.528939347414486, -34.511933412263474], [-58.52901208521293, -34.51196675398673]]]}}, {"type": "Feature", "properties": {"zona": "Acassuso", "relacion_osm": "1877206", "radios": 16, "poblacion": 11035, "hogares": 4805, "viviendas": 5652, "pct_nbi": 0.94, "pct_privacion_convergente": 0.33, "pct_sin_cloaca": 2.12, "pct_sin_gas_red": 19.48, "pct_sin_agua_red": 1.96, "pct_hacinamiento": 2.5, "pct_hacinamiento_critico": 0.23, "pct_vivienda_precaria": 0.55, "pct_inquilinos": 28.99, "pct_tenencia_precaria": 10.26, "pct_edu_hasta_primaria": 15.11, "pct_edu_secundaria_completa_o_mas": 74.15, "pct_edu_universitaria_completa_o_mas": 32.28, "pct_hasta_14_anos": 13.83, "pct_15_a_64_anos": 63.62, "pct_65_y_mas_anos": 22.55, "orden_peor_a_mejor": 6, "limite": "OpenStreetMap, relaciones administrativas de localidad (no es fuente oficial), proyectadas sobre los radios censales del INDEC", "fuente_geometria": "INDEC, Censo Nacional de Poblacion, Hogares y Viviendas 2022, radios censales, via catalogo.datos.gba.gob.ar", "fuente_datos": "INDEC, Censo Nacional de Poblacion, Hogares y Viviendas 2022, procesado con Redatam 7", "fecha_descarga": "2026-09-28"}, "geometry": {"type": "Polygon", "coordinates": [[[-58.501058074037, -34.48274921586302], [-58.50114744138265, -34.482792109507706], [-58.501206811696925, -34.48281987734982], [-58.502129533252685, -34.48326383988879], [-58.502636826835214, -34.483504407570635], [-58.50306842775769, -34.48371700628957], [-58.50350019189315, -34.48392059111664], [-58.50389947201151, -34.484114764097804], [-58.504378528073694, -34.483498700178565], [-58.50462341377487, -34.4831952388705], [-58.50487966375492, -34.482864876522136], [-58.50571498065467, -34.4818024921378], [-58.506293878730524, -34.48107947824641], [-58.50649465992446, -34.48080702184772], [-58.50660077116201, -34.480655089362706], [-58.50671736383667, -34.48052581951516], [-58.507133556895376, -34.48007572442566], [-58.507211256454916, -34.479991045474534], [-58.50767169494444, -34.47950092822806], [-58.50840387091243, -34.478725695409466], [-58.50692652199111, -34.4779505193383], [-58.50701470132592, -34.47788850226423], [-58.50773181444183, -34.477347440204476], [-58.50779806838569, -34.477294168283485], [-58.50788640684652, -34.47722313899551], [-58.50859262690981, -34.47668193775311], [-58.50865871939567, -34.47663767778058], [-58.50980240898682, -34.477201452778544], [-58.51043452674597, -34.47654216229305], [-58.51110008004966, -34.47583820818341], [-58.51188787979169, -34.474991522794575], [-58.51257549122726, -34.47426980082693], [-58.51197156941275, -34.473955989756995], [-58.51191764223533, -34.47392829253119], [-58.511798986570874, -34.47386825970997], [-58.51175995607958, -34.47384491708984], [-58.51174514060763, -34.47383605664158], [-58.511610323117786, -34.47376681329261], [-58.511453743034714, -34.47369730560511], [-58.51059092020605, -34.47325414372376], [-58.51046146522361, -34.47318947124175], [-58.510321129106536, -34.47312466688095], [-58.509242616552314, -34.47257070484074], [-58.50912388572881, -34.472515175299364], [-58.50896210999952, -34.47243207990863], [-58.5080561099346, -34.471970347444454], [-58.50748454457234, -34.471674935680404], [-58.50740901863588, -34.4716379591884], [-58.5073011704116, -34.471582560821595], [-58.50677265306169, -34.47131471302822], [-58.50661072149667, -34.471240626176545], [-58.50645967236013, -34.4711666721156], [-58.50506823469818, -34.47046463366274], [-58.504938789515826, -34.47039995553681], [-58.504820063635954, -34.470344421934804], [-58.504172998134045, -34.470012017115245], [-58.50407587426616, -34.469965760720214], [-58.50392482972478, -34.46989180452985], [-58.50247185439765, -34.468981672032335], [-58.50234478797857, -34.468906773797066], [-58.50231569364332, -34.46888962417826], [-58.502147686394466, -34.46885151106522], [-58.50100186373924, -34.46811187552643], [-58.4998199965134, -34.46725911906925], [-58.49979239207596, -34.467281313971384], [-58.498509107351374, -34.465550391529064], [-58.49743698038905, -34.46385994309234], [-58.496942230050124, -34.4630264989402], [-58.49519727428846, -34.46335752839291], [-58.4939944573556, -34.463957997638495], [-58.49394065578209, -34.46588886442081], [-58.4933227811977, -34.46623735470843], [-58.49315996140734, -34.46645609050503], [-58.49277811549882, -34.46696906558822], [-58.49259388731991, -34.46787115503451], [-58.49234960492089, -34.46791521370719], [-58.49218462240341, -34.46878780693846], [-58.49181133350566, -34.46924341955946], [-58.49177047044774, -34.46997548750318], [-58.49137871220108, -34.470416722195026], [-58.49147173237573, -34.47081217452724], [-58.491068293954164, -34.471293062952554], [-58.491035488758165, -34.4713016713641], [-58.489272892170035, -34.47250923305674], [-58.488656361662024, -34.47271140733168], [-58.487115185900755, -34.473840063418415], [-58.48690469933372, -34.47404476635333], [-58.48669437443352, -34.47424045833265], [-58.48656038090809, -34.474428080954375], [-58.48658993316361, -34.474599702983454], [-58.48571145087959, -34.47527118574085], [-58.486389096414214, -34.4755963004482], [-58.48671903051167, -34.475761333202364], [-58.486851352497496, -34.47582752000548], [-58.4882964932548, -34.476531680034945], [-58.48840441579044, -34.47658258924054], [-58.48860410018759, -34.476675194007754], [-58.48883602494634, -34.47679072995801], [-58.48936451584525, -34.47705865541755], [-58.489655966405415, -34.4771929535688], [-58.49092938147224, -34.477799068555015], [-58.492472349299945, -34.478548204355576], [-58.49266660207537, -34.47864073556694], [-58.49363771378889, -34.47911239776013], [-58.494123192836334, -34.47935273224862], [-58.495072720000984, -34.479815103713484], [-58.4959897719607, -34.480268054695806], [-58.49692843683361, -34.480730278247904], [-58.497888715302516, -34.4812017738869], [-58.498298688729015, -34.48140510984598], [-58.498805798174, -34.4816547053267], [-58.499841629834485, -34.48216316800649], [-58.50049981308268, -34.48248671827761], [-58.5008776355303, -34.48266261068366], [-58.501058074037, -34.48274921586302]]]}}]}