<?xml version="1.0" encoding="UTF-8"?>
<osm version="0.6" generator="openstreetmap-cgimap 2.1.0 (2942779 spike-08.openstreetmap.org)" copyright="OpenStreetMap and contributors" attribution="http://www.openstreetmap.org/copyright" license="http://opendatacommons.org/licenses/odbl/1-0/">
 <node id="94328821" visible="true" version="11" changeset="106689419" timestamp="2021-06-21T04:48:42Z" user="AgusQui" uid="331218" lat="-34.4629811" lon="-58.5046295"/>
 <node id="319982921" visible="true" version="4" changeset="162552212" timestamp="2025-02-15T21:48:18Z" user="NickJOB" uid="245634" lat="-34.4602933" lon="-58.5054680"/>
 <node id="319982927" visible="true" version="4" changeset="162552212" timestamp="2025-02-15T21:48:18Z" user="NickJOB" uid="245634" lat="-34.4613974" lon="-58.5061230"/>
 <node id="319982933" visible="true" version="4" changeset="162552212" timestamp="2025-02-15T21:48:18Z" user="NickJOB" uid="245634" lat="-34.4614081" lon="-58.5050275"/>
 <node id="319982940" visible="true" version="4" changeset="162552212" timestamp="2025-02-15T21:48:18Z" user="NickJOB" uid="245634" lat="-34.4613252" lon="-58.5053434"/>
 <node id="319982946" visible="true" version="4" changeset="162552212" timestamp="2025-02-15T21:48:18Z" user="NickJOB" uid="245634" lat="-34.4619192" lon="-58.5056993"/>
 <node id="319982953" visible="true" version="4" changeset="162552212" timestamp="2025-02-15T21:48:18Z" user="NickJOB" uid="245634" lat="-34.4618144" lon="-58.5059515"/>
 <node id="2762183348" visible="true" version="1" changeset="21465334" timestamp="2014-04-02T20:20:47Z" user="Souchong" uid="255141" lat="-34.4602298" lon="-58.5055777"/>
 <node id="2762183368" visible="true" version="2" changeset="162552212" timestamp="2025-02-15T21:48:18Z" user="NickJOB" uid="245634" lat="-34.4613104" lon="-58.5052711"/>
 <node id="2762183376" visible="true" version="2" changeset="162552212" timestamp="2025-02-15T21:48:18Z" user="NickJOB" uid="245634" lat="-34.4614495" lon="-58.5050026"/>
 <node id="4379890086" visible="true" version="2" changeset="162666773" timestamp="2025-02-18T15:57:54Z" user="g0nz" uid="9536659" lat="-34.4609240" lon="-58.5066523"/>
 <node id="4379890087" visible="true" version="2" changeset="162666773" timestamp="2025-02-18T15:57:54Z" user="g0nz" uid="9536659" lat="-34.4608579" lon="-58.5068161"/>
 <node id="4379890094" visible="true" version="2" changeset="162666773" timestamp="2025-02-18T15:57:54Z" user="g0nz" uid="9536659" lat="-34.4609697" lon="-58.5064430"/>
 <node id="4379890095" visible="true" version="1" changeset="41859468" timestamp="2016-09-01T23:34:59Z" user="pablopareja" uid="211657" lat="-34.4611204" lon="-58.5069913"/>
 <node id="4379890108" visible="true" version="2" changeset="162666773" timestamp="2025-02-18T15:57:54Z" user="g0nz" uid="9536659" lat="-34.4608831" lon="-58.5063561"/>
 <node id="4379890110" visible="true" version="2" changeset="162666773" timestamp="2025-02-18T15:57:54Z" user="g0nz" uid="9536659" lat="-34.4609672" lon="-58.5061529"/>
 <node id="4379890111" visible="true" version="2" changeset="93440278" timestamp="2020-11-02T20:41:58Z" user="CapAhab" uid="6172866" lat="-34.4611977" lon="-58.5070199"/>
 <node id="4379890114" visible="true" version="2" changeset="93440278" timestamp="2020-11-02T20:41:58Z" user="CapAhab" uid="6172866" lat="-34.4615335" lon="-58.5069643"/>
 <node id="4379890117" visible="true" version="2" changeset="93440278" timestamp="2020-11-02T20:41:58Z" user="CapAhab" uid="6172866" lat="-34.4617611" lon="-58.5067275"/>
 <node id="4379890119" visible="true" version="2" changeset="106689419" timestamp="2021-06-21T04:48:42Z" user="AgusQui" uid="331218" lat="-34.4618575" lon="-58.5068247"/>
 <node id="4379890123" visible="true" version="2" changeset="106689419" timestamp="2021-06-21T04:48:42Z" user="AgusQui" uid="331218" lat="-34.4625405" lon="-58.5060544"/>
 <node id="4379890125" visible="true" version="2" changeset="106689419" timestamp="2021-06-21T04:48:42Z" user="AgusQui" uid="331218" lat="-34.4629112" lon="-58.5053854"/>
 <node id="4379890126" visible="true" version="2" changeset="106689419" timestamp="2021-06-21T04:48:42Z" user="AgusQui" uid="331218" lat="-34.4633256" lon="-58.5046317"/>
 <node id="4379890129" visible="true" version="1" changeset="41859468" timestamp="2016-09-01T23:35:00Z" user="pablopareja" uid="211657" lat="-34.4640191" lon="-58.5043881"/>
 <node id="4379890130" visible="true" version="1" changeset="41859468" timestamp="2016-09-01T23:35:00Z" user="pablopareja" uid="211657" lat="-34.4640463" lon="-58.5043947"/>
 <node id="5018197870" visible="true" version="2" changeset="162666773" timestamp="2025-02-18T15:57:54Z" user="g0nz" uid="9536659" lat="-34.4603875" lon="-58.5058095"/>
 <node id="5018197879" visible="true" version="1" changeset="50887282" timestamp="2017-08-06T14:57:38Z" user="juanperez79" uid="6218510" lat="-34.4608873" lon="-58.5067062"/>
 <node id="8075785022" visible="true" version="1" changeset="93440278" timestamp="2020-11-02T20:41:58Z" user="CapAhab" uid="6172866" lat="-34.4614033" lon="-58.5070118"/>
 <node id="8851875273" visible="true" version="1" changeset="106689419" timestamp="2021-06-21T04:48:42Z" user="AgusQui" uid="331218" lat="-34.4635175" lon="-58.5049251"/>
 <node id="12598745004" visible="true" version="1" changeset="162666773" timestamp="2025-02-18T15:57:54Z" user="g0nz" uid="9536659" lat="-34.4601723" lon="-58.5056820"/>
 <way id="440263611" visible="true" version="5" changeset="172457308" timestamp="2025-09-25T20:17:30Z" user="muralito" uid="755114">
  <nd ref="2762183348"/>
  <nd ref="12598745004"/>
  <nd ref="5018197870"/>
  <nd ref="4379890110"/>
  <nd ref="4379890108"/>
  <nd ref="4379890094"/>
  <nd ref="4379890086"/>
  <nd ref="5018197879"/>
  <nd ref="4379890087"/>
  <nd ref="4379890095"/>
  <nd ref="4379890111"/>
  <nd ref="8075785022"/>
  <nd ref="4379890114"/>
  <nd ref="4379890117"/>
  <nd ref="4379890119"/>
  <nd ref="4379890123"/>
  <nd ref="4379890125"/>
  <nd ref="8851875273"/>
  <nd ref="4379890130"/>
  <nd ref="4379890129"/>
  <nd ref="4379890126"/>
  <nd ref="94328821"/>
 </way>
 <way id="1433125566" visible="true" version="1" changeset="172457308" timestamp="2025-09-25T20:17:30Z" user="muralito" uid="755114">
  <nd ref="94328821"/>
  <nd ref="2762183376"/>
  <nd ref="319982933"/>
  <nd ref="2762183368"/>
  <nd ref="319982940"/>
  <nd ref="319982946"/>
  <nd ref="319982953"/>
  <nd ref="319982927"/>
  <nd ref="319982921"/>
  <nd ref="2762183348"/>
 </way>
 <relation id="19648933" visible="true" version="1" changeset="172457308" timestamp="2025-09-25T20:17:30Z" user="muralito" uid="755114">
  <member type="way" ref="1433125566" role="outer"/>
  <member type="way" ref="440263611" role="outer"/>
  <tag k="leisure" v="park"/>
  <tag k="type" v="multipolygon"/>
 </relation>
</osm>
