<?xml version="1.0" encoding="UTF-8"?>
<osm version="0.6" generator="openstreetmap-cgimap 2.1.0 (2942791 spike-08.openstreetmap.org)" copyright="OpenStreetMap and contributors" attribution="http://www.openstreetmap.org/copyright" license="http://opendatacommons.org/licenses/odbl/1-0/">
 <node id="94322060" visible="true" version="9" changeset="1606518" timestamp="2009-06-23T21:57:39Z" user="zorko" uid="22005" lat="-34.4711739" lon="-58.4920157"/>
 <node id="423984155" visible="true" version="1" changeset="1555496" timestamp="2009-06-18T16:30:39Z" user="zorko" uid="22005" lat="-34.4653958" lon="-58.4933321"/>
 <node id="423984159" visible="true" version="2" changeset="10456445" timestamp="2012-01-21T15:14:26Z" user="estela" uid="89271" lat="-34.4666348" lon="-58.4951458"/>
 <node id="423984168" visible="true" version="1" changeset="1555496" timestamp="2009-06-18T16:30:39Z" user="zorko" uid="22005" lat="-34.4663662" lon="-58.4948891"/>
 <node id="1600115376" visible="true" version="1" changeset="10456445" timestamp="2012-01-21T15:13:50Z" user="estela" uid="89271" lat="-34.4654286" lon="-58.4933890"/>
 <node id="1600115378" visible="true" version="1" changeset="10456445" timestamp="2012-01-21T15:13:50Z" user="estela" uid="89271" lat="-34.4655153" lon="-58.4937886"/>
 <node id="1600115383" visible="true" version="1" changeset="10456445" timestamp="2012-01-21T15:13:50Z" user="estela" uid="89271" lat="-34.4655708" lon="-58.4937171"/>
 <node id="1600115386" visible="true" version="1" changeset="10456445" timestamp="2012-01-21T15:13:50Z" user="estela" uid="89271" lat="-34.4656575" lon="-58.4940326"/>
 <node id="1600115391" visible="true" version="1" changeset="10456445" timestamp="2012-01-21T15:13:51Z" user="estela" uid="89271" lat="-34.4658379" lon="-58.4942556"/>
 <node id="1600115394" visible="true" version="1" changeset="10456445" timestamp="2012-01-21T15:13:51Z" user="estela" uid="89271" lat="-34.4660598" lon="-58.4943523"/>
 <node id="1600115397" visible="true" version="1" changeset="10456445" timestamp="2012-01-21T15:13:51Z" user="estela" uid="89271" lat="-34.4661674" lon="-58.4945458"/>
 <node id="1600115427" visible="true" version="1" changeset="10456445" timestamp="2012-01-21T15:13:52Z" user="estela" uid="89271" lat="-34.4664691" lon="-58.4950843"/>
 <node id="1600115468" visible="true" version="1" changeset="10456445" timestamp="2012-01-21T15:13:53Z" user="estela" uid="89271" lat="-34.4670497" lon="-58.4947040"/>
 <node id="1600115575" visible="true" version="1" changeset="10456445" timestamp="2012-01-21T15:13:57Z" user="estela" uid="89271" lat="-34.4691466" lon="-58.4971414"/>
 <node id="1600115577" visible="true" version="1" changeset="10456445" timestamp="2012-01-21T15:13:57Z" user="estela" uid="89271" lat="-34.4691778" lon="-58.4971919"/>
 <node id="1600115579" visible="true" version="3" changeset="77640286" timestamp="2019-11-27T14:57:46Z" user="Hernan" uid="72347" lat="-34.4692142" lon="-58.4970374"/>
 <node id="1600115582" visible="true" version="2" changeset="41118549" timestamp="2016-07-29T21:14:49Z" user="pablopareja" uid="211657" lat="-34.4693229" lon="-58.4971697"/>
 <node id="2338352139" visible="true" version="1" changeset="16484681" timestamp="2013-06-09T16:31:56Z" user="grtouron" uid="676690" lat="-34.4708282" lon="-58.4935606"/>
 <node id="2338352142" visible="true" version="1" changeset="16484681" timestamp="2013-06-09T16:31:56Z" user="grtouron" uid="676690" lat="-34.4707311" lon="-58.4941492"/>
 <node id="2338352153" visible="true" version="1" changeset="16484681" timestamp="2013-06-09T16:31:56Z" user="grtouron" uid="676690" lat="-34.4707798" lon="-58.4937495"/>
 <node id="2338352156" visible="true" version="1" changeset="16484681" timestamp="2013-06-09T16:31:56Z" user="grtouron" uid="676690" lat="-34.4707442" lon="-58.4939173"/>
 <node id="2338352159" visible="true" version="1" changeset="16484681" timestamp="2013-06-09T16:31:56Z" user="grtouron" uid="676690" lat="-34.4708105" lon="-58.4936142"/>
 <node id="2338352165" visible="true" version="2" changeset="21401966" timestamp="2014-03-30T15:03:30Z" user="muralito" uid="755114" lat="-34.4707345" lon="-58.4945070"/>
 <node id="4327379147" visible="true" version="1" changeset="41118549" timestamp="2016-07-29T21:14:48Z" user="pablopareja" uid="211657" lat="-34.4656617" lon="-58.4940378"/>
 <node id="4327379149" visible="true" version="1" changeset="41118549" timestamp="2016-07-29T21:14:48Z" user="pablopareja" uid="211657" lat="-34.4696858" lon="-58.4968143"/>
 <node id="4327379150" visible="true" version="1" changeset="41118549" timestamp="2016-07-29T21:14:48Z" user="pablopareja" uid="211657" lat="-34.4701262" lon="-58.4962558"/>
 <node id="4327379151" visible="true" version="1" changeset="41118549" timestamp="2016-07-29T21:14:48Z" user="pablopareja" uid="211657" lat="-34.4707768" lon="-58.4950660"/>
 <node id="4327379152" visible="true" version="1" changeset="41118549" timestamp="2016-07-29T21:14:48Z" user="pablopareja" uid="211657" lat="-34.4710237" lon="-58.4924557"/>
 <node id="4327379153" visible="true" version="1" changeset="41118549" timestamp="2016-07-29T21:14:48Z" user="pablopareja" uid="211657" lat="-34.4711672" lon="-58.4928685"/>
 <node id="5018197833" visible="true" version="2" changeset="77640286" timestamp="2019-11-27T14:57:46Z" user="Hernan" uid="72347" lat="-34.4688329" lon="-58.4964910"/>
 <node id="5018197835" visible="true" version="1" changeset="50887282" timestamp="2017-08-06T14:57:37Z" user="juanperez79" uid="6218510" lat="-34.4672629" lon="-58.4944619"/>
 <node id="5018197837" visible="true" version="1" changeset="50887282" timestamp="2017-08-06T14:57:37Z" user="juanperez79" uid="6218510" lat="-34.4672156" lon="-58.4945217"/>
 <node id="7014449555" visible="true" version="1" changeset="77640286" timestamp="2019-11-27T14:57:46Z" user="Hernan" uid="72347" lat="-34.4704850" lon="-58.4955996"/>
 <node id="7014449561" visible="true" version="1" changeset="77640286" timestamp="2019-11-27T14:57:46Z" user="Hernan" uid="72347" lat="-34.4654580" lon="-58.4935270"/>
 <node id="7014449562" visible="true" version="1" changeset="77640286" timestamp="2019-11-27T14:57:46Z" user="Hernan" uid="72347" lat="-34.4692549" lon="-58.4972271"/>
 <node id="7015576997" visible="true" version="2" changeset="77654413" timestamp="2019-11-27T22:05:59Z" user="Hernan" uid="72347" lat="-34.4666999" lon="-58.4857220"/>
 <node id="7015577001" visible="true" version="2" changeset="77654413" timestamp="2019-11-27T22:05:59Z" user="Hernan" uid="72347" lat="-34.4623152" lon="-58.4888891"/>
 <node id="7015631157" visible="true" version="1" changeset="77654413" timestamp="2019-11-27T22:05:59Z" user="Hernan" uid="72347" lat="-34.4701870" lon="-58.4913638"/>
 <way id="750142459" visible="true" version="1" changeset="77640286" timestamp="2019-11-27T14:57:46Z" user="Hernan" uid="72347">
  <nd ref="94322060"/>
  <nd ref="4327379152"/>
  <nd ref="4327379153"/>
  <nd ref="2338352139"/>
  <nd ref="2338352159"/>
  <nd ref="2338352153"/>
  <nd ref="2338352156"/>
  <nd ref="2338352142"/>
  <nd ref="2338352165"/>
  <nd ref="4327379151"/>
  <nd ref="7014449555"/>
 </way>
 <way id="750142460" visible="true" version="1" changeset="77640286" timestamp="2019-11-27T14:57:46Z" user="Hernan" uid="72347">
  <nd ref="7014449555"/>
  <nd ref="4327379150"/>
  <nd ref="4327379149"/>
  <nd ref="1600115582"/>
  <nd ref="7014449562"/>
  <nd ref="1600115577"/>
 </way>
 <way id="750142462" visible="true" version="1" changeset="77640286" timestamp="2019-11-27T14:57:46Z" user="Hernan" uid="72347">
  <nd ref="1600115468"/>
  <nd ref="5018197837"/>
 </way>
 <way id="750142464" visible="true" version="2" changeset="172457308" timestamp="2025-09-25T20:17:30Z" user="muralito" uid="755114">
  <nd ref="423984155"/>
  <nd ref="1600115376"/>
  <nd ref="7014449561"/>
  <nd ref="1600115383"/>
  <nd ref="1600115378"/>
  <nd ref="1600115386"/>
  <nd ref="4327379147"/>
  <nd ref="1600115391"/>
  <nd ref="1600115394"/>
  <nd ref="1600115397"/>
  <nd ref="423984168"/>
  <nd ref="1600115427"/>
  <nd ref="423984159"/>
 </way>
 <way id="750142465" visible="true" version="1" changeset="77640286" timestamp="2019-11-27T14:57:46Z" user="Hernan" uid="72347">
  <nd ref="5018197837"/>
  <nd ref="5018197835"/>
  <nd ref="5018197833"/>
  <nd ref="1600115579"/>
  <nd ref="1600115575"/>
  <nd ref="1600115577"/>
 </way>
 <way id="750292393" visible="true" version="2" changeset="77654413" timestamp="2019-11-27T22:05:59Z" user="Hernan" uid="72347">
  <nd ref="423984155"/>
  <nd ref="7015577001"/>
  <nd ref="7015576997"/>
  <nd ref="7015631157"/>
  <nd ref="94322060"/>
 </way>
 <way id="1433125555" visible="true" version="1" changeset="172457308" timestamp="2025-09-25T20:17:30Z" user="muralito" uid="755114">
  <nd ref="423984159"/>
  <nd ref="1600115468"/>
 </way>
 <relation id="10343663" visible="true" version="4" changeset="172457308" timestamp="2025-09-25T20:17:30Z" user="muralito" uid="755114">
  <member type="way" ref="750292393" role="outer"/>
  <member type="way" ref="750142459" role="outer"/>
  <member type="way" ref="750142460" role="outer"/>
  <member type="way" ref="750142465" role="outer"/>
  <member type="way" ref="750142462" role="outer"/>
  <member type="way" ref="1433125555" role="outer"/>
  <member type="way" ref="750142464" role="outer"/>
  <tag k="boundary" v="protected_area"/>
  <tag k="name" v="Parque Natural Municipal Ribera Norte"/>
  <tag k="operator" v="Municipalidad de San Isidro"/>
  <tag k="protect_class" v="6"/>
  <tag k="protected_area" v="sustainable"/>
  <tag k="protection_title" v="Parque Natural"/>
  <tag k="type" v="boundary"/>
  <tag k="wikidata" v="Q6106261"/>
  <tag k="wikipedia" v="es:Parque natural municipal Ribera Norte"/>
 </relation>
</osm>
