<?xml version="1.0" encoding="UTF-8"?>
<osm version="0.6" generator="openstreetmap-cgimap 2.1.0 (244700 spike-07.openstreetmap.org)" copyright="OpenStreetMap and contributors" attribution="http://www.openstreetmap.org/copyright" license="http://opendatacommons.org/licenses/odbl/1-0/">
 <node id="428635674" visible="true" version="2" changeset="106682118" timestamp="2021-06-20T22:01:18Z" user="dmgroom_ct" uid="437598" lat="-34.4892570" lon="-58.4800473"/>
 <node id="428635675" visible="true" version="2" changeset="26677354" timestamp="2014-11-09T23:14:29Z" user="MSF-Fieldco" uid="1617763" lat="-34.4879871" lon="-58.4804660"/>
 <node id="925991215" visible="true" version="4" changeset="94594404" timestamp="2020-11-22T18:30:30Z" user="Sibo Dolem" uid="2744797" lat="-34.4932596" lon="-58.4788552"/>
 <node id="925991241" visible="true" version="3" changeset="26677354" timestamp="2014-11-09T23:14:29Z" user="MSF-Fieldco" uid="1617763" lat="-34.4903274" lon="-58.4795915"/>
 <node id="925991246" visible="true" version="2" changeset="11090727" timestamp="2012-03-25T02:07:30Z" user="Zalitoar" uid="79602" lat="-34.4904601" lon="-58.4810791"/>
 <node id="925991248" visible="true" version="4" changeset="60518247" timestamp="2018-07-08T20:44:12Z" user="nurdafur" uid="3172019" lat="-34.4918245" lon="-58.4795446"/>
 <node id="925991274" visible="true" version="2" changeset="11090727" timestamp="2012-03-25T02:07:30Z" user="Zalitoar" uid="79602" lat="-34.4926941" lon="-58.4788748"/>
 <node id="925991277" visible="true" version="3" changeset="26677354" timestamp="2014-11-09T23:14:29Z" user="MSF-Fieldco" uid="1617763" lat="-34.4902999" lon="-58.4805628"/>
 <node id="1432924942" visible="true" version="2" changeset="27659457" timestamp="2014-12-23T20:43:56Z" user="MSF-Fieldco" uid="1617763" lat="-34.4859234" lon="-58.4812797"/>
 <node id="1432924944" visible="true" version="1" changeset="9302129" timestamp="2011-09-14T18:54:59Z" user="Julio_Costa_Zambelli" uid="30854" lat="-34.4852385" lon="-58.4813021"/>
 <node id="1432924951" visible="true" version="3" changeset="91233228" timestamp="2020-09-21T13:37:47Z" user="Fedejru" uid="3367777" lat="-34.4851477" lon="-58.4809771"/>
 <node id="1432924956" visible="true" version="3" changeset="26677354" timestamp="2014-11-09T23:14:27Z" user="MSF-Fieldco" uid="1617763" lat="-34.4879647" lon="-58.4805197"/>
 <node id="1432924960" visible="true" version="3" changeset="91233228" timestamp="2020-09-21T13:37:47Z" user="Fedejru" uid="3367777" lat="-34.4854729" lon="-58.4807398"/>
 <node id="1432924963" visible="true" version="3" changeset="60519703" timestamp="2018-07-08T22:19:28Z" user="nurdafur" uid="3172019" lat="-34.4887804" lon="-58.4811246"/>
 <node id="1432924966" visible="true" version="4" changeset="50869369" timestamp="2017-08-05T19:22:55Z" user="juanperez79" uid="6218510" lat="-34.4876589" lon="-58.4807018"/>
 <node id="1432924971" visible="true" version="2" changeset="27659457" timestamp="2014-12-23T20:43:56Z" user="MSF-Fieldco" uid="1617763" lat="-34.4876963" lon="-58.4812154"/>
 <node id="1432924973" visible="true" version="2" changeset="27659457" timestamp="2014-12-23T20:43:56Z" user="MSF-Fieldco" uid="1617763" lat="-34.4885650" lon="-58.4811487"/>
 <node id="1432924975" visible="true" version="4" changeset="50869369" timestamp="2017-08-05T19:22:55Z" user="juanperez79" uid="6218510" lat="-34.4874592" lon="-58.4807458"/>
 <node id="1432924987" visible="true" version="2" changeset="11090727" timestamp="2012-03-25T02:20:23Z" user="Zalitoar" uid="79602" lat="-34.4893013" lon="-58.4809827"/>
 <node id="1432924999" visible="true" version="2" changeset="26677354" timestamp="2014-11-09T23:14:27Z" user="MSF-Fieldco" uid="1617763" lat="-34.4864419" lon="-58.4805479"/>
 <node id="1432925001" visible="true" version="3" changeset="26677354" timestamp="2014-11-09T23:14:27Z" user="MSF-Fieldco" uid="1617763" lat="-34.4878678" lon="-58.4806308"/>
 <node id="1432925006" visible="true" version="1" changeset="9302129" timestamp="2011-09-14T18:55:00Z" user="Julio_Costa_Zambelli" uid="30854" lat="-34.4892262" lon="-58.4810240"/>
 <node id="1432925010" visible="true" version="3" changeset="26677354" timestamp="2014-11-09T23:14:27Z" user="MSF-Fieldco" uid="1617763" lat="-34.4863687" lon="-58.4803571"/>
 <node id="1432925023" visible="true" version="4" changeset="91233228" timestamp="2020-09-21T13:37:47Z" user="Fedejru" uid="3367777" lat="-34.4857979" lon="-58.4806964"/>
 <node id="1432925025" visible="true" version="1" changeset="9302129" timestamp="2011-09-14T18:55:00Z" user="Julio_Costa_Zambelli" uid="30854" lat="-34.4852651" lon="-58.4811894"/>
 <node id="1628511949" visible="true" version="1" changeset="10654626" timestamp="2012-02-11T16:38:17Z" user="estela" uid="89271" lat="-34.4755196" lon="-58.4856273"/>
 <node id="1628511966" visible="true" version="1" changeset="10654626" timestamp="2012-02-11T16:38:17Z" user="estela" uid="89271" lat="-34.4755740" lon="-58.4854333"/>
 <node id="1628511968" visible="true" version="1" changeset="10654626" timestamp="2012-02-11T16:38:17Z" user="estela" uid="89271" lat="-34.4755814" lon="-58.4855618"/>
 <node id="1628511970" visible="true" version="1" changeset="10654626" timestamp="2012-02-11T16:38:17Z" user="estela" uid="89271" lat="-34.4755938" lon="-58.4854951"/>
 <node id="1628511976" visible="true" version="1" changeset="10654626" timestamp="2012-02-11T16:38:18Z" user="estela" uid="89271" lat="-34.4756185" lon="-58.4854111"/>
 <node id="1628511984" visible="true" version="1" changeset="10654626" timestamp="2012-02-11T16:38:18Z" user="estela" uid="89271" lat="-34.4756420" lon="-58.4854185"/>
 <node id="1628511992" visible="true" version="1" changeset="10654626" timestamp="2012-02-11T16:38:18Z" user="estela" uid="89271" lat="-34.4756729" lon="-58.4853456"/>
 <node id="1628511999" visible="true" version="1" changeset="10654626" timestamp="2012-02-11T16:38:18Z" user="estela" uid="89271" lat="-34.4757495" lon="-58.4852850"/>
 <node id="1628512014" visible="true" version="1" changeset="10654626" timestamp="2012-02-11T16:38:19Z" user="estela" uid="89271" lat="-34.4758936" lon="-58.4851868"/>
 <node id="1628512033" visible="true" version="1" changeset="10654626" timestamp="2012-02-11T16:38:19Z" user="estela" uid="89271" lat="-34.4760346" lon="-58.4850687"/>
 <node id="1628512041" visible="true" version="1" changeset="10654626" timestamp="2012-02-11T16:38:19Z" user="estela" uid="89271" lat="-34.4761080" lon="-58.4850205"/>
 <node id="1628512064" visible="true" version="1" changeset="10654626" timestamp="2012-02-11T16:38:20Z" user="estela" uid="89271" lat="-34.4802092" lon="-58.4819660"/>
 <node id="1628512067" visible="true" version="1" changeset="10654626" timestamp="2012-02-11T16:38:20Z" user="estela" uid="89271" lat="-34.4802314" lon="-58.4820204"/>
 <node id="1628512072" visible="true" version="1" changeset="10654626" timestamp="2012-02-11T16:38:20Z" user="estela" uid="89271" lat="-34.4804785" lon="-58.4820179"/>
 <node id="1628512077" visible="true" version="1" changeset="10654626" timestamp="2012-02-11T16:38:20Z" user="estela" uid="89271" lat="-34.4805131" lon="-58.4821044"/>
 <node id="1628512080" visible="true" version="1" changeset="10654626" timestamp="2012-02-11T16:38:21Z" user="estela" uid="89271" lat="-34.4805774" lon="-58.4821044"/>
 <node id="1628512082" visible="true" version="1" changeset="10654626" timestamp="2012-02-11T16:38:21Z" user="estela" uid="89271" lat="-34.4807726" lon="-58.4821168"/>
 <node id="1628512085" visible="true" version="1" changeset="10654626" timestamp="2012-02-11T16:38:21Z" user="estela" uid="89271" lat="-34.4809407" lon="-58.4820698"/>
 <node id="1628512088" visible="true" version="1" changeset="10654626" timestamp="2012-02-11T16:38:21Z" user="estela" uid="89271" lat="-34.4810024" lon="-58.4819858"/>
 <node id="1628512090" visible="true" version="1" changeset="10654626" timestamp="2012-02-11T16:38:21Z" user="estela" uid="89271" lat="-34.4810766" lon="-58.4819487"/>
 <node id="1628512093" visible="true" version="1" changeset="10654626" timestamp="2012-02-11T16:38:21Z" user="estela" uid="89271" lat="-34.4811606" lon="-58.4819487"/>
 <node id="1628512107" visible="true" version="1" changeset="10654626" timestamp="2012-02-11T16:38:21Z" user="estela" uid="89271" lat="-34.4812372" lon="-58.4819215"/>
 <node id="1628512113" visible="true" version="1" changeset="10654626" timestamp="2012-02-11T16:38:21Z" user="estela" uid="89271" lat="-34.4812842" lon="-58.4818424"/>
 <node id="1628512116" visible="true" version="1" changeset="10654626" timestamp="2012-02-11T16:38:21Z" user="estela" uid="89271" lat="-34.4813188" lon="-58.4817609"/>
 <node id="1628512123" visible="true" version="1" changeset="10654626" timestamp="2012-02-11T16:38:21Z" user="estela" uid="89271" lat="-34.4814201" lon="-58.4816892"/>
 <node id="1628512129" visible="true" version="1" changeset="10654626" timestamp="2012-02-11T16:38:21Z" user="estela" uid="89271" lat="-34.4815511" lon="-58.4815953"/>
 <node id="1628512153" visible="true" version="1" changeset="10654626" timestamp="2012-02-11T16:38:22Z" user="estela" uid="89271" lat="-34.4816524" lon="-58.4815681"/>
 <node id="1628512188" visible="true" version="1" changeset="10654626" timestamp="2012-02-11T16:38:22Z" user="estela" uid="89271" lat="-34.4817710" lon="-58.4815063"/>
 <node id="1628512193" visible="true" version="1" changeset="10654626" timestamp="2012-02-11T16:38:23Z" user="estela" uid="89271" lat="-34.4819094" lon="-58.4814100"/>
 <node id="1628512197" visible="true" version="1" changeset="10654626" timestamp="2012-02-11T16:38:23Z" user="estela" uid="89271" lat="-34.4819959" lon="-58.4812839"/>
 <node id="1628512223" visible="true" version="1" changeset="10654626" timestamp="2012-02-11T16:38:23Z" user="estela" uid="89271" lat="-34.4821417" lon="-58.4811431"/>
 <node id="1628512237" visible="true" version="1" changeset="10654626" timestamp="2012-02-11T16:38:23Z" user="estela" uid="89271" lat="-34.4822949" lon="-58.4810195"/>
 <node id="1628547503" visible="true" version="1" changeset="10654922" timestamp="2012-02-11T17:08:58Z" user="estela" uid="89271" lat="-34.4788747" lon="-58.4823102"/>
 <node id="1628547505" visible="true" version="1" changeset="10654922" timestamp="2012-02-11T17:08:58Z" user="estela" uid="89271" lat="-34.4788852" lon="-58.4824046"/>
 <node id="1628547506" visible="true" version="1" changeset="10654922" timestamp="2012-02-11T17:08:58Z" user="estela" uid="89271" lat="-34.4788922" lon="-58.4822019"/>
 <node id="1628547511" visible="true" version="1" changeset="10654922" timestamp="2012-02-11T17:08:59Z" user="estela" uid="89271" lat="-34.4789516" lon="-58.4821163"/>
 <node id="1628547513" visible="true" version="2" changeset="43932766" timestamp="2016-11-24T21:49:58Z" user="pablopareja" uid="211657" lat="-34.4790186" lon="-58.4826906"/>
 <node id="1628547520" visible="true" version="2" changeset="43932766" timestamp="2016-11-24T21:49:58Z" user="pablopareja" uid="211657" lat="-34.4791528" lon="-58.4824480"/>
 <node id="1628547522" visible="true" version="2" changeset="43932766" timestamp="2016-11-24T21:49:58Z" user="pablopareja" uid="211657" lat="-34.4791596" lon="-58.4824186"/>
 <node id="1628547523" visible="true" version="3" changeset="162702497" timestamp="2025-02-19T13:59:38Z" user="g0nz" uid="9536659" lat="-34.4791900" lon="-58.4825701"/>
 <node id="1628547526" visible="true" version="3" changeset="162702497" timestamp="2025-02-19T13:59:38Z" user="g0nz" uid="9536659" lat="-34.4791994" lon="-58.4825645"/>
 <node id="1628547531" visible="true" version="3" changeset="162702497" timestamp="2025-02-19T13:59:38Z" user="g0nz" uid="9536659" lat="-34.4794273" lon="-58.4823892"/>
 <node id="1628547533" visible="true" version="1" changeset="10654922" timestamp="2012-02-11T17:09:00Z" user="estela" uid="89271" lat="-34.4794952" lon="-58.4823397"/>
 <node id="1628547534" visible="true" version="1" changeset="10654922" timestamp="2012-02-11T17:09:00Z" user="estela" uid="89271" lat="-34.4795319" lon="-58.4823467"/>
 <node id="1628547535" visible="true" version="1" changeset="10654922" timestamp="2012-02-11T17:09:00Z" user="estela" uid="89271" lat="-34.4795476" lon="-58.4824760"/>
 <node id="1628547536" visible="true" version="1" changeset="10654922" timestamp="2012-02-11T17:09:00Z" user="estela" uid="89271" lat="-34.4795494" lon="-58.4824149"/>
 <node id="1628547538" visible="true" version="1" changeset="10654922" timestamp="2012-02-11T17:09:00Z" user="estela" uid="89271" lat="-34.4795739" lon="-58.4824935"/>
 <node id="1628547539" visible="true" version="1" changeset="10654922" timestamp="2012-02-11T17:09:00Z" user="estela" uid="89271" lat="-34.4796437" lon="-58.4824585"/>
 <node id="1628547542" visible="true" version="1" changeset="10654922" timestamp="2012-02-11T17:09:01Z" user="estela" uid="89271" lat="-34.4798568" lon="-58.4814924"/>
 <node id="1628547544" visible="true" version="1" changeset="10654922" timestamp="2012-02-11T17:09:01Z" user="estela" uid="89271" lat="-34.4798965" lon="-58.4823463"/>
 <node id="1628547548" visible="true" version="1" changeset="10654922" timestamp="2012-02-11T17:09:01Z" user="estela" uid="89271" lat="-34.4799249" lon="-58.4814942"/>
 <node id="1628547567" visible="true" version="1" changeset="10654922" timestamp="2012-02-11T17:09:03Z" user="estela" uid="89271" lat="-34.4801678" lon="-58.4819345"/>
 <node id="1628547574" visible="true" version="2" changeset="150545996" timestamp="2024-04-26T15:52:56Z" user="g0nz" uid="9536659" lat="-34.4802880" lon="-58.4821280"/>
 <node id="1689754537" visible="true" version="1" changeset="11090727" timestamp="2012-03-25T02:07:29Z" user="Zalitoar" uid="79602" lat="-34.4921071" lon="-58.4793830"/>
 <node id="1689754549" visible="true" version="2" changeset="94594404" timestamp="2020-11-22T18:30:30Z" user="Sibo Dolem" uid="2744797" lat="-34.4933306" lon="-58.4789749"/>
 <node id="1689754550" visible="true" version="1" changeset="11090727" timestamp="2012-03-25T02:07:29Z" user="Zalitoar" uid="79602" lat="-34.4925886" lon="-58.4790097"/>
 <node id="1689754551" visible="true" version="1" changeset="11090727" timestamp="2012-03-25T02:07:29Z" user="Zalitoar" uid="79602" lat="-34.4920236" lon="-58.4794088"/>
 <node id="1689754552" visible="true" version="1" changeset="11090727" timestamp="2012-03-25T02:07:29Z" user="Zalitoar" uid="79602" lat="-34.4925048" lon="-58.4791073"/>
 <node id="1689754553" visible="true" version="1" changeset="11090727" timestamp="2012-03-25T02:07:29Z" user="Zalitoar" uid="79602" lat="-34.4924202" lon="-58.4791805"/>
 <node id="1689754554" visible="true" version="1" changeset="11090727" timestamp="2012-03-25T02:07:29Z" user="Zalitoar" uid="79602" lat="-34.4923123" lon="-58.4792642"/>
 <node id="1689754556" visible="true" version="2" changeset="26677354" timestamp="2014-11-09T23:14:27Z" user="MSF-Fieldco" uid="1617763" lat="-34.4929779" lon="-58.4787914"/>
 <node id="1689754558" visible="true" version="1" changeset="11090727" timestamp="2012-03-25T02:07:29Z" user="Zalitoar" uid="79602" lat="-34.4919385" lon="-58.4794453"/>
 <node id="1689754559" visible="true" version="2" changeset="94594404" timestamp="2020-11-22T18:30:30Z" user="Sibo Dolem" uid="2744797" lat="-34.4932075" lon="-58.4801023"/>
 <node id="1689754574" visible="true" version="1" changeset="11090727" timestamp="2012-03-25T02:07:29Z" user="Zalitoar" uid="79602" lat="-34.4922150" lon="-58.4793310"/>
 <node id="1689771070" visible="true" version="2" changeset="27659457" timestamp="2014-12-23T20:43:56Z" user="MSF-Fieldco" uid="1617763" lat="-34.4896975" lon="-58.4811035"/>
 <node id="1689771076" visible="true" version="2" changeset="27659457" timestamp="2014-12-23T20:43:56Z" user="MSF-Fieldco" uid="1617763" lat="-34.4900042" lon="-58.4810955"/>
 <node id="1689771084" visible="true" version="2" changeset="26677354" timestamp="2014-11-09T23:14:27Z" user="MSF-Fieldco" uid="1617763" lat="-34.4862855" lon="-58.4803521"/>
 <node id="1689771091" visible="true" version="1" changeset="11090727" timestamp="2012-03-25T02:20:20Z" user="Zalitoar" uid="79602" lat="-34.4862241" lon="-58.4804573"/>
 <node id="1689771098" visible="true" version="2" changeset="26677354" timestamp="2014-11-09T23:14:27Z" user="MSF-Fieldco" uid="1617763" lat="-34.4874093" lon="-58.4806945"/>
 <node id="1689771099" visible="true" version="1" changeset="11090727" timestamp="2012-03-25T02:20:21Z" user="Zalitoar" uid="79602" lat="-34.4861969" lon="-58.4805890"/>
 <node id="1689771103" visible="true" version="2" changeset="27659457" timestamp="2014-12-23T20:43:56Z" user="MSF-Fieldco" uid="1617763" lat="-34.4893620" lon="-58.4811072"/>
 <node id="1689771121" visible="true" version="2" changeset="26677354" timestamp="2014-11-09T23:14:27Z" user="MSF-Fieldco" uid="1617763" lat="-34.4897434" lon="-58.4795759"/>
 <node id="1689771123" visible="true" version="2" changeset="26677354" timestamp="2014-11-09T23:14:27Z" user="MSF-Fieldco" uid="1617763" lat="-34.4873133" lon="-58.4806727"/>
 <node id="1689771128" visible="true" version="2" changeset="26677354" timestamp="2014-11-09T23:14:27Z" user="MSF-Fieldco" uid="1617763" lat="-34.4897782" lon="-58.4795556"/>
 <node id="3177996786" visible="true" version="2" changeset="91233228" timestamp="2020-09-21T13:37:47Z" user="Fedejru" uid="3367777" lat="-34.4850601" lon="-58.4806881"/>
 <node id="3177996789" visible="true" version="1" changeset="26677354" timestamp="2014-11-09T23:14:20Z" user="MSF-Fieldco" uid="1617763" lat="-34.4864397" lon="-58.4804235"/>
 <node id="3177996790" visible="true" version="2" changeset="50869369" timestamp="2017-08-05T19:22:55Z" user="juanperez79" uid="6218510" lat="-34.4874689" lon="-58.4806885"/>
 <node id="3177996793" visible="true" version="1" changeset="26677354" timestamp="2014-11-09T23:14:20Z" user="MSF-Fieldco" uid="1617763" lat="-34.4894783" lon="-58.4795822"/>
 <node id="3177996795" visible="true" version="1" changeset="26677354" timestamp="2014-11-09T23:14:20Z" user="MSF-Fieldco" uid="1617763" lat="-34.4896585" lon="-58.4794572"/>
 <node id="3250055831" visible="true" version="1" changeset="27659457" timestamp="2014-12-23T20:43:52Z" user="MSF-Fieldco" uid="1617763" lat="-34.4805170" lon="-58.4825637"/>
 <node id="3250055835" visible="true" version="1" changeset="27659457" timestamp="2014-12-23T20:43:53Z" user="MSF-Fieldco" uid="1617763" lat="-34.4807105" lon="-58.4828795"/>
 <node id="3250055838" visible="true" version="1" changeset="27659457" timestamp="2014-12-23T20:43:53Z" user="MSF-Fieldco" uid="1617763" lat="-34.4808563" lon="-58.4826257"/>
 <node id="3250055839" visible="true" version="1" changeset="27659457" timestamp="2014-12-23T20:43:53Z" user="MSF-Fieldco" uid="1617763" lat="-34.4809262" lon="-58.4827930"/>
 <node id="3250055843" visible="true" version="1" changeset="27659457" timestamp="2014-12-23T20:43:53Z" user="MSF-Fieldco" uid="1617763" lat="-34.4810775" lon="-58.4824409"/>
 <node id="3250055845" visible="true" version="1" changeset="27659457" timestamp="2014-12-23T20:43:53Z" user="MSF-Fieldco" uid="1617763" lat="-34.4811876" lon="-58.4823648"/>
 <node id="3250055847" visible="true" version="1" changeset="27659457" timestamp="2014-12-23T20:43:53Z" user="MSF-Fieldco" uid="1617763" lat="-34.4814099" lon="-58.4823348"/>
 <node id="3250055851" visible="true" version="2" changeset="60519703" timestamp="2018-07-08T22:19:28Z" user="nurdafur" uid="3172019" lat="-34.4814859" lon="-58.4823566"/>
 <node id="3250055852" visible="true" version="1" changeset="27659457" timestamp="2014-12-23T20:43:53Z" user="MSF-Fieldco" uid="1617763" lat="-34.4815364" lon="-58.4825321"/>
 <node id="3250055853" visible="true" version="1" changeset="27659457" timestamp="2014-12-23T20:43:53Z" user="MSF-Fieldco" uid="1617763" lat="-34.4815974" lon="-58.4824988"/>
 <node id="3250055856" visible="true" version="1" changeset="27659457" timestamp="2014-12-23T20:43:53Z" user="MSF-Fieldco" uid="1617763" lat="-34.4858895" lon="-58.4812801"/>
 <node id="3250056561" visible="true" version="1" changeset="27659457" timestamp="2014-12-23T20:43:53Z" user="MSF-Fieldco" uid="1617763" lat="-34.4863433" lon="-58.4812743"/>
 <node id="3250056564" visible="true" version="1" changeset="27659457" timestamp="2014-12-23T20:43:53Z" user="MSF-Fieldco" uid="1617763" lat="-34.4868866" lon="-58.4812531"/>
 <node id="3250056572" visible="true" version="2" changeset="60519703" timestamp="2018-07-08T22:19:28Z" user="nurdafur" uid="3172019" lat="-34.4888114" lon="-58.4810573"/>
 <node id="4337970050" visible="true" version="1" changeset="41281389" timestamp="2016-08-06T03:58:51Z" user="pablopareja" uid="211657" lat="-34.4754635" lon="-58.4856359"/>
 <node id="4337970051" visible="true" version="2" changeset="50887282" timestamp="2017-08-06T14:57:39Z" user="juanperez79" uid="6218510" lat="-34.4758888" lon="-58.4862695"/>
 <node id="4337970052" visible="true" version="2" changeset="50887282" timestamp="2017-08-06T14:57:39Z" user="juanperez79" uid="6218510" lat="-34.4766586" lon="-58.4853479"/>
 <node id="4337970053" visible="true" version="2" changeset="50885278" timestamp="2017-08-06T13:28:42Z" user="juanperez79" uid="6218510" lat="-34.4768577" lon="-58.4842401"/>
 <node id="4337970054" visible="true" version="1" changeset="41281389" timestamp="2016-08-06T03:58:51Z" user="pablopareja" uid="211657" lat="-34.4772445" lon="-58.4839874"/>
 <node id="4337970055" visible="true" version="2" changeset="50887282" timestamp="2017-08-06T14:57:39Z" user="juanperez79" uid="6218510" lat="-34.4773254" lon="-58.4847622"/>
 <node id="4337970056" visible="true" version="1" changeset="41281389" timestamp="2016-08-06T03:58:51Z" user="pablopareja" uid="211657" lat="-34.4775168" lon="-58.4838052"/>
 <node id="4337970057" visible="true" version="1" changeset="41281389" timestamp="2016-08-06T03:58:51Z" user="pablopareja" uid="211657" lat="-34.4777297" lon="-58.4836191"/>
 <node id="4337970058" visible="true" version="1" changeset="41281389" timestamp="2016-08-06T03:58:51Z" user="pablopareja" uid="211657" lat="-34.4780459" lon="-58.4834292"/>
 <node id="4337970059" visible="true" version="1" changeset="41281389" timestamp="2016-08-06T03:58:51Z" user="pablopareja" uid="211657" lat="-34.4784090" lon="-58.4833533"/>
 <node id="4337970060" visible="true" version="3" changeset="50887282" timestamp="2017-08-06T14:57:39Z" user="juanperez79" uid="6218510" lat="-34.4786550" lon="-58.4839080"/>
 <node id="4337970064" visible="true" version="1" changeset="41281389" timestamp="2016-08-06T03:58:51Z" user="pablopareja" uid="211657" lat="-34.4824729" lon="-58.4809683"/>
 <node id="4337970065" visible="true" version="1" changeset="41281389" timestamp="2016-08-06T03:58:51Z" user="pablopareja" uid="211657" lat="-34.4827758" lon="-58.4819330"/>
 <node id="4519649724" visible="true" version="2" changeset="162702497" timestamp="2025-02-19T13:59:38Z" user="g0nz" uid="9536659" lat="-34.4793859" lon="-58.4822855"/>
 <node id="5016887966" visible="true" version="1" changeset="50869369" timestamp="2017-08-05T19:22:53Z" user="juanperez79" uid="6218510" lat="-34.4875495" lon="-58.4806267"/>
 <node id="5016887967" visible="true" version="1" changeset="50869369" timestamp="2017-08-05T19:22:53Z" user="juanperez79" uid="6218510" lat="-34.4875114" lon="-58.4806469"/>
 <node id="5016887968" visible="true" version="1" changeset="50869369" timestamp="2017-08-05T19:22:53Z" user="juanperez79" uid="6218510" lat="-34.4875986" lon="-58.4806334"/>
 <node id="5016887969" visible="true" version="1" changeset="50869369" timestamp="2017-08-05T19:22:53Z" user="juanperez79" uid="6218510" lat="-34.4876352" lon="-58.4806496"/>
 <node id="5016887970" visible="true" version="1" changeset="50869369" timestamp="2017-08-05T19:22:53Z" user="juanperez79" uid="6218510" lat="-34.4878595" lon="-58.4806976"/>
 <node id="5016887971" visible="true" version="1" changeset="50869369" timestamp="2017-08-05T19:22:54Z" user="juanperez79" uid="6218510" lat="-34.4878279" lon="-58.4807213"/>
 <node id="5018096472" visible="true" version="1" changeset="50885278" timestamp="2017-08-06T13:28:42Z" user="juanperez79" uid="6218510" lat="-34.4769326" lon="-58.4841628"/>
 <node id="5018197000" visible="true" version="2" changeset="158191567" timestamp="2024-10-22T00:52:54Z" user="csimeona22" uid="15166882" lat="-34.4781341" lon="-58.4842120"/>
 <node id="5018197001" visible="true" version="1" changeset="50887282" timestamp="2017-08-06T14:57:37Z" user="juanperez79" uid="6218510" lat="-34.4782827" lon="-58.4841472"/>
 <node id="5018197002" visible="true" version="2" changeset="158191567" timestamp="2024-10-22T00:52:54Z" user="csimeona22" uid="15166882" lat="-34.4781351" lon="-58.4840887"/>
 <node id="5018197003" visible="true" version="2" changeset="158191567" timestamp="2024-10-22T00:52:54Z" user="csimeona22" uid="15166882" lat="-34.4781651" lon="-58.4841069"/>
 <node id="5018197004" visible="true" version="2" changeset="158191567" timestamp="2024-10-22T00:52:54Z" user="csimeona22" uid="15166882" lat="-34.4781607" lon="-58.4841595"/>
 <node id="5018197005" visible="true" version="2" changeset="158191567" timestamp="2024-10-22T00:52:54Z" user="csimeona22" uid="15166882" lat="-34.4780871" lon="-58.4840942"/>
 <node id="5018197006" visible="true" version="2" changeset="158191567" timestamp="2024-10-22T00:52:54Z" user="csimeona22" uid="15166882" lat="-34.4779537" lon="-58.4841106"/>
 <node id="5018197007" visible="true" version="2" changeset="158191567" timestamp="2024-10-22T00:52:54Z" user="csimeona22" uid="15166882" lat="-34.4777377" lon="-58.4842197"/>
 <node id="5018197008" visible="true" version="2" changeset="158191567" timestamp="2024-10-22T00:52:54Z" user="csimeona22" uid="15166882" lat="-34.4776687" lon="-58.4842925"/>
 <node id="5018197009" visible="true" version="2" changeset="158191567" timestamp="2024-10-22T00:52:54Z" user="csimeona22" uid="15166882" lat="-34.4776372" lon="-58.4843944"/>
 <node id="5018197010" visible="true" version="2" changeset="158191567" timestamp="2024-10-22T00:52:54Z" user="csimeona22" uid="15166882" lat="-34.4776340" lon="-58.4844483"/>
 <node id="5018197011" visible="true" version="2" changeset="158191567" timestamp="2024-10-22T00:52:54Z" user="csimeona22" uid="15166882" lat="-34.4776735" lon="-58.4845285"/>
 <node id="5747820999" visible="true" version="1" changeset="60518247" timestamp="2018-07-08T20:44:10Z" user="nurdafur" uid="3172019" lat="-34.4918417" lon="-58.4795302">
  <tag k="access" v="yes"/>
  <tag k="entrance" v="yes"/>
  <tag k="opening_hours" v="Sep-Feb Mo-Su 09:00-18:00; Mar-Aug Mo-Su 09:00-17:00"/>
 </node>
 <node id="7928338635" visible="true" version="1" changeset="91233228" timestamp="2020-09-21T13:37:47Z" user="Fedejru" uid="3367777" lat="-34.4860937" lon="-58.4806462"/>
 <node id="7928338636" visible="true" version="1" changeset="91233228" timestamp="2020-09-21T13:37:47Z" user="Fedejru" uid="3367777" lat="-34.4859750" lon="-58.4806253"/>
 <node id="8151855686" visible="true" version="1" changeset="94594404" timestamp="2020-11-22T18:30:30Z" user="Sibo Dolem" uid="2744797" lat="-34.4932990" lon="-58.4788425"/>
 <node id="8151855687" visible="true" version="1" changeset="94594404" timestamp="2020-11-22T18:30:30Z" user="Sibo Dolem" uid="2744797" lat="-34.4933604" lon="-58.4789695"/>
 <node id="8151855688" visible="true" version="1" changeset="94594404" timestamp="2020-11-22T18:30:30Z" user="Sibo Dolem" uid="2744797" lat="-34.4932848" lon="-58.4796576"/>
 <node id="8151855689" visible="true" version="1" changeset="94594404" timestamp="2020-11-22T18:30:30Z" user="Sibo Dolem" uid="2744797" lat="-34.4932362" lon="-58.4801006"/>
 <node id="8151855691" visible="true" version="1" changeset="94594404" timestamp="2020-11-22T18:30:30Z" user="Sibo Dolem" uid="2744797" lat="-34.4933407" lon="-58.4789073"/>
 <node id="8151855692" visible="true" version="1" changeset="94594404" timestamp="2020-11-22T18:30:30Z" user="Sibo Dolem" uid="2744797" lat="-34.4933050" lon="-58.4789171"/>
 <node id="8151921506" visible="true" version="1" changeset="94594977" timestamp="2020-11-22T18:49:18Z" user="Sibo Dolem" uid="2744797" lat="-34.4931590" lon="-58.4786625"/>
 <node id="8151921507" visible="true" version="1" changeset="94594977" timestamp="2020-11-22T18:49:18Z" user="Sibo Dolem" uid="2744797" lat="-34.4930406" lon="-58.4786162"/>
 <node id="8151921509" visible="true" version="1" changeset="94594977" timestamp="2020-11-22T18:49:18Z" user="Sibo Dolem" uid="2744797" lat="-34.4932395" lon="-58.4787585"/>
 <node id="8151921511" visible="true" version="1" changeset="94594977" timestamp="2020-11-22T18:49:18Z" user="Sibo Dolem" uid="2744797" lat="-34.4928965" lon="-58.4786161"/>
 <node id="8151921513" visible="true" version="1" changeset="94594977" timestamp="2020-11-22T18:49:18Z" user="Sibo Dolem" uid="2744797" lat="-34.4926629" lon="-58.4786202"/>
 <node id="8151921515" visible="true" version="1" changeset="94594977" timestamp="2020-11-22T18:49:18Z" user="Sibo Dolem" uid="2744797" lat="-34.4925951" lon="-58.4786418"/>
 <node id="8151925617" visible="true" version="1" changeset="94594977" timestamp="2020-11-22T18:49:18Z" user="Sibo Dolem" uid="2744797" lat="-34.4920348" lon="-58.4789195"/>
 <node id="8151925622" visible="true" version="1" changeset="94594977" timestamp="2020-11-22T18:49:18Z" user="Sibo Dolem" uid="2744797" lat="-34.4918537" lon="-58.4789562"/>
 <node id="8151925623" visible="true" version="1" changeset="94594977" timestamp="2020-11-22T18:49:18Z" user="Sibo Dolem" uid="2744797" lat="-34.4910887" lon="-58.4789139"/>
 <node id="8151925624" visible="true" version="1" changeset="94594977" timestamp="2020-11-22T18:49:18Z" user="Sibo Dolem" uid="2744797" lat="-34.4906131" lon="-58.4790163"/>
 <node id="8151925625" visible="true" version="1" changeset="94594977" timestamp="2020-11-22T18:49:18Z" user="Sibo Dolem" uid="2744797" lat="-34.4900619" lon="-58.4792740"/>
 <node id="8151925626" visible="true" version="1" changeset="94594977" timestamp="2020-11-22T18:49:18Z" user="Sibo Dolem" uid="2744797" lat="-34.4898745" lon="-58.4793860"/>
 <node id="8151925627" visible="true" version="1" changeset="94594977" timestamp="2020-11-22T18:49:18Z" user="Sibo Dolem" uid="2744797" lat="-34.4898529" lon="-58.4794400"/>
 <node id="8151925628" visible="true" version="1" changeset="94594977" timestamp="2020-11-22T18:49:18Z" user="Sibo Dolem" uid="2744797" lat="-34.4898620" lon="-58.4794924"/>
 <node id="11850786416" visible="true" version="1" changeset="150545996" timestamp="2024-04-26T15:52:56Z" user="g0nz" uid="9536659" lat="-34.4903125" lon="-58.4801168"/>
 <node id="11850786542" visible="true" version="2" changeset="158790295" timestamp="2024-11-05T18:27:31Z" user="JConormaps" uid="21599775" lat="-34.4811167" lon="-58.4824131"/>
 <way id="129965295" visible="true" version="13" changeset="150545996" timestamp="2024-04-26T15:52:56Z" user="g0nz" uid="9536659">
  <nd ref="1689754559"/>
  <nd ref="8151855689"/>
  <nd ref="8151855688"/>
  <nd ref="8151855687"/>
  <nd ref="8151855691"/>
  <nd ref="8151855686"/>
  <nd ref="8151921509"/>
  <nd ref="8151921506"/>
  <nd ref="8151921507"/>
  <nd ref="8151921511"/>
  <nd ref="8151921513"/>
  <nd ref="8151921515"/>
  <nd ref="8151925617"/>
  <nd ref="8151925622"/>
  <nd ref="8151925623"/>
  <nd ref="8151925624"/>
  <nd ref="8151925625"/>
  <nd ref="8151925626"/>
  <nd ref="8151925627"/>
  <nd ref="8151925628"/>
  <nd ref="1689771128"/>
  <nd ref="1689771121"/>
  <nd ref="3177996795"/>
  <nd ref="3177996793"/>
  <nd ref="428635674"/>
  <nd ref="428635675"/>
  <nd ref="1432924956"/>
  <nd ref="1432925001"/>
  <nd ref="5016887970"/>
  <nd ref="5016887971"/>
  <nd ref="1432924966"/>
  <nd ref="5016887969"/>
  <nd ref="5016887968"/>
  <nd ref="5016887966"/>
  <nd ref="5016887967"/>
  <nd ref="3177996790"/>
  <nd ref="1432924975"/>
  <nd ref="1689771098"/>
  <nd ref="1689771123"/>
  <nd ref="1432924999"/>
  <nd ref="3177996789"/>
  <nd ref="1432925010"/>
  <nd ref="1689771084"/>
  <nd ref="1689771091"/>
  <nd ref="1689771099"/>
  <nd ref="7928338635"/>
  <nd ref="7928338636"/>
  <nd ref="1432925023"/>
  <nd ref="1432924960"/>
  <nd ref="3177996786"/>
  <nd ref="1432924951"/>
  <nd ref="1432925025"/>
  <nd ref="1432924944"/>
  <nd ref="3250055856"/>
  <nd ref="1432924942"/>
  <nd ref="3250056561"/>
  <nd ref="3250056564"/>
  <nd ref="1432924971"/>
  <nd ref="1432924973"/>
  <nd ref="1432924963"/>
  <nd ref="3250056572"/>
  <nd ref="1432925006"/>
  <nd ref="1432924987"/>
  <nd ref="1689771103"/>
  <nd ref="1689771070"/>
  <nd ref="1689771076"/>
  <nd ref="925991246"/>
  <nd ref="925991277"/>
  <nd ref="11850786416"/>
  <nd ref="925991241"/>
  <nd ref="925991248"/>
 </way>
 <way id="318617046" visible="true" version="5" changeset="162702497" timestamp="2025-02-19T13:59:38Z" user="g0nz" uid="9536659">
  <nd ref="1628512113"/>
  <nd ref="1628512116"/>
  <nd ref="1628512123"/>
  <nd ref="1628512129"/>
  <nd ref="1628512153"/>
  <nd ref="1628512188"/>
  <nd ref="1628512193"/>
  <nd ref="1628512197"/>
  <nd ref="1628512223"/>
  <nd ref="1628512237"/>
  <nd ref="4337970064"/>
  <nd ref="4337970065"/>
  <nd ref="3250055853"/>
  <nd ref="3250055852"/>
  <nd ref="3250055851"/>
  <nd ref="3250055847"/>
  <nd ref="3250055845"/>
  <nd ref="11850786542"/>
  <nd ref="3250055843"/>
  <nd ref="3250055838"/>
  <nd ref="3250055839"/>
  <nd ref="3250055835"/>
  <nd ref="3250055831"/>
  <nd ref="1628547574"/>
  <nd ref="1628547544"/>
  <nd ref="1628547539"/>
  <nd ref="1628547538"/>
  <nd ref="1628547535"/>
  <nd ref="1628547536"/>
  <nd ref="1628547534"/>
  <nd ref="1628547533"/>
  <nd ref="1628547531"/>
  <nd ref="4519649724"/>
  <nd ref="1628547522"/>
  <nd ref="1628547520"/>
  <nd ref="1628547526"/>
  <nd ref="1628547523"/>
  <nd ref="1628547513"/>
  <nd ref="1628547505"/>
  <nd ref="1628547503"/>
  <nd ref="1628547506"/>
  <nd ref="1628547511"/>
  <nd ref="1628547542"/>
  <nd ref="1628547548"/>
  <nd ref="1628547567"/>
  <nd ref="1628512064"/>
  <nd ref="1628512067"/>
  <nd ref="1628512072"/>
  <nd ref="1628512077"/>
  <nd ref="1628512080"/>
  <nd ref="1628512082"/>
  <nd ref="1628512085"/>
  <nd ref="1628512088"/>
  <nd ref="1628512090"/>
  <nd ref="1628512093"/>
  <nd ref="1628512107"/>
  <nd ref="1628512113"/>
 </way>
 <way id="435902873" visible="true" version="4" changeset="50887282" timestamp="2017-08-06T14:57:40Z" user="juanperez79" uid="6218510">
  <nd ref="4337970059"/>
  <nd ref="4337970060"/>
  <nd ref="5018197001"/>
  <nd ref="5018197000"/>
  <nd ref="5018197004"/>
  <nd ref="5018197003"/>
  <nd ref="5018197002"/>
  <nd ref="5018197005"/>
  <nd ref="5018197006"/>
  <nd ref="5018197007"/>
  <nd ref="5018197008"/>
  <nd ref="5018197009"/>
  <nd ref="5018197010"/>
  <nd ref="5018197011"/>
  <nd ref="4337970055"/>
  <nd ref="4337970052"/>
  <nd ref="4337970051"/>
  <nd ref="4337970050"/>
  <nd ref="1628511949"/>
  <nd ref="1628511968"/>
  <nd ref="1628511970"/>
  <nd ref="1628511966"/>
  <nd ref="1628511976"/>
  <nd ref="1628511984"/>
  <nd ref="1628511992"/>
  <nd ref="1628511999"/>
  <nd ref="1628512014"/>
  <nd ref="1628512033"/>
  <nd ref="1628512041"/>
  <nd ref="4337970053"/>
  <nd ref="5018096472"/>
  <nd ref="4337970054"/>
  <nd ref="4337970056"/>
  <nd ref="4337970057"/>
  <nd ref="4337970058"/>
  <nd ref="4337970059"/>
 </way>
 <way id="875882263" visible="true" version="1" changeset="94598598" timestamp="2020-11-22T21:06:01Z" user="Hernan" uid="72347">
  <nd ref="925991248"/>
  <nd ref="5747820999"/>
  <nd ref="1689754558"/>
  <nd ref="1689754551"/>
  <nd ref="1689754537"/>
  <nd ref="1689754574"/>
  <nd ref="1689754554"/>
  <nd ref="1689754553"/>
  <nd ref="1689754552"/>
  <nd ref="1689754550"/>
  <nd ref="925991274"/>
  <nd ref="1689754556"/>
  <nd ref="925991215"/>
  <nd ref="8151855692"/>
  <nd ref="1689754549"/>
  <nd ref="1689754559"/>
 </way>
 <relation id="6603491" visible="true" version="2" changeset="94598598" timestamp="2020-11-22T21:06:01Z" user="Hernan" uid="72347">
  <member type="way" ref="435902873" role="outer"/>
  <member type="way" ref="318617046" role="outer"/>
  <member type="way" ref="129965295" role="outer"/>
  <member type="way" ref="875882263" role="outer"/>
  <tag k="leisure" v="park"/>
  <tag k="name" v="Paseo Público Costero"/>
  <tag k="type" v="multipolygon"/>
 </relation>
</osm>
