<?xml version="1.0" encoding="UTF-8"?>
<osm version="0.6" generator="openstreetmap-cgimap 2.1.0 (244695 spike-07.openstreetmap.org)" copyright="OpenStreetMap and contributors" attribution="http://www.openstreetmap.org/copyright" license="http://opendatacommons.org/licenses/odbl/1-0/">
 <node id="94288191" visible="true" version="10" changeset="83228697" timestamp="2020-04-08T05:18:08Z" user="IjRiver" uid="10811276" lat="-34.4648317" lon="-58.4968295"/>
 <node id="94288798" visible="true" version="9" changeset="10456445" timestamp="2012-01-21T15:14:26Z" user="estela" uid="89271" lat="-34.4647881" lon="-58.4947384"/>
 <node id="94291730" visible="true" version="10" changeset="10456445" timestamp="2012-01-21T15:14:26Z" user="estela" uid="89271" lat="-34.4650663" lon="-58.4950048"/>
 <node id="94300726" visible="true" version="9" changeset="1555496" timestamp="2009-06-18T16:30:40Z" user="zorko" uid="22005" lat="-34.4645458" lon="-58.4951580"/>
 <node id="94302850" visible="true" version="9" changeset="1555458" timestamp="2009-06-18T16:24:49Z" user="zorko" uid="22005" lat="-34.4651752" lon="-58.4968549"/>
 <node id="94305939" visible="true" version="10" changeset="10456445" timestamp="2012-01-21T15:14:27Z" user="estela" uid="89271" lat="-34.4657875" lon="-58.4945633"/>
 <node id="94310949" visible="true" version="10" changeset="85016474" timestamp="2020-05-11T10:00:42Z" user="IjRiver" uid="10811276" lat="-34.4641279" lon="-58.4959492"/>
 <node id="94314067" visible="true" version="12" changeset="172457308" timestamp="2025-09-25T20:17:30Z" user="muralito" uid="755114" lat="-34.4661074" lon="-58.4960089"/>
 <node id="94326333" visible="true" version="10" changeset="10456445" timestamp="2012-01-21T15:14:27Z" user="estela" uid="89271" lat="-34.4653296" lon="-58.4942011"/>
 <node id="94329566" visible="true" version="12" changeset="85016474" timestamp="2020-05-11T10:00:42Z" user="IjRiver" uid="10811276" lat="-34.4644075" lon="-58.4964114"/>
 <node id="94332669" visible="true" version="10" changeset="10456445" timestamp="2012-01-21T15:14:27Z" user="estela" uid="89271" lat="-34.4652436" lon="-58.4952672"/>
 <node id="423978338" visible="true" version="1" changeset="1555458" timestamp="2009-06-18T16:24:48Z" user="zorko" uid="22005" lat="-34.4655144" lon="-58.4950125"/>
 <node id="423978342" visible="true" version="2" changeset="10456445" timestamp="2012-01-21T15:14:25Z" user="estela" uid="89271" lat="-34.4651096" lon="-58.4948232"/>
 <node id="423978346" visible="true" version="2" changeset="10456445" timestamp="2012-01-21T15:14:25Z" user="estela" uid="89271" lat="-34.4652025" lon="-58.4939627"/>
 <node id="423978351" visible="true" version="2" changeset="10456445" timestamp="2012-01-21T15:14:25Z" user="estela" uid="89271" lat="-34.4649575" lon="-58.4944235"/>
 <node id="423984150" visible="true" version="3" changeset="172457308" timestamp="2025-09-25T20:17:30Z" user="muralito" uid="755114" lat="-34.4658935" lon="-58.4960926"/>
 <node id="423984155" visible="true" version="1" changeset="1555496" timestamp="2009-06-18T16:30:39Z" user="zorko" uid="22005" lat="-34.4653958" lon="-58.4933321"/>
 <node id="423984159" visible="true" version="2" changeset="10456445" timestamp="2012-01-21T15:14:26Z" user="estela" uid="89271" lat="-34.4666348" lon="-58.4951458"/>
 <node id="423984160" visible="true" version="2" changeset="10456445" timestamp="2012-01-21T15:14:26Z" user="estela" uid="89271" lat="-34.4684361" lon="-58.4968661"/>
 <node id="423984168" visible="true" version="1" changeset="1555496" timestamp="2009-06-18T16:30:39Z" user="zorko" uid="22005" lat="-34.4663662" lon="-58.4948891"/>
 <node id="1600115319" visible="true" version="2" changeset="85016474" timestamp="2020-05-11T10:00:42Z" user="IjRiver" uid="10811276" lat="-34.4641718" lon="-58.4962301"/>
 <node id="1600115322" visible="true" version="1" changeset="10456445" timestamp="2012-01-21T15:13:48Z" user="estela" uid="89271" lat="-34.4645012" lon="-58.4966341"/>
 <node id="1600115329" visible="true" version="1" changeset="10456445" timestamp="2012-01-21T15:13:48Z" user="estela" uid="89271" lat="-34.4646827" lon="-58.4947780"/>
 <node id="1600115343" visible="true" version="1" changeset="10456445" timestamp="2012-01-21T15:13:48Z" user="estela" uid="89271" lat="-34.4646876" lon="-58.4967591"/>
 <node id="1600115344" visible="true" version="1" changeset="10456445" timestamp="2012-01-21T15:13:49Z" user="estela" uid="89271" lat="-34.4647097" lon="-58.4948762"/>
 <node id="1600115345" visible="true" version="1" changeset="10456445" timestamp="2012-01-21T15:13:49Z" user="estela" uid="89271" lat="-34.4647268" lon="-58.4947363"/>
 <node id="1600115347" visible="true" version="2" changeset="83228697" timestamp="2020-04-08T05:18:08Z" user="IjRiver" uid="10811276" lat="-34.4649170" lon="-58.4968465"/>
 <node id="1600115348" visible="true" version="1" changeset="10456445" timestamp="2012-01-21T15:13:49Z" user="estela" uid="89271" lat="-34.4649157" lon="-58.4945073"/>
 <node id="1600115349" visible="true" version="1" changeset="10456445" timestamp="2012-01-21T15:13:49Z" user="estela" uid="89271" lat="-34.4650702" lon="-58.4968840"/>
 <node id="1600115350" visible="true" version="1" changeset="10456445" timestamp="2012-01-21T15:13:49Z" user="estela" uid="89271" lat="-34.4650726" lon="-58.4944657"/>
 <node id="1600115352" visible="true" version="1" changeset="10456445" timestamp="2012-01-21T15:13:49Z" user="estela" uid="89271" lat="-34.4652370" lon="-58.4943556"/>
 <node id="1600115363" visible="true" version="1" changeset="10456445" timestamp="2012-01-21T15:13:49Z" user="estela" uid="89271" lat="-34.4652492" lon="-58.4968989"/>
 <node id="1600115366" visible="true" version="1" changeset="10456445" timestamp="2012-01-21T15:13:50Z" user="estela" uid="89271" lat="-34.4653277" lon="-58.4940373"/>
 <node id="1600115369" visible="true" version="1" changeset="10456445" timestamp="2012-01-21T15:13:50Z" user="estela" uid="89271" lat="-34.4653350" lon="-58.4943080"/>
 <node id="1600115372" visible="true" version="1" changeset="10456445" timestamp="2012-01-21T15:13:50Z" user="estela" uid="89271" lat="-34.4653400" lon="-58.4967769"/>
 <node id="1600115373" visible="true" version="1" changeset="10456445" timestamp="2012-01-21T15:13:50Z" user="estela" uid="89271" lat="-34.4653571" lon="-58.4941266"/>
 <node id="1600115375" visible="true" version="1" changeset="10456445" timestamp="2012-01-21T15:13:50Z" user="estela" uid="89271" lat="-34.4653731" lon="-58.4947099"/>
 <node id="1600115376" visible="true" version="1" changeset="10456445" timestamp="2012-01-21T15:13:50Z" user="estela" uid="89271" lat="-34.4654286" lon="-58.4933890"/>
 <node id="1600115378" visible="true" version="1" changeset="10456445" timestamp="2012-01-21T15:13:50Z" user="estela" uid="89271" lat="-34.4655153" lon="-58.4937886"/>
 <node id="1600115380" visible="true" version="1" changeset="10456445" timestamp="2012-01-21T15:13:50Z" user="estela" uid="89271" lat="-34.4655257" lon="-58.4946594"/>
 <node id="1600115383" visible="true" version="1" changeset="10456445" timestamp="2012-01-21T15:13:50Z" user="estela" uid="89271" lat="-34.4655708" lon="-58.4937171"/>
 <node id="1600115384" visible="true" version="1" changeset="10456445" timestamp="2012-01-21T15:13:50Z" user="estela" uid="89271" lat="-34.4655847" lon="-58.4945627"/>
 <node id="1600115386" visible="true" version="1" changeset="10456445" timestamp="2012-01-21T15:13:50Z" user="estela" uid="89271" lat="-34.4656575" lon="-58.4940326"/>
 <node id="1600115388" visible="true" version="1" changeset="10456445" timestamp="2012-01-21T15:13:50Z" user="estela" uid="89271" lat="-34.4656922" lon="-58.4945332"/>
 <node id="1600115389" visible="true" version="2" changeset="172457308" timestamp="2025-09-25T20:17:30Z" user="muralito" uid="755114" lat="-34.4656789" lon="-58.4963171"/>
 <node id="1600115391" visible="true" version="1" changeset="10456445" timestamp="2012-01-21T15:13:51Z" user="estela" uid="89271" lat="-34.4658379" lon="-58.4942556"/>
 <node id="1600115394" visible="true" version="1" changeset="10456445" timestamp="2012-01-21T15:13:51Z" user="estela" uid="89271" lat="-34.4660598" lon="-58.4943523"/>
 <node id="1600115395" visible="true" version="2" changeset="172457308" timestamp="2025-09-25T20:17:30Z" user="muralito" uid="755114" lat="-34.4660381" lon="-58.4960446"/>
 <node id="1600115397" visible="true" version="1" changeset="10456445" timestamp="2012-01-21T15:13:51Z" user="estela" uid="89271" lat="-34.4661674" lon="-58.4945458"/>
 <node id="1600115427" visible="true" version="1" changeset="10456445" timestamp="2012-01-21T15:13:52Z" user="estela" uid="89271" lat="-34.4664691" lon="-58.4950843"/>
 <node id="1600115468" visible="true" version="1" changeset="10456445" timestamp="2012-01-21T15:13:53Z" user="estela" uid="89271" lat="-34.4670497" lon="-58.4947040"/>
 <node id="1600115494" visible="true" version="1" changeset="10456445" timestamp="2012-01-21T15:13:54Z" user="estela" uid="89271" lat="-34.4678023" lon="-58.4967676"/>
 <node id="1600115495" visible="true" version="1" changeset="10456445" timestamp="2012-01-21T15:13:54Z" user="estela" uid="89271" lat="-34.4678341" lon="-58.4967527"/>
 <node id="1600115499" visible="true" version="1" changeset="10456445" timestamp="2012-01-21T15:13:54Z" user="estela" uid="89271" lat="-34.4679715" lon="-58.4968568"/>
 <node id="4327379147" visible="true" version="1" changeset="41118549" timestamp="2016-07-29T21:14:48Z" user="pablopareja" uid="211657" lat="-34.4656617" lon="-58.4940378"/>
 <node id="4337969992" visible="true" version="1" changeset="41281389" timestamp="2016-08-06T03:58:50Z" user="pablopareja" uid="211657" lat="-34.4664693" lon="-58.4953092"/>
 <node id="5018197829" visible="true" version="2" changeset="77640286" timestamp="2019-11-27T14:57:46Z" user="Hernan" uid="72347" lat="-34.4687670" lon="-58.4965927"/>
 <node id="5018197830" visible="true" version="2" changeset="161723148" timestamp="2025-01-24T18:04:16Z" user="RideauCanal" uid="20109092" lat="-34.4685935" lon="-58.4962761"/>
 <node id="5018197831" visible="true" version="2" changeset="161723148" timestamp="2025-01-24T18:04:16Z" user="RideauCanal" uid="20109092" lat="-34.4683488" lon="-58.4959661"/>
 <node id="5018197834" visible="true" version="2" changeset="77640286" timestamp="2019-11-27T14:57:46Z" user="Hernan" uid="72347" lat="-34.4687381" lon="-58.4965305"/>
 <node id="5018197836" visible="true" version="2" changeset="161723148" timestamp="2025-01-24T18:04:16Z" user="RideauCanal" uid="20109092" lat="-34.4672353" lon="-58.4945469"/>
 <node id="5018197837" visible="true" version="1" changeset="50887282" timestamp="2017-08-06T14:57:37Z" user="juanperez79" uid="6218510" lat="-34.4672156" lon="-58.4945217"/>
 <node id="5018197838" visible="true" version="2" changeset="161723148" timestamp="2025-01-24T18:04:16Z" user="RideauCanal" uid="20109092" lat="-34.4675035" lon="-58.4948535"/>
 <node id="5018197839" visible="true" version="2" changeset="161723148" timestamp="2025-01-24T18:04:16Z" user="RideauCanal" uid="20109092" lat="-34.4676914" lon="-58.4950672"/>
 <node id="5018197840" visible="true" version="2" changeset="161723148" timestamp="2025-01-24T18:04:16Z" user="RideauCanal" uid="20109092" lat="-34.4678502" lon="-58.4952863"/>
 <node id="5018197841" visible="true" version="2" changeset="161723148" timestamp="2025-01-24T18:04:16Z" user="RideauCanal" uid="20109092" lat="-34.4681728" lon="-58.4957250"/>
 <node id="5018197842" visible="true" version="2" changeset="161723148" timestamp="2025-01-24T18:04:16Z" user="RideauCanal" uid="20109092" lat="-34.4680126" lon="-58.4955002"/>
 <node id="6387693003" visible="true" version="3" changeset="85016474" timestamp="2020-05-11T10:00:42Z" user="IjRiver" uid="10811276" lat="-34.4644356" lon="-58.4965337"/>
 <node id="6387693004" visible="true" version="2" changeset="83228697" timestamp="2020-04-08T05:18:08Z" user="IjRiver" uid="10811276" lat="-34.4643957" lon="-58.4963915"/>
 <node id="6387693005" visible="true" version="2" changeset="83228697" timestamp="2020-04-08T05:18:08Z" user="IjRiver" uid="10811276" lat="-34.4642887" lon="-58.4962765"/>
 <node id="7014449561" visible="true" version="1" changeset="77640286" timestamp="2019-11-27T14:57:46Z" user="Hernan" uid="72347" lat="-34.4654580" lon="-58.4935270"/>
 <node id="7377727110" visible="true" version="2" changeset="85016474" timestamp="2020-05-11T10:00:42Z" user="IjRiver" uid="10811276" lat="-34.4642429" lon="-58.4962830"/>
 <node id="7377727112" visible="true" version="2" changeset="85016474" timestamp="2020-05-11T10:00:42Z" user="IjRiver" uid="10811276" lat="-34.4642052" lon="-58.4962723"/>
 <node id="7506192008" visible="true" version="1" changeset="85016474" timestamp="2020-05-11T10:00:42Z" user="IjRiver" uid="10811276" lat="-34.4641212" lon="-58.4959947"/>
 <node id="7506192009" visible="true" version="2" changeset="164265264" timestamp="2025-03-29T20:48:40Z" user="11000matias" uid="9658350" lat="-34.4641167" lon="-58.4960389"/>
 <node id="12529842066" visible="true" version="1" changeset="161723148" timestamp="2025-01-24T18:04:16Z" user="RideauCanal" uid="20109092" lat="-34.4665552" lon="-58.4954032"/>
 <node id="12710607210" visible="true" version="1" changeset="164265264" timestamp="2025-03-29T20:48:40Z" user="11000matias" uid="9658350" lat="-34.4655755" lon="-58.4951902"/>
 <node id="12710607211" visible="true" version="1" changeset="164265264" timestamp="2025-03-29T20:48:40Z" user="11000matias" uid="9658350" lat="-34.4657693" lon="-58.4954793"/>
 <way id="146765810" visible="true" version="11" changeset="172457308" timestamp="2025-09-25T20:17:30Z" user="muralito" uid="755114">
  <nd ref="94314067"/>
  <nd ref="1600115395"/>
  <nd ref="423984150"/>
  <nd ref="1600115389"/>
  <nd ref="1600115372"/>
  <nd ref="1600115363"/>
  <nd ref="94302850"/>
  <nd ref="1600115349"/>
  <nd ref="1600115347"/>
  <nd ref="94288191"/>
  <nd ref="1600115343"/>
  <nd ref="1600115322"/>
  <nd ref="6387693003"/>
  <nd ref="94329566"/>
  <nd ref="6387693004"/>
  <nd ref="6387693005"/>
  <nd ref="7377727110"/>
  <nd ref="7377727112"/>
  <nd ref="1600115319"/>
  <nd ref="7506192009"/>
 </way>
 <way id="750142462" visible="true" version="1" changeset="77640286" timestamp="2019-11-27T14:57:46Z" user="Hernan" uid="72347">
  <nd ref="1600115468"/>
  <nd ref="5018197837"/>
 </way>
 <way id="750142463" visible="true" version="2" changeset="161723148" timestamp="2025-01-24T18:04:16Z" user="RideauCanal" uid="20109092">
  <nd ref="5018197837"/>
  <nd ref="5018197836"/>
  <nd ref="5018197838"/>
  <nd ref="5018197839"/>
  <nd ref="5018197840"/>
  <nd ref="5018197842"/>
  <nd ref="5018197841"/>
  <nd ref="5018197831"/>
  <nd ref="5018197830"/>
  <nd ref="5018197834"/>
  <nd ref="5018197829"/>
  <nd ref="423984160"/>
  <nd ref="1600115499"/>
  <nd ref="1600115495"/>
  <nd ref="1600115494"/>
  <nd ref="12529842066"/>
  <nd ref="4337969992"/>
 </way>
 <way id="750142464" visible="true" version="2" changeset="172457308" timestamp="2025-09-25T20:17:30Z" user="muralito" uid="755114">
  <nd ref="423984155"/>
  <nd ref="1600115376"/>
  <nd ref="7014449561"/>
  <nd ref="1600115383"/>
  <nd ref="1600115378"/>
  <nd ref="1600115386"/>
  <nd ref="4327379147"/>
  <nd ref="1600115391"/>
  <nd ref="1600115394"/>
  <nd ref="1600115397"/>
  <nd ref="423984168"/>
  <nd ref="1600115427"/>
  <nd ref="423984159"/>
 </way>
 <way id="750142467" visible="true" version="9" changeset="172457308" timestamp="2025-09-25T20:17:30Z" user="muralito" uid="755114">
  <nd ref="423984155"/>
  <nd ref="423978346"/>
 </way>
 <way id="1372763315" visible="true" version="1" changeset="164265264" timestamp="2025-03-29T20:48:40Z" user="11000matias" uid="9658350">
  <nd ref="423978351"/>
  <nd ref="1600115350"/>
  <nd ref="1600115352"/>
  <nd ref="1600115369"/>
  <nd ref="94326333"/>
  <nd ref="1600115373"/>
  <nd ref="1600115366"/>
  <nd ref="423978346"/>
 </way>
 <way id="1372763316" visible="true" version="1" changeset="164265264" timestamp="2025-03-29T20:48:40Z" user="11000matias" uid="9658350">
  <nd ref="7506192009"/>
  <nd ref="7506192008"/>
  <nd ref="94310949"/>
  <nd ref="94300726"/>
  <nd ref="1600115344"/>
  <nd ref="1600115329"/>
  <nd ref="1600115345"/>
  <nd ref="94288798"/>
  <nd ref="1600115348"/>
  <nd ref="423978351"/>
 </way>
 <way id="1372763322" visible="true" version="1" changeset="164265264" timestamp="2025-03-29T20:48:40Z" user="11000matias" uid="9658350">
  <nd ref="4337969992"/>
  <nd ref="94305939"/>
  <nd ref="1600115388"/>
  <nd ref="1600115384"/>
 </way>
 <way id="1372763327" visible="true" version="1" changeset="164265264" timestamp="2025-03-29T20:48:40Z" user="11000matias" uid="9658350">
  <nd ref="1600115384"/>
  <nd ref="1600115380"/>
  <nd ref="1600115375"/>
 </way>
 <way id="1372763328" visible="true" version="1" changeset="164265264" timestamp="2025-03-29T20:48:40Z" user="11000matias" uid="9658350">
  <nd ref="1600115375"/>
  <nd ref="423978342"/>
  <nd ref="94291730"/>
  <nd ref="94332669"/>
  <nd ref="423978338"/>
 </way>
 <way id="1372763331" visible="true" version="1" changeset="164265264" timestamp="2025-03-29T20:48:40Z" user="11000matias" uid="9658350">
  <nd ref="423978338"/>
  <nd ref="12710607210"/>
  <nd ref="12710607211"/>
  <nd ref="94314067"/>
 </way>
 <way id="1433125555" visible="true" version="1" changeset="172457308" timestamp="2025-09-25T20:17:30Z" user="muralito" uid="755114">
  <nd ref="423984159"/>
  <nd ref="1600115468"/>
 </way>
 <relation id="10343661" visible="true" version="3" changeset="172457308" timestamp="2025-09-25T20:17:30Z" user="muralito" uid="755114">
  <member type="way" ref="750142467" role="outer"/>
  <member type="way" ref="750142464" role="outer"/>
  <member type="way" ref="1433125555" role="outer"/>
  <member type="way" ref="750142462" role="outer"/>
  <member type="way" ref="750142463" role="outer"/>
  <member type="way" ref="1372763322" role="outer"/>
  <member type="way" ref="1372763327" role="outer"/>
  <member type="way" ref="1372763328" role="outer"/>
  <member type="way" ref="1372763331" role="outer"/>
  <member type="way" ref="146765810" role="outer"/>
  <member type="way" ref="1372763316" role="outer"/>
  <member type="way" ref="1372763315" role="outer"/>
  <tag k="natural" v="water"/>
  <tag k="type" v="multipolygon"/>
 </relation>
</osm>
