<?xml version="1.0" encoding="UTF-8"?>
<osm version="0.6" generator="openstreetmap-cgimap 2.1.0 (244691 spike-07.openstreetmap.org)" copyright="OpenStreetMap and contributors" attribution="http://www.openstreetmap.org/copyright" license="http://opendatacommons.org/licenses/odbl/1-0/">
 <node id="94287519" visible="true" version="10" changeset="21465334" timestamp="2014-04-02T20:20:53Z" user="Souchong" uid="255141" lat="-34.4628024" lon="-58.5041046"/>
 <node id="94293444" visible="true" version="10" changeset="12770562" timestamp="2012-08-18T08:52:52Z" user="dbusse" uid="149876" lat="-34.4491846" lon="-58.5056705"/>
 <node id="94294604" visible="true" version="10" changeset="10245547" timestamp="2011-12-30T14:05:52Z" user="estela" uid="89271" lat="-34.4475414" lon="-58.5160751"/>
 <node id="94296434" visible="true" version="10" changeset="21464360" timestamp="2014-04-02T19:31:05Z" user="Souchong" uid="255141" lat="-34.4543552" lon="-58.5079776"/>
 <node id="94299928" visible="true" version="9" changeset="474767" timestamp="2008-12-19T15:30:58Z" user="zorko" uid="22005" lat="-34.4544691" lon="-58.5073984"/>
 <node id="94300547" visible="true" version="10" changeset="29056645" timestamp="2015-02-23T23:12:22Z" user="MarcosAlejandro" uid="2697778" lat="-34.4482873" lon="-58.5157656"/>
 <node id="94302956" visible="true" version="9" changeset="10245547" timestamp="2011-12-30T14:05:52Z" user="estela" uid="89271" lat="-34.4524982" lon="-58.5063901"/>
 <node id="94304772" visible="true" version="10" changeset="10657283" timestamp="2012-02-11T20:48:01Z" user="estela" uid="89271" lat="-34.4507817" lon="-58.5066601"/>
 <node id="94307560" visible="true" version="11" changeset="21464360" timestamp="2014-04-02T19:31:05Z" user="Souchong" uid="255141" lat="-34.4555282" lon="-58.5085881"/>
 <node id="94310361" visible="true" version="9" changeset="474767" timestamp="2008-12-19T15:31:06Z" user="zorko" uid="22005" lat="-34.4543120" lon="-58.5072721"/>
 <node id="94310990" visible="true" version="9" changeset="10456531" timestamp="2012-01-21T15:24:00Z" user="estela" uid="89271" lat="-34.4476036" lon="-58.5157023"/>
 <node id="94320767" visible="true" version="9" changeset="10657283" timestamp="2012-02-11T20:48:01Z" user="estela" uid="89271" lat="-34.4522961" lon="-58.5073459"/>
 <node id="94321311" visible="true" version="12" changeset="21467432" timestamp="2014-04-02T22:30:14Z" user="Souchong" uid="255141" lat="-34.4501350" lon="-58.5166740"/>
 <node id="94325113" visible="true" version="9" changeset="474767" timestamp="2008-12-19T15:31:07Z" user="zorko" uid="22005" lat="-34.4558345" lon="-58.5074046"/>
 <node id="94328821" visible="true" version="11" changeset="106689419" timestamp="2021-06-21T04:48:42Z" user="AgusQui" uid="331218" lat="-34.4629811" lon="-58.5046295"/>
 <node id="94335475" visible="true" version="10" changeset="10657283" timestamp="2012-02-11T20:48:01Z" user="estela" uid="89271" lat="-34.4528242" lon="-58.5071427"/>
 <node id="94336976" visible="true" version="10" changeset="21467432" timestamp="2014-04-02T22:30:14Z" user="Souchong" uid="255141" lat="-34.4497624" lon="-58.5166209"/>
 <node id="94341504" visible="true" version="9" changeset="474767" timestamp="2008-12-19T15:31:02Z" user="zorko" uid="22005" lat="-34.4557193" lon="-58.5071002"/>
 <node id="94342288" visible="true" version="10" changeset="21464360" timestamp="2014-04-02T19:31:05Z" user="Souchong" uid="255141" lat="-34.4496930" lon="-58.5161681"/>
 <node id="319982864" visible="true" version="2" changeset="10245547" timestamp="2011-12-30T14:05:51Z" user="estela" uid="89271" lat="-34.4539975" lon="-58.5066974"/>
 <node id="319982883" visible="true" version="5" changeset="13101515" timestamp="2012-09-13T21:42:20Z" user="alpertron" uid="466854" lat="-34.4498209" lon="-58.5046967"/>
 <node id="319982889" visible="true" version="1" changeset="474767" timestamp="2008-12-19T15:30:24Z" user="zorko" uid="22005" lat="-34.4500089" lon="-58.5049057"/>
 <node id="319982895" visible="true" version="1" changeset="474767" timestamp="2008-12-19T15:30:25Z" user="zorko" uid="22005" lat="-34.4505899" lon="-58.5053594"/>
 <node id="319982914" visible="true" version="1" changeset="474767" timestamp="2008-12-19T15:30:26Z" user="zorko" uid="22005" lat="-34.4500726" lon="-58.5060446"/>
 <node id="319982921" visible="true" version="4" changeset="162552212" timestamp="2025-02-15T21:48:18Z" user="NickJOB" uid="245634" lat="-34.4602933" lon="-58.5054680"/>
 <node id="319982927" visible="true" version="4" changeset="162552212" timestamp="2025-02-15T21:48:18Z" user="NickJOB" uid="245634" lat="-34.4613974" lon="-58.5061230"/>
 <node id="319982933" visible="true" version="4" changeset="162552212" timestamp="2025-02-15T21:48:18Z" user="NickJOB" uid="245634" lat="-34.4614081" lon="-58.5050275"/>
 <node id="319982940" visible="true" version="4" changeset="162552212" timestamp="2025-02-15T21:48:18Z" user="NickJOB" uid="245634" lat="-34.4613252" lon="-58.5053434"/>
 <node id="319982946" visible="true" version="4" changeset="162552212" timestamp="2025-02-15T21:48:18Z" user="NickJOB" uid="245634" lat="-34.4619192" lon="-58.5056993"/>
 <node id="319982953" visible="true" version="4" changeset="162552212" timestamp="2025-02-15T21:48:18Z" user="NickJOB" uid="245634" lat="-34.4618144" lon="-58.5059515"/>
 <node id="319982959" visible="true" version="2" changeset="21465334" timestamp="2014-04-02T20:20:53Z" user="Souchong" uid="255141" lat="-34.4578611" lon="-58.5061692"/>
 <node id="319982966" visible="true" version="2" changeset="10654159" timestamp="2012-02-11T16:02:15Z" user="estela" uid="89271" lat="-34.4570876" lon="-58.5064221"/>
 <node id="319982972" visible="true" version="2" changeset="21464360" timestamp="2014-04-02T19:31:04Z" user="Souchong" uid="255141" lat="-34.4563091" lon="-58.5078386"/>
 <node id="319982978" visible="true" version="2" changeset="21464360" timestamp="2014-04-02T19:31:04Z" user="Souchong" uid="255141" lat="-34.4555379" lon="-58.5092688"/>
 <node id="319982985" visible="true" version="2" changeset="21464360" timestamp="2014-04-02T19:31:04Z" user="Souchong" uid="255141" lat="-34.4548241" lon="-58.5105923"/>
 <node id="319982992" visible="true" version="2" changeset="21465334" timestamp="2014-04-02T20:20:53Z" user="Souchong" uid="255141" lat="-34.4543888" lon="-58.5114483"/>
 <node id="319982998" visible="true" version="2" changeset="21467432" timestamp="2014-04-02T22:30:12Z" user="Souchong" uid="255141" lat="-34.4534264" lon="-58.5129620"/>
 <node id="319983004" visible="true" version="2" changeset="21464360" timestamp="2014-04-02T19:31:04Z" user="Souchong" uid="255141" lat="-34.4523159" lon="-58.5145381"/>
 <node id="319983011" visible="true" version="3" changeset="21467432" timestamp="2014-04-02T22:30:12Z" user="Souchong" uid="255141" lat="-34.4513387" lon="-58.5158896"/>
 <node id="319983018" visible="true" version="3" changeset="21464360" timestamp="2014-04-02T19:31:04Z" user="Souchong" uid="255141" lat="-34.4502097" lon="-58.5161743"/>
 <node id="319983030" visible="true" version="2" changeset="10245547" timestamp="2011-12-30T14:05:52Z" user="estela" uid="89271" lat="-34.4473763" lon="-58.5162143"/>
 <node id="319983037" visible="true" version="2" changeset="10245547" timestamp="2011-12-30T14:05:52Z" user="estela" uid="89271" lat="-34.4472004" lon="-58.5161792"/>
 <node id="319983062" visible="true" version="3" changeset="21464360" timestamp="2014-04-02T19:31:04Z" user="Souchong" uid="255141" lat="-34.4549810" lon="-58.5078192"/>
 <node id="319983069" visible="true" version="2" changeset="21464360" timestamp="2014-04-02T19:31:04Z" user="Souchong" uid="255141" lat="-34.4540251" lon="-58.5115766"/>
 <node id="319983075" visible="true" version="1" changeset="474767" timestamp="2008-12-19T15:30:40Z" user="zorko" uid="22005" lat="-34.4509955" lon="-58.5157435"/>
 <node id="319983082" visible="true" version="3" changeset="21464360" timestamp="2014-04-02T19:31:04Z" user="Souchong" uid="255141" lat="-34.4555154" lon="-58.5082053"/>
 <node id="319983088" visible="true" version="3" changeset="21464360" timestamp="2014-04-02T19:31:04Z" user="Souchong" uid="255141" lat="-34.4556778" lon="-58.5082108"/>
 <node id="319983094" visible="true" version="3" changeset="21464360" timestamp="2014-04-02T19:31:04Z" user="Souchong" uid="255141" lat="-34.4559798" lon="-58.5079491"/>
 <node id="319983100" visible="true" version="1" changeset="474767" timestamp="2008-12-19T15:30:43Z" user="zorko" uid="22005" lat="-34.4571500" lon="-58.5065112"/>
 <node id="319983144" visible="true" version="4" changeset="66519347" timestamp="2019-01-21T22:11:44Z" user="serock" uid="1810448" lat="-34.4479667" lon="-58.5157066"/>
 <node id="319983150" visible="true" version="2" changeset="10456531" timestamp="2012-01-21T15:23:59Z" user="estela" uid="89271" lat="-34.4477286" lon="-58.5155899"/>
 <node id="319983174" visible="true" version="2" changeset="21464360" timestamp="2014-04-02T19:31:05Z" user="Souchong" uid="255141" lat="-34.4516631" lon="-58.5154389"/>
 <node id="331867643" visible="true" version="1" changeset="783771" timestamp="2009-01-13T18:03:46Z" user="zorko" uid="22005" lat="-34.4473249" lon="-58.5154986"/>
 <node id="331869659" visible="true" version="3" changeset="21467432" timestamp="2014-04-02T22:30:12Z" user="Souchong" uid="255141" lat="-34.4516692" lon="-58.5199973"/>
 <node id="331869664" visible="true" version="2" changeset="21467432" timestamp="2014-04-02T22:30:12Z" user="Souchong" uid="255141" lat="-34.4515234" lon="-58.5201360"/>
 <node id="331869668" visible="true" version="3" changeset="21467432" timestamp="2014-04-02T22:30:12Z" user="Souchong" uid="255141" lat="-34.4515556" lon="-58.5160268"/>
 <node id="331869670" visible="true" version="3" changeset="21464360" timestamp="2014-04-02T19:31:05Z" user="Souchong" uid="255141" lat="-34.4517191" lon="-58.5157861"/>
 <node id="331869671" visible="true" version="3" changeset="21467432" timestamp="2014-04-02T22:30:12Z" user="Souchong" uid="255141" lat="-34.4536681" lon="-58.5198514"/>
 <node id="331869672" visible="true" version="2" changeset="19231076" timestamp="2013-12-02T11:33:15Z" user="user_16881" uid="16881" lat="-34.4534921" lon="-58.5199820"/>
 <node id="331869673" visible="true" version="3" changeset="21467432" timestamp="2014-04-02T22:30:12Z" user="Souchong" uid="255141" lat="-34.4534529" lon="-58.5194067"/>
 <node id="331869674" visible="true" version="3" changeset="21467432" timestamp="2014-04-02T22:30:12Z" user="Souchong" uid="255141" lat="-34.4535772" lon="-58.5196604"/>
 <node id="331869675" visible="true" version="3" changeset="21467432" timestamp="2014-04-02T22:30:12Z" user="Souchong" uid="255141" lat="-34.4544439" lon="-58.5187359"/>
 <node id="331869676" visible="true" version="2" changeset="19231076" timestamp="2013-12-02T11:33:16Z" user="user_16881" uid="16881" lat="-34.4545560" lon="-58.5189620"/>
 <node id="331869677" visible="true" version="3" changeset="21467432" timestamp="2014-04-02T22:30:12Z" user="Souchong" uid="255141" lat="-34.4530579" lon="-58.5186037"/>
 <node id="331869678" visible="true" version="2" changeset="19231076" timestamp="2013-12-02T11:33:15Z" user="user_16881" uid="16881" lat="-34.4529531" lon="-58.5182772"/>
 <node id="331869679" visible="true" version="3" changeset="21467432" timestamp="2014-04-02T22:30:13Z" user="Souchong" uid="255141" lat="-34.4539201" lon="-58.5176451"/>
 <node id="331869680" visible="true" version="3" changeset="21467432" timestamp="2014-04-02T22:30:13Z" user="Souchong" uid="255141" lat="-34.4540294" lon="-58.5178793"/>
 <node id="331869681" visible="true" version="2" changeset="19231076" timestamp="2013-12-02T11:33:16Z" user="user_16881" uid="16881" lat="-34.4525825" lon="-58.5174342"/>
 <node id="331869682" visible="true" version="4" changeset="21467432" timestamp="2014-04-02T22:30:13Z" user="Souchong" uid="255141" lat="-34.4524591" lon="-58.5172091"/>
 <node id="331869683" visible="true" version="2" changeset="19231076" timestamp="2013-12-02T11:33:15Z" user="user_16881" uid="16881" lat="-34.4533880" lon="-58.5165611"/>
 <node id="331869684" visible="true" version="2" changeset="19231076" timestamp="2013-12-02T11:33:16Z" user="user_16881" uid="16881" lat="-34.4534850" lon="-58.5167844"/>
 <node id="331869685" visible="true" version="2" changeset="21467432" timestamp="2014-04-02T22:30:13Z" user="Souchong" uid="255141" lat="-34.4520390" lon="-58.5163492"/>
 <node id="331869686" visible="true" version="3" changeset="21464360" timestamp="2014-04-02T19:31:05Z" user="Souchong" uid="255141" lat="-34.4518997" lon="-58.5161220"/>
 <node id="331869687" visible="true" version="3" changeset="19231076" timestamp="2013-12-02T11:33:15Z" user="user_16881" uid="16881" lat="-34.4528455" lon="-58.5154577"/>
 <node id="331869689" visible="true" version="2" changeset="19231076" timestamp="2013-12-02T11:33:15Z" user="user_16881" uid="16881" lat="-34.4529543" lon="-58.5156898"/>
 <node id="331869690" visible="true" version="2" changeset="10456531" timestamp="2012-01-21T15:23:59Z" user="estela" uid="89271" lat="-34.4530006" lon="-58.5135880"/>
 <node id="331869691" visible="true" version="2" changeset="10456531" timestamp="2012-01-21T15:23:59Z" user="estela" uid="89271" lat="-34.4532805" lon="-58.5134140"/>
 <node id="331869692" visible="true" version="3" changeset="21467432" timestamp="2014-04-02T22:30:13Z" user="Souchong" uid="255141" lat="-34.4560664" lon="-58.5172665"/>
 <node id="331869693" visible="true" version="3" changeset="21467432" timestamp="2014-04-02T22:30:13Z" user="Souchong" uid="255141" lat="-34.4558902" lon="-58.5174866"/>
 <node id="331869695" visible="true" version="3" changeset="21467432" timestamp="2014-04-02T22:30:13Z" user="Souchong" uid="255141" lat="-34.4543432" lon="-58.5154774"/>
 <node id="331869696" visible="true" version="2" changeset="19231076" timestamp="2013-12-02T11:33:15Z" user="user_16881" uid="16881" lat="-34.4547347" lon="-58.5162146"/>
 <node id="331869697" visible="true" version="2" changeset="19231076" timestamp="2013-12-02T11:33:15Z" user="user_16881" uid="16881" lat="-34.4549646" lon="-58.5160653"/>
 <node id="331869698" visible="true" version="3" changeset="21467432" timestamp="2014-04-02T22:30:13Z" user="Souchong" uid="255141" lat="-34.4549178" lon="-58.5165026"/>
 <node id="331869699" visible="true" version="2" changeset="19231076" timestamp="2013-12-02T11:33:16Z" user="user_16881" uid="16881" lat="-34.4540899" lon="-58.5170889"/>
 <node id="331869700" visible="true" version="2" changeset="19231076" timestamp="2013-12-02T11:33:15Z" user="user_16881" uid="16881" lat="-34.4539839" lon="-58.5168849"/>
 <node id="331869701" visible="true" version="3" changeset="21467432" timestamp="2014-04-02T22:30:13Z" user="Souchong" uid="255141" lat="-34.4543759" lon="-58.5180492"/>
 <node id="331869702" visible="true" version="2" changeset="19231076" timestamp="2013-12-02T11:33:15Z" user="user_16881" uid="16881" lat="-34.4555545" lon="-58.5171347"/>
 <node id="331869707" visible="true" version="2" changeset="19231076" timestamp="2013-12-02T11:33:15Z" user="user_16881" uid="16881" lat="-34.4546926" lon="-58.5185635"/>
 <node id="331869713" visible="true" version="3" changeset="21467432" timestamp="2014-04-02T22:30:13Z" user="Souchong" uid="255141" lat="-34.4551118" lon="-58.5182919"/>
 <node id="331869714" visible="true" version="3" changeset="21467432" timestamp="2014-04-02T22:30:13Z" user="Souchong" uid="255141" lat="-34.4548257" lon="-58.5185824"/>
 <node id="331869715" visible="true" version="3" changeset="21467432" timestamp="2014-04-02T22:30:13Z" user="Souchong" uid="255141" lat="-34.4545002" lon="-58.5183101"/>
 <node id="331869716" visible="true" version="2" changeset="19231076" timestamp="2013-12-02T11:33:16Z" user="user_16881" uid="16881" lat="-34.4549737" lon="-58.5179320"/>
 <node id="331869717" visible="true" version="3" changeset="21467432" timestamp="2014-04-02T22:30:13Z" user="Souchong" uid="255141" lat="-34.4557948" lon="-58.5173814"/>
 <node id="331869718" visible="true" version="3" changeset="21467432" timestamp="2014-04-02T22:30:13Z" user="Souchong" uid="255141" lat="-34.4535324" lon="-58.5160311"/>
 <node id="331869719" visible="true" version="3" changeset="21467432" timestamp="2014-04-02T22:30:13Z" user="Souchong" uid="255141" lat="-34.4534140" lon="-58.5157909"/>
 <node id="331869720" visible="true" version="3" changeset="21467432" timestamp="2014-04-02T22:30:13Z" user="Souchong" uid="255141" lat="-34.4541970" lon="-58.5151957"/>
 <node id="331869721" visible="true" version="2" changeset="21467432" timestamp="2014-04-02T22:30:13Z" user="Souchong" uid="255141" lat="-34.4537499" lon="-58.5144001"/>
 <node id="331869722" visible="true" version="3" changeset="21467432" timestamp="2014-04-02T22:30:13Z" user="Souchong" uid="255141" lat="-34.4536324" lon="-58.5141683"/>
 <node id="331869731" visible="true" version="2" changeset="21467432" timestamp="2014-04-02T22:30:13Z" user="Souchong" uid="255141" lat="-34.4530067" lon="-58.5149339"/>
 <node id="331869747" visible="true" version="2" changeset="21467432" timestamp="2014-04-02T22:30:13Z" user="Souchong" uid="255141" lat="-34.4528912" lon="-58.5146999"/>
 <node id="673707923" visible="true" version="2" changeset="21465334" timestamp="2014-04-02T20:20:53Z" user="Souchong" uid="255141" lat="-34.4587531" lon="-58.5054403"/>
 <node id="1569217666" visible="true" version="1" changeset="10245547" timestamp="2011-12-30T14:05:41Z" user="estela" uid="89271" lat="-34.4474397" lon="-58.5160856"/>
 <node id="1569217681" visible="true" version="1" changeset="10245547" timestamp="2011-12-30T14:05:41Z" user="estela" uid="89271" lat="-34.4475124" lon="-58.5160975"/>
 <node id="1569217780" visible="true" version="1" changeset="10245547" timestamp="2011-12-30T14:05:43Z" user="estela" uid="89271" lat="-34.4528432" lon="-58.5065484"/>
 <node id="1569217782" visible="true" version="1" changeset="10245547" timestamp="2011-12-30T14:05:43Z" user="estela" uid="89271" lat="-34.4532869" lon="-58.5066333"/>
 <node id="1569217784" visible="true" version="2" changeset="21467432" timestamp="2014-04-02T22:30:09Z" user="Souchong" uid="255141" lat="-34.4542604" lon="-58.5096879"/>
 <node id="1569217786" visible="true" version="2" changeset="21467432" timestamp="2014-04-02T22:30:09Z" user="Souchong" uid="255141" lat="-34.4542591" lon="-58.5098294"/>
 <node id="1569217788" visible="true" version="1" changeset="10245547" timestamp="2011-12-30T14:05:44Z" user="estela" uid="89271" lat="-34.4543035" lon="-58.5099438"/>
 <node id="1569217790" visible="true" version="2" changeset="21467432" timestamp="2014-04-02T22:30:09Z" user="Souchong" uid="255141" lat="-34.4543453" lon="-58.5096077"/>
 <node id="1569217791" visible="true" version="2" changeset="21467432" timestamp="2014-04-02T22:30:09Z" user="Souchong" uid="255141" lat="-34.4544208" lon="-58.5101378"/>
 <node id="1569217793" visible="true" version="1" changeset="10245547" timestamp="2011-12-30T14:05:44Z" user="estela" uid="89271" lat="-34.4545368" lon="-58.5103018"/>
 <node id="1569217806" visible="true" version="1" changeset="10245547" timestamp="2011-12-30T14:05:44Z" user="estela" uid="89271" lat="-34.4545791" lon="-58.5100427"/>
 <node id="1569217807" visible="true" version="1" changeset="10245547" timestamp="2011-12-30T14:05:44Z" user="estela" uid="89271" lat="-34.4546286" lon="-58.5104432"/>
 <node id="1569217808" visible="true" version="1" changeset="10245547" timestamp="2011-12-30T14:05:44Z" user="estela" uid="89271" lat="-34.4546668" lon="-58.5101340"/>
 <node id="1569217810" visible="true" version="2" changeset="21467432" timestamp="2014-04-02T22:30:09Z" user="Souchong" uid="255141" lat="-34.4548041" lon="-58.5099117"/>
 <node id="1569217811" visible="true" version="2" changeset="21467432" timestamp="2014-04-02T22:30:09Z" user="Souchong" uid="255141" lat="-34.4548296" lon="-58.5099510"/>
 <node id="1569217813" visible="true" version="2" changeset="21467432" timestamp="2014-04-02T22:30:09Z" user="Souchong" uid="255141" lat="-34.4548707" lon="-58.5098308"/>
 <node id="1569217815" visible="true" version="1" changeset="10245547" timestamp="2011-12-30T14:05:44Z" user="estela" uid="89271" lat="-34.4548970" lon="-58.5098574"/>
 <node id="1569217817" visible="true" version="1" changeset="10245547" timestamp="2011-12-30T14:05:44Z" user="estela" uid="89271" lat="-34.4550002" lon="-58.5097072"/>
 <node id="1570109924" visible="true" version="1" changeset="10250805" timestamp="2011-12-30T23:22:39Z" user="estela" uid="89271" lat="-34.4501823" lon="-58.5050411"/>
 <node id="1570110041" visible="true" version="2" changeset="21465334" timestamp="2014-04-02T20:20:53Z" user="Souchong" uid="255141" lat="-34.4541128" lon="-58.5066966"/>
 <node id="1600137848" visible="true" version="1" changeset="10456531" timestamp="2012-01-21T15:23:40Z" user="estela" uid="89271" lat="-34.4475064" lon="-58.5156485"/>
 <node id="1600137850" visible="true" version="1" changeset="10456531" timestamp="2012-01-21T15:23:40Z" user="estela" uid="89271" lat="-34.4476752" lon="-58.5156950"/>
 <node id="1600137890" visible="true" version="1" changeset="10456531" timestamp="2012-01-21T15:23:42Z" user="estela" uid="89271" lat="-34.4530547" lon="-58.5135944"/>
 <node id="1600137896" visible="true" version="1" changeset="10456531" timestamp="2012-01-21T15:23:42Z" user="estela" uid="89271" lat="-34.4534743" lon="-58.5130987"/>
 <node id="1600137899" visible="true" version="2" changeset="21467432" timestamp="2014-04-02T22:30:10Z" user="Souchong" uid="255141" lat="-34.4536411" lon="-58.5141252"/>
 <node id="1600137903" visible="true" version="1" changeset="10456531" timestamp="2012-01-21T15:23:42Z" user="estela" uid="89271" lat="-34.4536732" lon="-58.5135769"/>
 <node id="1628455506" visible="true" version="2" changeset="21464360" timestamp="2014-04-02T19:31:04Z" user="Souchong" uid="255141" lat="-34.4499421" lon="-58.5161469"/>
 <node id="1628455572" visible="true" version="2" changeset="21467432" timestamp="2014-04-02T22:30:10Z" user="Souchong" uid="255141" lat="-34.4502094" lon="-58.5166197"/>
 <node id="1628455595" visible="true" version="2" changeset="21467432" timestamp="2014-04-02T22:30:10Z" user="Souchong" uid="255141" lat="-34.4503121" lon="-58.5167092"/>
 <node id="1628455599" visible="true" version="2" changeset="21467432" timestamp="2014-04-02T22:30:10Z" user="Souchong" uid="255141" lat="-34.4503422" lon="-58.5165648"/>
 <node id="1628455608" visible="true" version="2" changeset="21467432" timestamp="2014-04-02T22:30:10Z" user="Souchong" uid="255141" lat="-34.4503535" lon="-58.5166705"/>
 <node id="1628455615" visible="true" version="2" changeset="21464360" timestamp="2014-04-02T19:31:04Z" user="Souchong" uid="255141" lat="-34.4504151" lon="-58.5161279"/>
 <node id="1628455633" visible="true" version="2" changeset="21467432" timestamp="2014-04-02T22:30:10Z" user="Souchong" uid="255141" lat="-34.4506014" lon="-58.5164468"/>
 <node id="1628455663" visible="true" version="2" changeset="21464360" timestamp="2014-04-02T19:31:04Z" user="Souchong" uid="255141" lat="-34.4507855" lon="-58.5159264"/>
 <node id="1628455701" visible="true" version="2" changeset="21467432" timestamp="2014-04-02T22:30:10Z" user="Souchong" uid="255141" lat="-34.4509850" lon="-58.5161857"/>
 <node id="1628455812" visible="true" version="2" changeset="21467432" timestamp="2014-04-02T22:30:10Z" user="Souchong" uid="255141" lat="-34.4512634" lon="-58.5158713"/>
 <node id="1628455985" visible="true" version="2" changeset="21464360" timestamp="2014-04-02T19:31:04Z" user="Souchong" uid="255141" lat="-34.4519354" lon="-58.5161314"/>
 <node id="1628455988" visible="true" version="2" changeset="21467432" timestamp="2014-04-02T22:30:10Z" user="Souchong" uid="255141" lat="-34.4520339" lon="-58.5164086"/>
 <node id="1628455990" visible="true" version="3" changeset="21467432" timestamp="2014-04-02T22:30:10Z" user="Souchong" uid="255141" lat="-34.4524264" lon="-58.5172064"/>
 <node id="1628455995" visible="true" version="1" changeset="10654159" timestamp="2012-02-11T16:01:48Z" user="estela" uid="89271" lat="-34.4529565" lon="-58.5071475"/>
 <node id="1628455996" visible="true" version="2" changeset="12770562" timestamp="2012-08-18T08:52:49Z" user="dbusse" uid="149876" lat="-34.4546516" lon="-58.5081507"/>
 <node id="1628455997" visible="true" version="2" changeset="12770562" timestamp="2012-08-18T08:52:49Z" user="dbusse" uid="149876" lat="-34.4548498" lon="-58.5082164"/>
 <node id="1628455999" visible="true" version="2" changeset="21464360" timestamp="2014-04-02T19:31:04Z" user="Souchong" uid="255141" lat="-34.4549879" lon="-58.5077849"/>
 <node id="1628456001" visible="true" version="1" changeset="10654159" timestamp="2012-02-11T16:01:48Z" user="estela" uid="89271" lat="-34.4556830" lon="-58.5068085"/>
 <node id="1628456003" visible="true" version="2" changeset="21464360" timestamp="2014-04-02T19:31:04Z" user="Souchong" uid="255141" lat="-34.4558142" lon="-58.5081545"/>
 <node id="1628456005" visible="true" version="1" changeset="10654159" timestamp="2012-02-11T16:01:48Z" user="estela" uid="89271" lat="-34.4560119" lon="-58.5083188"/>
 <node id="1628824552" visible="true" version="2" changeset="21465334" timestamp="2014-04-02T20:20:53Z" user="Souchong" uid="255141" lat="-34.4504812" lon="-58.5063354"/>
 <node id="1628824553" visible="true" version="1" changeset="10657283" timestamp="2012-02-11T20:47:57Z" user="estela" uid="89271" lat="-34.4510622" lon="-58.5067286"/>
 <node id="1628824554" visible="true" version="1" changeset="10657283" timestamp="2012-02-11T20:47:57Z" user="estela" uid="89271" lat="-34.4511110" lon="-58.5068058"/>
 <node id="1628824555" visible="true" version="1" changeset="10657283" timestamp="2012-02-11T20:47:57Z" user="estela" uid="89271" lat="-34.4511679" lon="-58.5068262"/>
 <node id="1628824556" visible="true" version="1" changeset="10657283" timestamp="2012-02-11T20:47:57Z" user="estela" uid="89271" lat="-34.4511963" lon="-58.5068790"/>
 <node id="1628824557" visible="true" version="1" changeset="10657283" timestamp="2012-02-11T20:47:57Z" user="estela" uid="89271" lat="-34.4524074" lon="-58.5073407"/>
 <node id="1628824558" visible="true" version="1" changeset="10657283" timestamp="2012-02-11T20:47:57Z" user="estela" uid="89271" lat="-34.4526086" lon="-58.5073034"/>
 <node id="1628824559" visible="true" version="1" changeset="10657283" timestamp="2012-02-11T20:47:57Z" user="estela" uid="89271" lat="-34.4527347" lon="-58.5072072"/>
 <node id="1628824560" visible="true" version="1" changeset="10657283" timestamp="2012-02-11T20:47:57Z" user="estela" uid="89271" lat="-34.4527481" lon="-58.5072300"/>
 <node id="1628859627" visible="true" version="2" changeset="21465334" timestamp="2014-04-02T20:20:53Z" user="Souchong" uid="255141" lat="-34.4590354" lon="-58.5058356"/>
 <node id="1628859628" visible="true" version="2" changeset="21465334" timestamp="2014-04-02T20:20:53Z" user="Souchong" uid="255141" lat="-34.4590997" lon="-58.5058464"/>
 <node id="1628859630" visible="true" version="2" changeset="21465334" timestamp="2014-04-02T20:20:53Z" user="Souchong" uid="255141" lat="-34.4595269" lon="-58.5057325"/>
 <node id="1628859631" visible="true" version="2" changeset="21465334" timestamp="2014-04-02T20:20:53Z" user="Souchong" uid="255141" lat="-34.4595255" lon="-58.5056864"/>
 <node id="1628859634" visible="true" version="2" changeset="21465334" timestamp="2014-04-02T20:20:53Z" user="Souchong" uid="255141" lat="-34.4600601" lon="-58.5055337"/>
 <node id="1628859636" visible="true" version="2" changeset="21465334" timestamp="2014-04-02T20:20:53Z" user="Souchong" uid="255141" lat="-34.4601874" lon="-58.5055835"/>
 <node id="2466878021" visible="true" version="1" changeset="17963009" timestamp="2013-09-21T20:00:44Z" user="sancho95" uid="1752313" lat="-34.4545482" lon="-58.5105845"/>
 <node id="2466878038" visible="true" version="1" changeset="17963009" timestamp="2013-09-21T20:00:45Z" user="sancho95" uid="1752313" lat="-34.4545033" lon="-58.5106634"/>
 <node id="2561121639" visible="true" version="1" changeset="19231076" timestamp="2013-12-02T11:33:11Z" user="user_16881" uid="16881" lat="-34.4547303" lon="-58.5162858"/>
 <node id="2561121669" visible="true" version="2" changeset="21467432" timestamp="2014-04-02T22:30:11Z" user="Souchong" uid="255141" lat="-34.4547814" lon="-58.5185923"/>
 <node id="2561121670" visible="true" version="2" changeset="21467432" timestamp="2014-04-02T22:30:11Z" user="Souchong" uid="255141" lat="-34.4549694" lon="-58.5165063"/>
 <node id="2561121676" visible="true" version="1" changeset="19231076" timestamp="2013-12-02T11:33:12Z" user="user_16881" uid="16881" lat="-34.4557442" lon="-58.5173862"/>
 <node id="2561121677" visible="true" version="2" changeset="21467432" timestamp="2014-04-02T22:30:11Z" user="Souchong" uid="255141" lat="-34.4542973" lon="-58.5154743"/>
 <node id="2561121678" visible="true" version="2" changeset="21467432" timestamp="2014-04-02T22:30:11Z" user="Souchong" uid="255141" lat="-34.4541939" lon="-58.5152368"/>
 <node id="2561121711" visible="true" version="2" changeset="21467432" timestamp="2014-04-02T22:30:11Z" user="Souchong" uid="255141" lat="-34.4525724" lon="-58.5174988"/>
 <node id="2561121713" visible="true" version="1" changeset="19231076" timestamp="2013-12-02T11:33:13Z" user="user_16881" uid="16881" lat="-34.4530111" lon="-58.5182792"/>
 <node id="2561121716" visible="true" version="1" changeset="19231076" timestamp="2013-12-02T11:33:13Z" user="user_16881" uid="16881" lat="-34.4549656" lon="-58.5179898"/>
 <node id="2561121721" visible="true" version="1" changeset="19231076" timestamp="2013-12-02T11:33:13Z" user="user_16881" uid="16881" lat="-34.4555579" lon="-58.5172030"/>
 <node id="2561121735" visible="true" version="2" changeset="21467432" timestamp="2014-04-02T22:30:11Z" user="Souchong" uid="255141" lat="-34.4546448" lon="-58.5185193"/>
 <node id="2561121740" visible="true" version="1" changeset="19231076" timestamp="2013-12-02T11:33:13Z" user="user_16881" uid="16881" lat="-34.4530669" lon="-58.5185485"/>
 <node id="2761940571" visible="true" version="1" changeset="21464360" timestamp="2014-04-02T19:30:51Z" user="Souchong" uid="255141" lat="-34.4490277" lon="-58.5159832"/>
 <node id="2761940573" visible="true" version="1" changeset="21464360" timestamp="2014-04-02T19:30:51Z" user="Souchong" uid="255141" lat="-34.4495303" lon="-58.5161272"/>
 <node id="2761940574" visible="true" version="1" changeset="21464360" timestamp="2014-04-02T19:30:51Z" user="Souchong" uid="255141" lat="-34.4547757" lon="-58.5106317"/>
 <node id="2761940575" visible="true" version="1" changeset="21464360" timestamp="2014-04-02T19:30:51Z" user="Souchong" uid="255141" lat="-34.4548804" lon="-58.5105471"/>
 <node id="2761940576" visible="true" version="1" changeset="21464360" timestamp="2014-04-02T19:30:52Z" user="Souchong" uid="255141" lat="-34.4549765" lon="-58.5078012"/>
 <node id="2761940579" visible="true" version="1" changeset="21464360" timestamp="2014-04-02T19:30:52Z" user="Souchong" uid="255141" lat="-34.4549786" lon="-58.5104280"/>
 <node id="2761940580" visible="true" version="1" changeset="21464360" timestamp="2014-04-02T19:30:52Z" user="Souchong" uid="255141" lat="-34.4549915" lon="-58.5103591"/>
 <node id="2761940582" visible="true" version="1" changeset="21464360" timestamp="2014-04-02T19:30:52Z" user="Souchong" uid="255141" lat="-34.4550135" lon="-58.5103105"/>
 <node id="2761940583" visible="true" version="1" changeset="21464360" timestamp="2014-04-02T19:30:52Z" user="Souchong" uid="255141" lat="-34.4550548" lon="-58.5102745"/>
 <node id="2761940585" visible="true" version="1" changeset="21464360" timestamp="2014-04-02T19:30:52Z" user="Souchong" uid="255141" lat="-34.4551504" lon="-58.5100880"/>
 <node id="2761940586" visible="true" version="1" changeset="21464360" timestamp="2014-04-02T19:30:52Z" user="Souchong" uid="255141" lat="-34.4551634" lon="-58.5100316"/>
 <node id="2761940587" visible="true" version="1" changeset="21464360" timestamp="2014-04-02T19:30:52Z" user="Souchong" uid="255141" lat="-34.4551711" lon="-58.5099924"/>
 <node id="2761940588" visible="true" version="1" changeset="21464360" timestamp="2014-04-02T19:30:52Z" user="Souchong" uid="255141" lat="-34.4552150" lon="-58.5099517"/>
 <node id="2761940589" visible="true" version="1" changeset="21464360" timestamp="2014-04-02T19:30:52Z" user="Souchong" uid="255141" lat="-34.4552952" lon="-58.5091494"/>
 <node id="2761940591" visible="true" version="1" changeset="21464360" timestamp="2014-04-02T19:30:52Z" user="Souchong" uid="255141" lat="-34.4553727" lon="-58.5096054"/>
 <node id="2761940592" visible="true" version="1" changeset="21464360" timestamp="2014-04-02T19:30:52Z" user="Souchong" uid="255141" lat="-34.4553985" lon="-58.5095223"/>
 <node id="2761940594" visible="true" version="1" changeset="21464360" timestamp="2014-04-02T19:30:52Z" user="Souchong" uid="255141" lat="-34.4554321" lon="-58.5094549"/>
 <node id="2761940596" visible="true" version="1" changeset="21464360" timestamp="2014-04-02T19:30:52Z" user="Souchong" uid="255141" lat="-34.4554748" lon="-58.5094032"/>
 <node id="2761940600" visible="true" version="1" changeset="21464360" timestamp="2014-04-02T19:30:52Z" user="Souchong" uid="255141" lat="-34.4555432" lon="-58.5086620"/>
 <node id="2761940602" visible="true" version="1" changeset="21464360" timestamp="2014-04-02T19:30:52Z" user="Souchong" uid="255141" lat="-34.4556724" lon="-58.5090131"/>
 <node id="2761940604" visible="true" version="1" changeset="21464360" timestamp="2014-04-02T19:30:52Z" user="Souchong" uid="255141" lat="-34.4556815" lon="-58.5089410"/>
 <node id="2761940605" visible="true" version="1" changeset="21464360" timestamp="2014-04-02T19:30:52Z" user="Souchong" uid="255141" lat="-34.4556841" lon="-58.5088532"/>
 <node id="2761940607" visible="true" version="1" changeset="21464360" timestamp="2014-04-02T19:30:52Z" user="Souchong" uid="255141" lat="-34.4557053" lon="-58.5081887"/>
 <node id="2761940610" visible="true" version="1" changeset="21464360" timestamp="2014-04-02T19:30:52Z" user="Souchong" uid="255141" lat="-34.4557311" lon="-58.5081825"/>
 <node id="2761940611" visible="true" version="1" changeset="21464360" timestamp="2014-04-02T19:30:52Z" user="Souchong" uid="255141" lat="-34.4557487" lon="-58.5087122"/>
 <node id="2761940613" visible="true" version="1" changeset="21464360" timestamp="2014-04-02T19:30:52Z" user="Souchong" uid="255141" lat="-34.4557531" lon="-58.5081786"/>
 <node id="2761940615" visible="true" version="1" changeset="21464360" timestamp="2014-04-02T19:30:52Z" user="Souchong" uid="255141" lat="-34.4557796" lon="-58.5081770"/>
 <node id="2761940627" visible="true" version="1" changeset="21464360" timestamp="2014-04-02T19:30:52Z" user="Souchong" uid="255141" lat="-34.4559063" lon="-58.5084536"/>
 <node id="2762183267" visible="true" version="2" changeset="21467432" timestamp="2014-04-02T22:30:11Z" user="Souchong" uid="255141" lat="-34.4541231" lon="-58.5119444"/>
 <node id="2762183269" visible="true" version="2" changeset="21467432" timestamp="2014-04-02T22:30:11Z" user="Souchong" uid="255141" lat="-34.4541476" lon="-58.5119694"/>
 <node id="2762183273" visible="true" version="2" changeset="21467432" timestamp="2014-04-02T22:30:11Z" user="Souchong" uid="255141" lat="-34.4542965" lon="-58.5117190"/>
 <node id="2762183274" visible="true" version="2" changeset="21467432" timestamp="2014-04-02T22:30:11Z" user="Souchong" uid="255141" lat="-34.4543193" lon="-58.5116504"/>
 <node id="2762183277" visible="true" version="1" changeset="21465334" timestamp="2014-04-02T20:20:46Z" user="Souchong" uid="255141" lat="-34.4543308" lon="-58.5115547"/>
 <node id="2762183278" visible="true" version="1" changeset="21465334" timestamp="2014-04-02T20:20:46Z" user="Souchong" uid="255141" lat="-34.4543494" lon="-58.5115033"/>
 <node id="2762183281" visible="true" version="1" changeset="21465334" timestamp="2014-04-02T20:20:46Z" user="Souchong" uid="255141" lat="-34.4545376" lon="-58.5111811"/>
 <node id="2762183284" visible="true" version="1" changeset="21465334" timestamp="2014-04-02T20:20:46Z" user="Souchong" uid="255141" lat="-34.4546957" lon="-58.5109091"/>
 <node id="2762183286" visible="true" version="1" changeset="21465334" timestamp="2014-04-02T20:20:46Z" user="Souchong" uid="255141" lat="-34.4546968" lon="-58.5108314"/>
 <node id="2762183291" visible="true" version="1" changeset="21465334" timestamp="2014-04-02T20:20:46Z" user="Souchong" uid="255141" lat="-34.4562560" lon="-58.5060874"/>
 <node id="2762183292" visible="true" version="1" changeset="21465334" timestamp="2014-04-02T20:20:46Z" user="Souchong" uid="255141" lat="-34.4562765" lon="-58.5060643"/>
 <node id="2762183294" visible="true" version="1" changeset="21465334" timestamp="2014-04-02T20:20:46Z" user="Souchong" uid="255141" lat="-34.4563013" lon="-58.5060492"/>
 <node id="2762183296" visible="true" version="1" changeset="21465334" timestamp="2014-04-02T20:20:46Z" user="Souchong" uid="255141" lat="-34.4563408" lon="-58.5060412"/>
 <node id="2762183297" visible="true" version="1" changeset="21465334" timestamp="2014-04-02T20:20:46Z" user="Souchong" uid="255141" lat="-34.4568984" lon="-58.5058996"/>
 <node id="2762183299" visible="true" version="1" changeset="21465334" timestamp="2014-04-02T20:20:46Z" user="Souchong" uid="255141" lat="-34.4569020" lon="-58.5059307"/>
 <node id="2762183301" visible="true" version="1" changeset="21465334" timestamp="2014-04-02T20:20:47Z" user="Souchong" uid="255141" lat="-34.4574192" lon="-58.5066266"/>
 <node id="2762183303" visible="true" version="1" changeset="21465334" timestamp="2014-04-02T20:20:47Z" user="Souchong" uid="255141" lat="-34.4575009" lon="-58.5065614"/>
 <node id="2762183305" visible="true" version="1" changeset="21465334" timestamp="2014-04-02T20:20:47Z" user="Souchong" uid="255141" lat="-34.4575526" lon="-58.5065238"/>
 <node id="2762183306" visible="true" version="1" changeset="21465334" timestamp="2014-04-02T20:20:47Z" user="Souchong" uid="255141" lat="-34.4575830" lon="-58.5057638"/>
 <node id="2762183308" visible="true" version="1" changeset="21465334" timestamp="2014-04-02T20:20:47Z" user="Souchong" uid="255141" lat="-34.4575846" lon="-58.5065238"/>
 <node id="2762183310" visible="true" version="1" changeset="21465334" timestamp="2014-04-02T20:20:47Z" user="Souchong" uid="255141" lat="-34.4576198" lon="-58.5065163"/>
 <node id="2762183311" visible="true" version="1" changeset="21465334" timestamp="2014-04-02T20:20:47Z" user="Souchong" uid="255141" lat="-34.4576497" lon="-58.5065188"/>
 <node id="2762183313" visible="true" version="1" changeset="21465334" timestamp="2014-04-02T20:20:47Z" user="Souchong" uid="255141" lat="-34.4576694" lon="-58.5065088"/>
 <node id="2762183315" visible="true" version="1" changeset="21465334" timestamp="2014-04-02T20:20:47Z" user="Souchong" uid="255141" lat="-34.4576921" lon="-58.5063282"/>
 <node id="2762183317" visible="true" version="1" changeset="21465334" timestamp="2014-04-02T20:20:47Z" user="Souchong" uid="255141" lat="-34.4577025" lon="-58.5062931"/>
 <node id="2762183318" visible="true" version="1" changeset="21465334" timestamp="2014-04-02T20:20:47Z" user="Souchong" uid="255141" lat="-34.4577025" lon="-58.5063633"/>
 <node id="2762183320" visible="true" version="1" changeset="21465334" timestamp="2014-04-02T20:20:47Z" user="Souchong" uid="255141" lat="-34.4577076" lon="-58.5064749"/>
 <node id="2762183322" visible="true" version="1" changeset="21465334" timestamp="2014-04-02T20:20:47Z" user="Souchong" uid="255141" lat="-34.4577211" lon="-58.5064160"/>
 <node id="2762183323" visible="true" version="1" changeset="21465334" timestamp="2014-04-02T20:20:47Z" user="Souchong" uid="255141" lat="-34.4577231" lon="-58.5064436"/>
 <node id="2762183325" visible="true" version="1" changeset="21465334" timestamp="2014-04-02T20:20:47Z" user="Souchong" uid="255141" lat="-34.4577428" lon="-58.5062267"/>
 <node id="2762183327" visible="true" version="1" changeset="21465334" timestamp="2014-04-02T20:20:47Z" user="Souchong" uid="255141" lat="-34.4579184" lon="-58.5062215"/>
 <node id="2762183329" visible="true" version="1" changeset="21465334" timestamp="2014-04-02T20:20:47Z" user="Souchong" uid="255141" lat="-34.4580083" lon="-58.5061364"/>
 <node id="2762183330" visible="true" version="1" changeset="21465334" timestamp="2014-04-02T20:20:47Z" user="Souchong" uid="255141" lat="-34.4580395" lon="-58.5061757"/>
 <node id="2762183331" visible="true" version="1" changeset="21465334" timestamp="2014-04-02T20:20:47Z" user="Souchong" uid="255141" lat="-34.4580663" lon="-58.5061782"/>
 <node id="2762183334" visible="true" version="1" changeset="21465334" timestamp="2014-04-02T20:20:47Z" user="Souchong" uid="255141" lat="-34.4584674" lon="-58.5060165"/>
 <node id="2762183335" visible="true" version="1" changeset="21465334" timestamp="2014-04-02T20:20:47Z" user="Souchong" uid="255141" lat="-34.4594493" lon="-58.5052007"/>
 <node id="2762183337" visible="true" version="1" changeset="21465334" timestamp="2014-04-02T20:20:47Z" user="Souchong" uid="255141" lat="-34.4596726" lon="-58.5050687"/>
 <node id="2762183339" visible="true" version="1" changeset="21465334" timestamp="2014-04-02T20:20:47Z" user="Souchong" uid="255141" lat="-34.4597822" lon="-58.5049847"/>
 <node id="2762183343" visible="true" version="1" changeset="21465334" timestamp="2014-04-02T20:20:47Z" user="Souchong" uid="255141" lat="-34.4598256" lon="-58.5049308"/>
 <node id="2762183344" visible="true" version="1" changeset="21465334" timestamp="2014-04-02T20:20:47Z" user="Souchong" uid="255141" lat="-34.4600933" lon="-58.5055664"/>
 <node id="2762183346" visible="true" version="1" changeset="21465334" timestamp="2014-04-02T20:20:47Z" user="Souchong" uid="255141" lat="-34.4601336" lon="-58.5055852"/>
 <node id="2762183348" visible="true" version="1" changeset="21465334" timestamp="2014-04-02T20:20:47Z" user="Souchong" uid="255141" lat="-34.4602298" lon="-58.5055777"/>
 <node id="2762183355" visible="true" version="1" changeset="21465334" timestamp="2014-04-02T20:20:47Z" user="Souchong" uid="255141" lat="-34.4605088" lon="-58.5046149"/>
 <node id="2762183357" visible="true" version="1" changeset="21465334" timestamp="2014-04-02T20:20:47Z" user="Souchong" uid="255141" lat="-34.4609130" lon="-58.5044645"/>
 <node id="2762183362" visible="true" version="1" changeset="21465334" timestamp="2014-04-02T20:20:47Z" user="Souchong" uid="255141" lat="-34.4612231" lon="-58.5043868"/>
 <node id="2762183368" visible="true" version="2" changeset="162552212" timestamp="2025-02-15T21:48:18Z" user="NickJOB" uid="245634" lat="-34.4613104" lon="-58.5052711"/>
 <node id="2762183376" visible="true" version="2" changeset="162552212" timestamp="2025-02-15T21:48:18Z" user="NickJOB" uid="245634" lat="-34.4614495" lon="-58.5050026"/>
 <node id="2762183379" visible="true" version="1" changeset="21465334" timestamp="2014-04-02T20:20:47Z" user="Souchong" uid="255141" lat="-34.4615033" lon="-58.5043010"/>
 <node id="2762183382" visible="true" version="1" changeset="21465334" timestamp="2014-04-02T20:20:47Z" user="Souchong" uid="255141" lat="-34.4618278" lon="-58.5042157"/>
 <node id="2762183385" visible="true" version="1" changeset="21465334" timestamp="2014-04-02T20:20:47Z" user="Souchong" uid="255141" lat="-34.4618630" lon="-58.5042145"/>
 <node id="2762183387" visible="true" version="1" changeset="21465334" timestamp="2014-04-02T20:20:47Z" user="Souchong" uid="255141" lat="-34.4618929" lon="-58.5042182"/>
 <node id="2762183390" visible="true" version="1" changeset="21465334" timestamp="2014-04-02T20:20:47Z" user="Souchong" uid="255141" lat="-34.4619095" lon="-58.5042496"/>
 <node id="2762183391" visible="true" version="1" changeset="21465334" timestamp="2014-04-02T20:20:47Z" user="Souchong" uid="255141" lat="-34.4619219" lon="-58.5042721"/>
 <node id="2762183392" visible="true" version="1" changeset="21465334" timestamp="2014-04-02T20:20:47Z" user="Souchong" uid="255141" lat="-34.4620387" lon="-58.5041831"/>
 <node id="2762183394" visible="true" version="1" changeset="21465334" timestamp="2014-04-02T20:20:48Z" user="Souchong" uid="255141" lat="-34.4621110" lon="-58.5041405"/>
 <node id="2762183395" visible="true" version="1" changeset="21465334" timestamp="2014-04-02T20:20:48Z" user="Souchong" uid="255141" lat="-34.4622082" lon="-58.5041104"/>
 <node id="2762183397" visible="true" version="1" changeset="21465334" timestamp="2014-04-02T20:20:48Z" user="Souchong" uid="255141" lat="-34.4623198" lon="-58.5040929"/>
 <node id="2762183399" visible="true" version="1" changeset="21465334" timestamp="2014-04-02T20:20:48Z" user="Souchong" uid="255141" lat="-34.4625534" lon="-58.5040854"/>
 <node id="2762650518" visible="true" version="1" changeset="21467432" timestamp="2014-04-02T22:29:53Z" user="Souchong" uid="255141" lat="-34.4498964" lon="-58.5167284"/>
 <node id="2762650543" visible="true" version="1" changeset="21467432" timestamp="2014-04-02T22:29:53Z" user="Souchong" uid="255141" lat="-34.4500579" lon="-58.5170637"/>
 <node id="2762650548" visible="true" version="1" changeset="21467432" timestamp="2014-04-02T22:29:53Z" user="Souchong" uid="255141" lat="-34.4501017" lon="-58.5172630"/>
 <node id="2762650555" visible="true" version="1" changeset="21467432" timestamp="2014-04-02T22:29:53Z" user="Souchong" uid="255141" lat="-34.4501396" lon="-58.5166597"/>
 <node id="2762650583" visible="true" version="1" changeset="21467432" timestamp="2014-04-02T22:29:54Z" user="Souchong" uid="255141" lat="-34.4503378" lon="-58.5165850"/>
 <node id="2762650593" visible="true" version="1" changeset="21467432" timestamp="2014-04-02T22:29:54Z" user="Souchong" uid="255141" lat="-34.4503563" lon="-58.5165517"/>
 <node id="2762650608" visible="true" version="1" changeset="21467432" timestamp="2014-04-02T22:29:54Z" user="Souchong" uid="255141" lat="-34.4504440" lon="-58.5180167"/>
 <node id="2762650620" visible="true" version="1" changeset="21467432" timestamp="2014-04-02T22:29:54Z" user="Souchong" uid="255141" lat="-34.4505406" lon="-58.5176107"/>
 <node id="2762650625" visible="true" version="1" changeset="21467432" timestamp="2014-04-02T22:29:54Z" user="Souchong" uid="255141" lat="-34.4505707" lon="-58.5175742"/>
 <node id="2762650661" visible="true" version="1" changeset="21467432" timestamp="2014-04-02T22:29:55Z" user="Souchong" uid="255141" lat="-34.4507213" lon="-58.5180025"/>
 <node id="2762650667" visible="true" version="1" changeset="21467432" timestamp="2014-04-02T22:29:55Z" user="Souchong" uid="255141" lat="-34.4507459" lon="-58.5180308"/>
 <node id="2762650675" visible="true" version="1" changeset="21467432" timestamp="2014-04-02T22:29:55Z" user="Souchong" uid="255141" lat="-34.4507966" lon="-58.5181453"/>
 <node id="2762650695" visible="true" version="1" changeset="21467432" timestamp="2014-04-02T22:29:55Z" user="Souchong" uid="255141" lat="-34.4509298" lon="-58.5184525"/>
 <node id="2762650720" visible="true" version="1" changeset="21467432" timestamp="2014-04-02T22:29:55Z" user="Souchong" uid="255141" lat="-34.4510459" lon="-58.5190935"/>
 <node id="2762650722" visible="true" version="1" changeset="21467432" timestamp="2014-04-02T22:29:55Z" user="Souchong" uid="255141" lat="-34.4510697" lon="-58.5191627"/>
 <node id="2762650729" visible="true" version="1" changeset="21467432" timestamp="2014-04-02T22:29:55Z" user="Souchong" uid="255141" lat="-34.4510949" lon="-58.5192930"/>
 <node id="2762650733" visible="true" version="1" changeset="21467432" timestamp="2014-04-02T22:29:55Z" user="Souchong" uid="255141" lat="-34.4511129" lon="-58.5160554"/>
 <node id="2762650736" visible="true" version="1" changeset="21467432" timestamp="2014-04-02T22:29:55Z" user="Souchong" uid="255141" lat="-34.4511230" lon="-58.5193482"/>
 <node id="2762650743" visible="true" version="1" changeset="21467432" timestamp="2014-04-02T22:29:56Z" user="Souchong" uid="255141" lat="-34.4511375" lon="-58.5160139"/>
 <node id="2762650746" visible="true" version="1" changeset="21467432" timestamp="2014-04-02T22:29:56Z" user="Souchong" uid="255141" lat="-34.4511491" lon="-58.5193846"/>
 <node id="2762650757" visible="true" version="1" changeset="21467432" timestamp="2014-04-02T22:29:56Z" user="Souchong" uid="255141" lat="-34.4511840" lon="-58.5194351"/>
 <node id="2762650774" visible="true" version="1" changeset="21467432" timestamp="2014-04-02T22:29:56Z" user="Souchong" uid="255141" lat="-34.4511995" lon="-58.5194867"/>
 <node id="2762650785" visible="true" version="1" changeset="21467432" timestamp="2014-04-02T22:29:56Z" user="Souchong" uid="255141" lat="-34.4512299" lon="-58.5195818"/>
 <node id="2762650923" visible="true" version="1" changeset="21467432" timestamp="2014-04-02T22:29:57Z" user="Souchong" uid="255141" lat="-34.4514874" lon="-58.5196311"/>
 <node id="2762650988" visible="true" version="1" changeset="21467432" timestamp="2014-04-02T22:29:58Z" user="Souchong" uid="255141" lat="-34.4515745" lon="-58.5201031"/>
 <node id="2762651006" visible="true" version="1" changeset="21467432" timestamp="2014-04-02T22:29:58Z" user="Souchong" uid="255141" lat="-34.4516093" lon="-58.5200772"/>
 <node id="2762651145" visible="true" version="1" changeset="21467432" timestamp="2014-04-02T22:29:59Z" user="Souchong" uid="255141" lat="-34.4521188" lon="-58.5171963"/>
 <node id="2762651149" visible="true" version="1" changeset="21467432" timestamp="2014-04-02T22:29:59Z" user="Souchong" uid="255141" lat="-34.4521566" lon="-58.5172562"/>
 <node id="2762651175" visible="true" version="1" changeset="21467432" timestamp="2014-04-02T22:29:59Z" user="Souchong" uid="255141" lat="-34.4525641" lon="-58.5181002"/>
 <node id="2762651178" visible="true" version="1" changeset="21467432" timestamp="2014-04-02T22:29:59Z" user="Souchong" uid="255141" lat="-34.4525704" lon="-58.5174726"/>
 <node id="2762651181" visible="true" version="1" changeset="21467432" timestamp="2014-04-02T22:29:59Z" user="Souchong" uid="255141" lat="-34.4525718" lon="-58.5174544"/>
 <node id="2762651223" visible="true" version="1" changeset="21467432" timestamp="2014-04-02T22:29:59Z" user="Souchong" uid="255141" lat="-34.4529832" lon="-58.5182870"/>
 <node id="2762651246" visible="true" version="2" changeset="21467547" timestamp="2014-04-02T22:41:32Z" user="Souchong" uid="255141" lat="-34.4536304" lon="-58.5126304"/>
 <node id="2762651253" visible="true" version="1" changeset="21467432" timestamp="2014-04-02T22:30:00Z" user="Souchong" uid="255141" lat="-34.4536603" lon="-58.5066760"/>
 <node id="2762651260" visible="true" version="1" changeset="21467432" timestamp="2014-04-02T22:30:00Z" user="Souchong" uid="255141" lat="-34.4537608" lon="-58.5124259"/>
 <node id="2762651266" visible="true" version="1" changeset="21467432" timestamp="2014-04-02T22:30:00Z" user="Souchong" uid="255141" lat="-34.4537751" lon="-58.5144027"/>
 <node id="2762651270" visible="true" version="1" changeset="21467432" timestamp="2014-04-02T22:30:00Z" user="Souchong" uid="255141" lat="-34.4537906" lon="-58.5144215"/>
 <node id="2762651272" visible="true" version="1" changeset="21467432" timestamp="2014-04-02T22:30:00Z" user="Souchong" uid="255141" lat="-34.4538098" lon="-58.5144406"/>
 <node id="2762651285" visible="true" version="1" changeset="21467432" timestamp="2014-04-02T22:30:00Z" user="Souchong" uid="255141" lat="-34.4542403" lon="-58.5097316"/>
 <node id="2762651323" visible="true" version="1" changeset="21467432" timestamp="2014-04-02T22:30:00Z" user="Souchong" uid="255141" lat="-34.4545760" lon="-58.5184216"/>
 <node id="2762651333" visible="true" version="1" changeset="21467432" timestamp="2014-04-02T22:30:00Z" user="Souchong" uid="255141" lat="-34.4547347" lon="-58.5185867"/>
 <node id="2762651341" visible="true" version="1" changeset="21467432" timestamp="2014-04-02T22:30:00Z" user="Souchong" uid="255141" lat="-34.4549395" lon="-58.5164928"/>
 <node id="2762651342" visible="true" version="1" changeset="21467432" timestamp="2014-04-02T22:30:00Z" user="Souchong" uid="255141" lat="-34.4557608" lon="-58.5173791"/>
 <node id="2762651343" visible="true" version="1" changeset="21467432" timestamp="2014-04-02T22:30:00Z" user="Souchong" uid="255141" lat="-34.4557772" lon="-58.5173754"/>
 <node id="2762680704" visible="true" version="1" changeset="21467547" timestamp="2014-04-02T22:41:29Z" user="Souchong" uid="255141" lat="-34.4507122" lon="-58.5163713"/>
 <node id="4977397551" visible="true" version="1" changeset="50379298" timestamp="2017-07-18T13:19:43Z" user="juanperez79" uid="6218510" lat="-34.4568273" lon="-58.5059176"/>
 <node id="4977397568" visible="true" version="1" changeset="50379298" timestamp="2017-07-18T13:19:43Z" user="juanperez79" uid="6218510" lat="-34.4586304" lon="-58.5059646"/>
 <node id="5016782354" visible="true" version="1" changeset="50867826" timestamp="2017-08-05T17:43:16Z" user="juanperez79" uid="6218510" lat="-34.4496277" lon="-58.5165878"/>
 <node id="5866018445" visible="true" version="2" changeset="172457308" timestamp="2025-09-25T20:17:30Z" user="muralito" uid="755114" lat="-34.4565665" lon="-58.5075726"/>
 <node id="5866018447" visible="true" version="1" changeset="62111659" timestamp="2018-08-29T16:04:50Z" user="Bernd Oppermann Airola" uid="4900960" lat="-34.4573787" lon="-58.5066708"/>
 <way id="143403390" visible="true" version="20" changeset="172457308" timestamp="2025-09-25T20:17:30Z" user="muralito" uid="755114">
  <nd ref="319982883"/>
  <nd ref="319982889"/>
  <nd ref="1570109924"/>
  <nd ref="319982895"/>
  <nd ref="94302956"/>
  <nd ref="1569217780"/>
  <nd ref="1569217782"/>
  <nd ref="2762651253"/>
  <nd ref="319982864"/>
  <nd ref="1570110041"/>
  <nd ref="2762183291"/>
  <nd ref="2762183292"/>
  <nd ref="2762183294"/>
  <nd ref="2762183296"/>
  <nd ref="4977397551"/>
  <nd ref="2762183297"/>
  <nd ref="2762183299"/>
  <nd ref="2762183306"/>
  <nd ref="673707923"/>
  <nd ref="2762183335"/>
  <nd ref="2762183337"/>
  <nd ref="2762183339"/>
  <nd ref="2762183343"/>
  <nd ref="2762183355"/>
  <nd ref="2762183357"/>
  <nd ref="2762183362"/>
  <nd ref="2762183379"/>
  <nd ref="2762183382"/>
  <nd ref="2762183385"/>
  <nd ref="2762183387"/>
  <nd ref="2762183390"/>
  <nd ref="2762183391"/>
  <nd ref="2762183392"/>
  <nd ref="2762183394"/>
  <nd ref="2762183395"/>
  <nd ref="2762183397"/>
  <nd ref="2762183399"/>
  <nd ref="94287519"/>
  <nd ref="94328821"/>
 </way>
 <way id="180878266" visible="true" version="10" changeset="21465662" timestamp="2014-04-02T20:38:31Z" user="Souchong" uid="255141">
  <nd ref="319982883"/>
  <nd ref="94293444"/>
 </way>
 <way id="271241257" visible="true" version="2" changeset="21465662" timestamp="2014-04-02T20:38:31Z" user="Souchong" uid="255141">
  <nd ref="331867643"/>
  <nd ref="319983037"/>
 </way>
 <way id="271270405" visible="true" version="4" changeset="66519347" timestamp="2019-01-21T22:11:44Z" user="serock" uid="1810448">
  <nd ref="331867643"/>
  <nd ref="1600137848"/>
  <nd ref="94310990"/>
  <nd ref="1600137850"/>
  <nd ref="319983150"/>
  <nd ref="319983144"/>
 </way>
 <way id="271301678" visible="true" version="1" changeset="21467432" timestamp="2014-04-02T22:30:02Z" user="Souchong" uid="255141">
  <nd ref="94310361"/>
  <nd ref="94299928"/>
  <nd ref="94341504"/>
  <nd ref="94325113"/>
  <nd ref="1628455999"/>
  <nd ref="2761940576"/>
  <nd ref="319983062"/>
  <nd ref="319983082"/>
  <nd ref="319983088"/>
  <nd ref="2761940607"/>
  <nd ref="2761940610"/>
  <nd ref="2761940613"/>
  <nd ref="2761940615"/>
  <nd ref="1628456003"/>
  <nd ref="319983094"/>
  <nd ref="319983100"/>
  <nd ref="319982966"/>
  <nd ref="1628456001"/>
  <nd ref="94310361"/>
 </way>
 <way id="271301681" visible="true" version="1" changeset="21467432" timestamp="2014-04-02T22:30:02Z" user="Souchong" uid="255141">
  <nd ref="319983144"/>
  <nd ref="94300547"/>
 </way>
 <way id="271301683" visible="true" version="1" changeset="21467432" timestamp="2014-04-02T22:30:02Z" user="Souchong" uid="255141">
  <nd ref="94300547"/>
  <nd ref="2761940571"/>
  <nd ref="2761940573"/>
  <nd ref="94342288"/>
  <nd ref="1628455506"/>
  <nd ref="319983018"/>
  <nd ref="1628455615"/>
  <nd ref="1628455663"/>
  <nd ref="319983075"/>
  <nd ref="319983069"/>
  <nd ref="2466878038"/>
  <nd ref="2466878021"/>
  <nd ref="1569217807"/>
  <nd ref="1569217793"/>
  <nd ref="1569217791"/>
  <nd ref="1569217788"/>
  <nd ref="1569217786"/>
  <nd ref="2762651285"/>
  <nd ref="1569217784"/>
  <nd ref="1569217790"/>
  <nd ref="1569217806"/>
  <nd ref="1569217808"/>
  <nd ref="1569217811"/>
  <nd ref="1569217810"/>
  <nd ref="1569217813"/>
  <nd ref="1569217815"/>
  <nd ref="1569217817"/>
  <nd ref="2761940589"/>
  <nd ref="2761940600"/>
  <nd ref="94307560"/>
  <nd ref="1628455997"/>
  <nd ref="1628455996"/>
  <nd ref="94296434"/>
  <nd ref="1628455995"/>
  <nd ref="94335475"/>
  <nd ref="1628824559"/>
  <nd ref="1628824560"/>
  <nd ref="1628824558"/>
  <nd ref="1628824557"/>
  <nd ref="94320767"/>
  <nd ref="1628824556"/>
  <nd ref="1628824555"/>
  <nd ref="1628824554"/>
  <nd ref="1628824553"/>
  <nd ref="94304772"/>
  <nd ref="1628824552"/>
  <nd ref="319982914"/>
  <nd ref="94293444"/>
 </way>
 <way id="271306732" visible="true" version="2" changeset="50867826" timestamp="2017-08-05T17:43:21Z" user="juanperez79" uid="6218510">
  <nd ref="2762680704"/>
  <nd ref="1628455633"/>
  <nd ref="2762650593"/>
  <nd ref="1628455599"/>
  <nd ref="2762650583"/>
  <nd ref="1628455608"/>
  <nd ref="1628455595"/>
  <nd ref="1628455572"/>
  <nd ref="2762650555"/>
  <nd ref="94321311"/>
  <nd ref="2762650625"/>
  <nd ref="2762650620"/>
  <nd ref="2762650661"/>
  <nd ref="2762650667"/>
  <nd ref="2762650675"/>
  <nd ref="2762650695"/>
  <nd ref="2762650923"/>
  <nd ref="331869659"/>
  <nd ref="2762651006"/>
  <nd ref="2762650988"/>
  <nd ref="331869664"/>
  <nd ref="2762650785"/>
  <nd ref="2762650774"/>
  <nd ref="2762650757"/>
  <nd ref="2762650746"/>
  <nd ref="2762650736"/>
  <nd ref="2762650729"/>
  <nd ref="2762650722"/>
  <nd ref="2762650720"/>
  <nd ref="2762650608"/>
  <nd ref="2762650548"/>
  <nd ref="2762650543"/>
  <nd ref="2762650518"/>
  <nd ref="94336976"/>
  <nd ref="5016782354"/>
  <nd ref="94294604"/>
  <nd ref="1569217681"/>
  <nd ref="1569217666"/>
  <nd ref="319983030"/>
  <nd ref="319983037"/>
 </way>
 <way id="271306733" visible="true" version="1" changeset="21467547" timestamp="2014-04-02T22:41:30Z" user="Souchong" uid="255141">
  <nd ref="2762651246"/>
  <nd ref="319982998"/>
  <nd ref="1600137896"/>
  <nd ref="1600137903"/>
  <nd ref="331869697"/>
  <nd ref="331869692"/>
  <nd ref="331869693"/>
  <nd ref="331869717"/>
  <nd ref="2762651343"/>
  <nd ref="2762651342"/>
  <nd ref="2561121676"/>
  <nd ref="331869716"/>
  <nd ref="2561121716"/>
  <nd ref="331869713"/>
  <nd ref="331869714"/>
  <nd ref="2561121669"/>
  <nd ref="2762651333"/>
  <nd ref="331869707"/>
  <nd ref="2561121735"/>
  <nd ref="2762651323"/>
  <nd ref="331869715"/>
  <nd ref="331869701"/>
  <nd ref="2561121721"/>
  <nd ref="331869702"/>
  <nd ref="2561121670"/>
  <nd ref="2762651341"/>
  <nd ref="331869698"/>
  <nd ref="331869699"/>
  <nd ref="331869700"/>
  <nd ref="2561121639"/>
  <nd ref="331869696"/>
  <nd ref="331869695"/>
  <nd ref="2561121677"/>
  <nd ref="331869718"/>
  <nd ref="331869719"/>
  <nd ref="2561121678"/>
  <nd ref="331869720"/>
  <nd ref="2762651272"/>
  <nd ref="2762651270"/>
  <nd ref="2762651266"/>
  <nd ref="331869721"/>
  <nd ref="331869731"/>
  <nd ref="331869747"/>
  <nd ref="331869722"/>
  <nd ref="1600137899"/>
  <nd ref="331869691"/>
  <nd ref="1600137890"/>
  <nd ref="331869690"/>
  <nd ref="319983004"/>
  <nd ref="319983174"/>
  <nd ref="331869670"/>
  <nd ref="331869686"/>
  <nd ref="1628455985"/>
  <nd ref="331869687"/>
  <nd ref="331869689"/>
  <nd ref="331869685"/>
  <nd ref="1628455988"/>
  <nd ref="1628455990"/>
  <nd ref="331869682"/>
  <nd ref="331869683"/>
  <nd ref="331869684"/>
  <nd ref="331869681"/>
  <nd ref="2762651181"/>
  <nd ref="2762651178"/>
  <nd ref="2561121711"/>
  <nd ref="331869678"/>
  <nd ref="2762651223"/>
  <nd ref="2561121713"/>
  <nd ref="331869679"/>
  <nd ref="331869680"/>
  <nd ref="2561121740"/>
  <nd ref="331869677"/>
  <nd ref="331869673"/>
  <nd ref="331869675"/>
  <nd ref="331869676"/>
  <nd ref="331869674"/>
  <nd ref="331869671"/>
  <nd ref="331869672"/>
  <nd ref="2762651175"/>
  <nd ref="2762651149"/>
  <nd ref="2762651145"/>
  <nd ref="331869668"/>
  <nd ref="319983011"/>
  <nd ref="1628455812"/>
  <nd ref="2762650743"/>
  <nd ref="2762650733"/>
  <nd ref="1628455701"/>
  <nd ref="2762680704"/>
 </way>
 <way id="1433125565" visible="true" version="1" changeset="172457308" timestamp="2025-09-25T20:17:30Z" user="muralito" uid="755114">
  <nd ref="2762183348"/>
  <nd ref="1628859636"/>
  <nd ref="2762183346"/>
  <nd ref="2762183344"/>
  <nd ref="1628859634"/>
  <nd ref="1628859631"/>
  <nd ref="1628859630"/>
  <nd ref="1628859628"/>
  <nd ref="1628859627"/>
  <nd ref="4977397568"/>
 </way>
 <way id="1433125566" visible="true" version="1" changeset="172457308" timestamp="2025-09-25T20:17:30Z" user="muralito" uid="755114">
  <nd ref="94328821"/>
  <nd ref="2762183376"/>
  <nd ref="319982933"/>
  <nd ref="2762183368"/>
  <nd ref="319982940"/>
  <nd ref="319982946"/>
  <nd ref="319982953"/>
  <nd ref="319982927"/>
  <nd ref="319982921"/>
  <nd ref="2762183348"/>
 </way>
 <way id="1433125567" visible="true" version="1" changeset="172457308" timestamp="2025-09-25T20:17:30Z" user="muralito" uid="755114">
  <nd ref="2762183317"/>
  <nd ref="2762183315"/>
  <nd ref="2762183318"/>
  <nd ref="2762183322"/>
  <nd ref="2762183323"/>
  <nd ref="2762183320"/>
  <nd ref="2762183313"/>
  <nd ref="2762183311"/>
  <nd ref="2762183310"/>
  <nd ref="2762183308"/>
  <nd ref="2762183305"/>
  <nd ref="2762183303"/>
  <nd ref="2762183301"/>
  <nd ref="5866018447"/>
  <nd ref="5866018445"/>
  <nd ref="319982972"/>
  <nd ref="1628456005"/>
  <nd ref="2761940627"/>
  <nd ref="2761940611"/>
  <nd ref="2761940605"/>
  <nd ref="2761940604"/>
  <nd ref="2761940602"/>
  <nd ref="319982978"/>
  <nd ref="2761940596"/>
  <nd ref="2761940594"/>
  <nd ref="2761940592"/>
  <nd ref="2761940591"/>
  <nd ref="2761940588"/>
  <nd ref="2761940587"/>
  <nd ref="2761940586"/>
  <nd ref="2761940585"/>
  <nd ref="2761940583"/>
  <nd ref="2761940582"/>
  <nd ref="2761940580"/>
  <nd ref="2761940579"/>
  <nd ref="2761940575"/>
  <nd ref="319982985"/>
  <nd ref="2761940574"/>
  <nd ref="2762183286"/>
  <nd ref="2762183284"/>
  <nd ref="2762183281"/>
  <nd ref="319982992"/>
  <nd ref="2762183278"/>
  <nd ref="2762183277"/>
  <nd ref="2762183274"/>
  <nd ref="2762183273"/>
  <nd ref="2762183269"/>
  <nd ref="2762183267"/>
  <nd ref="2762651260"/>
  <nd ref="2762651246"/>
 </way>
 <way id="1433125568" visible="true" version="1" changeset="172457308" timestamp="2025-09-25T20:17:30Z" user="muralito" uid="755114">
  <nd ref="4977397568"/>
  <nd ref="2762183334"/>
  <nd ref="2762183331"/>
  <nd ref="2762183330"/>
  <nd ref="2762183329"/>
  <nd ref="2762183327"/>
  <nd ref="319982959"/>
  <nd ref="2762183325"/>
  <nd ref="2762183317"/>
 </way>
 <relation id="3623442" visible="true" version="7" changeset="172457308" timestamp="2025-09-25T20:17:30Z" user="muralito" uid="755114">
  <member type="way" ref="271301681" role="outer"/>
  <member type="way" ref="271301683" role="outer"/>
  <member type="way" ref="180878266" role="outer"/>
  <member type="way" ref="143403390" role="outer"/>
  <member type="way" ref="1433125566" role="outer"/>
  <member type="way" ref="1433125565" role="outer"/>
  <member type="way" ref="1433125568" role="outer"/>
  <member type="way" ref="1433125567" role="outer"/>
  <member type="way" ref="271306733" role="outer"/>
  <member type="way" ref="271306732" role="outer"/>
  <member type="way" ref="271241257" role="outer"/>
  <member type="way" ref="271270405" role="outer"/>
  <member type="way" ref="271301678" role="inner"/>
  <tag k="leisure" v="marina"/>
  <tag k="natural" v="water"/>
  <tag k="seamark:harbour:category" v="marina"/>
  <tag k="seamark:type" v="harbour"/>
  <tag k="type" v="multipolygon"/>
 </relation>
</osm>
