{"type": "FeatureCollection", "features": [{"type": "Feature", "properties": {"cid": 6, "px": 20, "area_m2": 2000, "tipo": "agua_2023->tierra_2025/26", "lat": -34.459789, "lon": -58.499274, "ndvi_despues_DJF25_26": 0.679}, "geometry": {"type": "MultiPolygon", "coordinates": [[[[-58.49894811170088, -34.45981103436097], [-58.498954557799, -34.460171640240446], [-58.499172236753715, -34.460168970379705], [-58.499165789720344, -34.459808364536045], [-58.49894811170088, -34.45981103436097]]], [[[-58.49960114567336, -34.459803023723936], [-58.49959469688408, -34.459442417929544], [-58.499377019857135, -34.45944508849349], [-58.49938024376984, -34.4596253914114], [-58.499162566246625, -34.45962806160584], [-58.499165789720344, -34.459808364536045], [-58.49960114567336, -34.459803023723936]]]]}}, {"type": "Feature", "properties": {"cid": 12, "px": 12, "area_m2": 1200, "tipo": "agua_2023->tierra_2025/26", "lat": -34.473334, "lon": -58.486886, "ndvi_despues_DJF25_26": 0.683}, "geometry": {"type": "MultiPolygon", "coordinates": [[[[-58.48655931192248, -34.47330770049544], [-58.4865625099366, -34.47348800405837], [-58.48699793942396, -34.47348270629857], [-58.48699474047394, -34.47330240277114], [-58.48655931192248, -34.47330770049544]]], [[[-58.48721245470704, -34.47329975332758], [-58.48720925531751, -34.47311944981235], [-58.48699154155234, -34.47312209923815], [-58.48699474047394, -34.47330240277114], [-58.48721245470704, -34.47329975332758]]]]}}, {"type": "Feature", "properties": {"cid": 9, "px": 8, "area_m2": 800, "tipo": "agua_2023->tierra_2025/26", "lat": -34.470561, "lon": -58.489995, "ndvi_despues_DJF25_26": 0.632}, "geometry": {"type": "MultiPolygon", "coordinates": [[[[-58.48999786312234, -34.47074102880206], [-58.49021557040635, -34.47073837418102], [-58.49021236486444, -34.47055807083648], [-58.4899946580483, -34.47056072543971], [-58.48999786312234, -34.47074102880206]]], [[[-58.489991453002744, -34.47038042207178], [-58.48977374662601, -34.470383076269634], [-58.489776951203694, -34.47056337965536], [-58.4899946580483, -34.47056072543971], [-58.489991453002744, -34.47038042207178]]]]}}, {"type": "Feature", "properties": {"cid": 1, "px": 4, "area_m2": 400, "tipo": "agua_2023->tierra_2025/26", "lat": -34.443843, "lon": -58.514227, "ndvi_despues_DJF25_26": 0.661}, "geometry": {"type": "Polygon", "coordinates": [[[-58.514334379068885, -34.44375124989528], [-58.51433763322652, -34.44393155203468], [-58.514119997916666, -34.44393424779248], [-58.51411674422627, -34.443753945635], [-58.514334379068885, -34.44375124989528]]]}}, {"type": "Feature", "properties": {"cid": 2, "px": 4, "area_m2": 400, "tipo": "agua_2023->tierra_2025/26", "lat": -34.444012, "lon": -58.515101, "ndvi_despues_DJF25_26": 0.737}, "geometry": {"type": "Polygon", "coordinates": [[[-58.51520817417671, -34.44392076513163], [-58.51521143023223, -34.444101067193074], [-58.51499379457082, -34.444103764517685], [-58.514990538982545, -34.44392346243815], [-58.51520817417671, -34.44392076513163]]]}}, {"type": "Feature", "properties": {"cid": 3, "px": 4, "area_m2": 400, "tipo": "agua_2023->tierra_2025/26", "lat": -34.44454, "lon": -58.516199, "ndvi_despues_DJF25_26": 0.619}, "geometry": {"type": "Polygon", "coordinates": [[[-58.51630612497554, -34.44444817868736], [-58.51630938345413, -34.44462848064152], [-58.51609174653567, -34.44463117995636], [-58.51608848852433, -34.444450877984096], [-58.51630612497554, -34.44444817868736]]]}}, {"type": "Feature", "properties": {"cid": 4, "px": 4, "area_m2": 400, "tipo": "agua_2023->tierra_2025/26", "lat": -34.448829, "lon": -58.519324, "ndvi_despues_DJF25_26": 0.157}, "geometry": {"type": "Polygon", "coordinates": [[[-58.5194314007411, -34.44873758714364], [-58.51943466645755, -34.448917888709694], [-58.519217018729506, -34.44892059388056], [-58.519213753480415, -34.44874029229635], [-58.5194314007411, -34.44873758714364]]]}}, {"type": "Feature", "properties": {"cid": 7, "px": 4, "area_m2": 400, "tipo": "agua_2023->tierra_2025/26", "lat": -34.463347, "lon": -58.497378, "ndvi_despues_DJF25_26": 0.41}, "geometry": {"type": "Polygon", "coordinates": [[[-58.49748554512117, -34.4632554696194], [-58.49748876542612, -34.46343577258093], [-58.49727107782438, -34.46343843966418], [-58.497267857987126, -34.463258136684765], [-58.49748554512117, -34.4632554696194]]]}}, {"type": "Feature", "properties": {"cid": 10, "px": 4, "area_m2": 400, "tipo": "agua_2023->tierra_2025/26", "lat": -34.470835, "lon": -58.489673, "ndvi_despues_DJF25_26": 0.637}, "geometry": {"type": "Polygon", "coordinates": [[[-58.48978015580985, -34.4707436830355], [-58.489783360444484, -34.47092398641005], [-58.48956565263563, -34.47092664027371], [-58.489562448468895, -34.470746336881376], [-58.48978015580985, -34.4707436830355]]]}}, {"type": "Feature", "properties": {"cid": 11, "px": 4, "area_m2": 400, "tipo": "agua_2023->tierra_2025/26", "lat": -34.471206, "lon": -58.488808, "ndvi_despues_DJF25_26": 0.647}, "geometry": {"type": "Polygon", "coordinates": [[[-58.488915731829856, -34.47111490297933], [-58.48891893464986, -34.47129520641385], [-58.48870122579139, -34.47129785876275], [-58.48869802343927, -34.47111755531044], [-58.488915731829856, -34.47111490297933]]]}}, {"type": "Feature", "properties": {"cid": 14, "px": 4, "area_m2": 400, "tipo": "agua_2023->tierra_2025/26", "lat": -34.486097, "lon": -58.480361, "ndvi_despues_DJF25_26": 0.512}, "geometry": {"type": "Polygon", "coordinates": [[[-58.48046856456613, -34.48600561514432], [-58.48047175099089, -34.486185918829996], [-58.48025400261538, -34.48618855712516], [-58.480250816658874, -34.4860082534218], [-58.48046856456613, -34.48600561514432]]]}}, {"type": "Feature", "properties": {"cid": 13, "px": 3, "area_m2": 300, "tipo": "agua_2023->tierra_2025/26", "lat": -34.483585, "lon": -58.480517, "ndvi_despues_DJF25_26": 0.048}, "geometry": {"type": "Polygon", "coordinates": [[[-58.48053282825757, -34.483480043797776], [-58.4805344213853, -34.48357019567601], [-58.480643292160806, -34.483568876414296], [-58.48064488541265, -34.483659028286695], [-58.480427143620474, -34.48366166672204], [-58.480423957592045, -34.48348136295814], [-58.48053282825757, -34.483480043797776]]]}}, {"type": "Feature", "properties": {"cid": 8, "px": 2, "area_m2": 200, "tipo": "agua_2023->tierra_2025/26", "lat": -34.463578, "lon": -58.496947, "ndvi_despues_DJF25_26": 0.474}, "geometry": {"type": "Polygon", "coordinates": [[[-58.49705499988953, -34.46353125785651], [-58.497056609592185, -34.46362140935167], [-58.496838921465525, -34.463624075677856], [-58.49683731199673, -34.46353392417375], [-58.49705499988953, -34.46353125785651]]]}}, {"type": "Feature", "properties": {"cid": 5, "px": 1, "area_m2": 100, "tipo": "agua_2023->tierra_2025/26", "lat": -34.45255, "lon": -58.513786, "ndvi_despues_DJF25_26": 0.07}, "geometry": {"type": "Polygon", "coordinates": [[[-58.51383926641088, -34.45250398589754], [-58.513840893486226, -34.45259413685935], [-58.51373206457532, -34.4525954846397], [-58.51373043761685, -34.45250533367337], [-58.51383926641088, -34.45250398589754]]]}}]}