{"type": "FeatureCollection", "features": [{"type": "Feature", "properties": {"name": "franja costera (Tren de la Costa -> 1,5 km rio adentro)"}, "geometry": {"type": "Polygon", "coordinates": [[[-58.4812581, -34.488255000002056], [-58.481279499999765, -34.4876236750025], [-58.48133374999821, -34.48582050000235], [-58.48139819999815, -34.48519900000176], [-58.48165264999824, -34.484069150001744], [-58.482072970018216, -34.48288888000459], [-58.4827164999991, -34.48143813333464], [-58.4827576, -34.4814147], [-58.48299594999846, -34.480832550001686], [-58.483666399995215, -34.47942875000369], [-58.48414734999655, -34.47858025000317], [-58.48470857500664, -34.47771267500322], [-58.485053299996515, -34.477218150001626], [-58.48551034999668, -34.47671430000135], [-58.48626579999715, -34.476069700001005], [-58.48816550000171, -34.4749882000032], [-58.48889462499837, -34.47454957500112], [-58.49088414999803, -34.473351750000475], [-58.4917156, -34.4729506], [-58.49191600010293, -34.47282450008565], [-58.49234489999737, -34.47263935000082], [-58.4929647250579, -34.47240902505688], [-58.4935378251461, -34.47222817516438], [-58.49411709999929, -34.47207375000007], [-58.49513234999872, -34.471845400000184], [-58.49563119999796, -34.47172820000044], [-58.49606497275944, -34.471616209137345], [-58.49636000000001, -34.47150920000001], [-58.497173199998386, -34.471257950000286], [-58.498726399998006, -34.47060315000059], [-58.50118724999761, -34.46953660000085], [-58.502306599997645, -34.46891445000119], [-58.50465034999787, -34.46751455000085], [-58.50731628767501, -34.46594801261044], [-58.50776528762486, -34.46565327505793], [-58.50829084999701, -34.46539525000354], [-58.50871020001408, -34.46521026668176], [-58.50904964999882, -34.46509635000016], [-58.509623300003156, -34.464830360006324], [-58.51040099999795, -34.46447920000066], [-58.51074735011034, -34.46425795005377], [-58.51125099999848, -34.463823300000804], [-58.51354294999749, -34.46130705000169], [-58.51383944999742, -34.46090825000159], [-58.514928049998176, -34.45930890000108], [-58.515083299997855, -34.459108900000395], [-58.51597704999749, -34.45813575000132], [-58.517602599998376, -34.4565525000018], [-58.520266150000346, -34.45396830000275], [-58.5208568, -34.45342790000001], [-58.52166259999853, -34.45260340000128], [-58.52380734999881, -34.45055080000138], [-58.52447259999706, -34.44988835000167], [-58.52501379999657, -34.449383000001646], [-58.525495149996814, -34.44900835000175], [-58.5257560820267, -34.4488564793657], [-58.52494388156466, -34.44846304762883], [-58.52405293641909, -34.44804015327425], [-58.52392235966193, -34.44797453942664], [-58.52331746418665, -34.447691475390144], [-58.52276347004009, -34.44736501638606], [-58.52264789126592, -34.44730260410669], [-58.52255730800601, -34.44725299447924], [-58.52239293765863, -34.447167777035204], [-58.52148960063022, -34.446699381169424], [-58.521200652760015, -34.446549550506006], [-58.52056176803433, -34.446218182708066], [-58.52028191852462, -34.446073053011446], [-58.51964623319908, -34.44574348555689], [-58.51934898682442, -34.445589354015745], [-58.51873769711861, -34.44527228915209], [-58.5184129556954, -34.44510395469529], [-58.51782146352565, -34.44478979189615], [-58.517503722273915, -34.44461555813305], [-58.516920130137684, -34.4442957961235], [-58.51658869141623, -34.44411406090662], [-58.51652752753974, -34.444080543791074], [-58.516143799999995, -34.44333829999999], [-58.51565466023471, -34.443382128686174], [-58.515324975954066, -34.44274440058525], [-58.5148358390857, -34.44278822591817], [-58.51450616345286, -34.44215049532225], [-58.51401702948151, -34.44219431730206], [-58.51368736249611, -34.441556584211376], [-58.51319823142181, -34.4416004028382], [-58.512868573083544, -34.440962667252975], [-58.51237944490635, -34.44100648252695], [-58.51230846899894, -34.440869173948755], [-58.512189613382404, -34.44098013971928], [-58.511524331736986, -34.441642524488174], [-58.509379492233776, -34.44369491374012], [-58.50857365058661, -34.44451933483776], [-58.50798297968878, -34.44505967666805], [-58.50531931329783, -34.447643615104], [-58.503693691358926, -34.449226705497686], [-58.50279988635572, -34.45019976828055], [-58.50264462214079, -34.450399753293766], [-58.50155589280808, -34.451998999235855], [-58.50125936312504, -34.452397770699406], [-58.49896726898119, -34.454913797125265], [-58.49846360523251, -34.45534839742598], [-58.49811725728205, -34.45556961275163], [-58.497339584074794, -34.45592069425429], [-58.49676595278291, -34.456186626379136], [-58.496426520419114, -34.456300508589635], [-58.4960071855079, -34.4564854495586], [-58.495481638125426, -34.456743421670446], [-58.495032639794616, -34.457038114382186], [-58.49236673938163, -34.4586043845683], [-58.49002301876087, -34.4600040497741], [-58.48890368979475, -34.46062608739536], [-58.48644293142234, -34.461692388763666], [-58.4848897920385, -34.462347031742105], [-58.48407663757192, -34.46259819905449], [-58.483781624463504, -34.46270517827584], [-58.483347879308695, -34.462817124918026], [-58.48284906280461, -34.4629342740025], [-58.48183388250971, -34.46316252032888], [-58.48125464379646, -34.46331688646614], [-58.480681575238094, -34.463497678107274], [-58.48006177905073, -34.46372794023163], [-58.47963289525638, -34.463913046981446], [-58.47943249671539, -34.46403912685371], [-58.47860107157078, -34.464440193066224], [-58.47661157024101, -34.46563781881201], [-58.47588245397841, -34.46607637078866], [-58.47398278597722, -34.4671576802035], [-58.47322731640836, -34.467802205526894], [-58.47277023742562, -34.468306010937], [-58.47242547333521, -34.46880050289982], [-58.4718641752612, -34.469668024433844], [-58.4713831468321, -34.47051647915855], [-58.4707125542262, -34.47192021718314], [-58.47047414101506, -34.4725023455787], [-58.470433041702336, -34.47252577478988], [-58.46978935927201, -34.47397646250461], [-58.46936890462685, -34.475156695197356], [-58.46911431056737, -34.476286524761846], [-58.46904977357116, -34.47690802132059], [-58.46899525752989, -34.47871120004444], [-58.468973764625126, -34.47934252609906], [-58.46894323103638, -34.48025002765221], [-58.46889940324399, -34.48145053719677], [-58.48118404858439, -34.490363007845616], [-58.48122769999981, -34.489162500001385], [-58.4812581, -34.488255000002056]]]}}]}