{"type": "FeatureCollection", "features": [{"type": "Feature", "properties": {"name": "Partido de San Isidro", "osm": "relation/1769044"}, "geometry": {"type": "Polygon", "coordinates": [[[-58.5749449, -34.4754757], [-58.5749891, -34.4754171], [-58.5745254, -34.4751967], [-58.5741636, -34.4750248], [-58.5736748, -34.4747925], [-58.5727011, -34.474329], [-58.5718649, -34.4739295], [-58.5718084, -34.4739025], [-58.5708288, -34.473436], [-58.5698874, -34.4729877], [-58.5689304, -34.472532], [-58.5683937, -34.4722764], [-58.5682222, -34.4721886], [-58.5681015, -34.4721285], [-58.5680661, -34.47211], [-58.5678686, -34.4720052], [-58.5669417, -34.4716011], [-58.5666012, -34.4714523], [-58.5657286, -34.4709733], [-58.5656501, -34.470939], [-58.5655451, -34.4708932], [-58.565305, -34.4707885], [-58.5652273, -34.4707585], [-58.5649549, -34.4706315], [-58.5642239, -34.4702907], [-58.5632575, -34.4698305], [-58.5623251, -34.4693865], [-58.5612881, -34.4688927], [-58.5610557, -34.468782], [-58.5603745, -34.4684576], [-58.5594012, -34.4679941], [-58.5584814, -34.467556], [-58.5582433, -34.4674427], [-58.5574879, -34.4670829], [-58.5565768, -34.466649], [-58.5562226, -34.4664803], [-58.5561202, -34.4664315], [-58.5560374, -34.4663921], [-58.5556514, -34.4662083], [-58.5548711, -34.4658367], [-58.5537379, -34.4652929], [-58.552742, -34.4648149], [-58.5517976, -34.4643617], [-58.5508746, -34.4639188], [-58.5503824, -34.4636825], [-58.5499288, -34.4634648], [-58.5494637, -34.4632456], [-58.549374, -34.4631986], [-58.5489705, -34.4630049], [-58.548941, -34.4629907], [-58.5480417, -34.4625592], [-58.5472374, -34.4621732], [-58.5472074, -34.4621564], [-58.547077, -34.4620962], [-58.5469124, -34.4620535], [-58.546042, -34.4616201], [-58.5457294, -34.4614592], [-58.5449344, -34.461071], [-58.5448192, -34.4610126], [-58.5438644, -34.4605544], [-58.5429159, -34.4600992], [-58.541962, -34.4596414], [-58.5410095, -34.4591842], [-58.5400724, -34.4587345], [-58.5391209, -34.4582778], [-58.5381698, -34.4578253], [-58.5372293, -34.4573699], [-58.5363382, -34.4569471], [-58.5362076, -34.4568815], [-58.5356026, -34.4565985], [-58.5350485, -34.4562721], [-58.5349329, -34.4562097], [-58.5348423, -34.4561601], [-58.5346779, -34.4560749], [-58.5337744, -34.4556066], [-58.5334854, -34.4554568], [-58.5328464, -34.4551255], [-58.5325665, -34.4549804], [-58.5319307, -34.4546509], [-58.5316334, -34.4544968], [-58.531022, -34.4541798], [-58.5306972, -34.4540115], [-58.5301056, -34.4536974], [-58.5297878, -34.4535232], [-58.5292041, -34.4532035], [-58.5288726, -34.4530218], [-58.5281747, -34.4526395], [-58.5277352, -34.4523965], [-58.5276378, -34.4523453], [-58.5275274, -34.4522898], [-58.5268321, -34.4519467], [-58.5266632, -34.4518633], [-58.5264009, -34.4517339], [-58.5259986, -34.4515339], [-58.5243614, -34.4507172], [-58.5241647, -34.450619], [-58.5235665, -34.4503315], [-58.523435, -34.4502699], [-58.5232196, -34.4501637], [-58.5212608, -34.4492162], [-58.5209896, -34.449085], [-58.5208237, -34.4489981], [-58.520674, -34.4489113], [-58.5206037, -34.4488715], [-58.517561, -34.446043], [-58.5175445, -34.4460476], [-58.5161438, -34.4433383], [-58.514396, -34.4434949], [-58.5108909, -34.4441526], [-58.506403, -34.4456006], [-58.5046006, -34.4467685], [-58.5046602, -34.4486603], [-58.5046967, -34.4498209], [-58.5045776, -34.4498806], [-58.5050039, -34.4506122], [-58.5053885, -34.4512609], [-58.5057793, -34.4519725], [-58.5057844, -34.4520455], [-58.5059347, -34.4522609], [-58.5061253, -34.4523847], [-58.5062091, -34.4525028], [-58.506272, -34.4526276], [-58.5061886, -34.4526046], [-58.5061319, -34.4525536], [-58.5060709, -34.4524479], [-58.5059937, -34.4523991], [-58.5059002, -34.4523768], [-58.5058474, -34.452391], [-58.5058291, -34.4524235], [-58.5059063, -34.4525129], [-58.5058711, -34.4525907], [-58.5058832, -34.4526523], [-58.5058209, -34.4526532], [-58.5057071, -34.4525861], [-58.505632, -34.4525495], [-58.5055527, -34.45258], [-58.5054624, -34.4526627], [-58.5053332, -34.4528422], [-58.5051849, -34.4531267], [-58.5050754, -34.4532604], [-58.5051098, -34.4533534], [-58.5051492, -34.4534179], [-58.505137, -34.4534748], [-58.5050447, -34.4536328], [-58.5049788, -34.4538221], [-58.5049024, -34.4538665], [-58.504691, -34.4541467], [-58.5046801, -34.4542516], [-58.5047098, -34.4543214], [-58.5047636, -34.4543447], [-58.5047493, -34.4543849], [-58.5046433, -34.4543863], [-58.5044724, -34.4543909], [-58.5043188, -34.4545866], [-58.5041463, -34.4548246], [-58.5041679, -34.4549181], [-58.5041363, -34.4549871], [-58.5040242, -34.4551394], [-58.5039082, -34.4552343], [-58.5038127, -34.4554814], [-58.5038691, -34.4555751], [-58.5037035, -34.4556857], [-58.5036266, -34.455771], [-58.5035491, -34.4558595], [-58.5034637, -34.4559601], [-58.5034673, -34.4561683], [-58.5033527, -34.456276], [-58.5032406, -34.4563983], [-58.5031354, -34.4563583], [-58.5030156, -34.4564945], [-58.5028861, -34.456617], [-58.5028295, -34.4566711], [-58.502724, -34.4567375], [-58.5026955, -34.456853], [-58.5027064, -34.4569238], [-58.5026392, -34.4570309], [-58.5027191, -34.4571107], [-58.5027391, -34.4572069], [-58.50275, -34.4572541], [-58.502681, -34.4572868], [-58.5026175, -34.4573449], [-58.5024106, -34.4574203], [-58.5022804, -34.4574809], [-58.5023071, -34.4575518], [-58.5022009, -34.4576274], [-58.5021002, -34.4577664], [-58.5020575, -34.4578655], [-58.502049, -34.4580266], [-58.5019386, -34.458178], [-58.5019677, -34.4582543], [-58.5019368, -34.4583141], [-58.501944, -34.4584175], [-58.5019478, -34.4584428], [-58.5018751, -34.4584666], [-58.5018084, -34.4584625], [-58.5017716, -34.4584618], [-58.5016972, -34.4584739], [-58.5016642, -34.4585101], [-58.5016645, -34.4585592], [-58.5017277, -34.4585961], [-58.5017465, -34.4586237], [-58.5017314, -34.458661], [-58.501717, -34.4587014], [-58.5017456, -34.4587511], [-58.5017257, -34.4588277], [-58.5016884, -34.4589053], [-58.5016251, -34.4589527], [-58.5014901, -34.4589254], [-58.5013823, -34.4589225], [-58.5012817, -34.45898], [-58.5012429, -34.4590921], [-58.5012178, -34.4591335], [-58.5011377, -34.4591672], [-58.5010759, -34.4591877], [-58.5010392, -34.4592404], [-58.5010837, -34.4593003], [-58.5011267, -34.4593298], [-58.5012089, -34.4593703], [-58.5011906, -34.4594698], [-58.5010438, -34.4594537], [-58.5008855, -34.4594102], [-58.5008488, -34.4594675], [-58.5008465, -34.4595524], [-58.5009107, -34.45969], [-58.5010048, -34.4597863], [-58.5010025, -34.4598643], [-58.5009871, -34.459888], [-58.5009726, -34.4599263], [-58.5008648, -34.4598781], [-58.5008167, -34.4598987], [-58.5006492, -34.4600891], [-58.5006217, -34.4603254], [-58.5007364, -34.460502], [-58.5008338, -34.4606431], [-58.5007129, -34.4606894], [-58.5006148, -34.4606328], [-58.5004084, -34.4605548], [-58.5002822, -34.460619], [-58.5001606, -34.4606832], [-58.500101, -34.4607842], [-58.5001594, -34.4608854], [-58.5002026, -34.4609788], [-58.5002503, -34.4610809], [-58.5001653, -34.4611572], [-58.499908, -34.4612986], [-58.4998222, -34.4615108], [-58.4996588, -34.4615909], [-58.4995539, -34.4616211], [-58.4995381, -34.4615607], [-58.4994907, -34.4615263], [-58.499426, -34.4615291], [-58.4993901, -34.4615047], [-58.4992004, -34.4615263], [-58.4991042, -34.4615464], [-58.4990467, -34.4615938], [-58.4989705, -34.461624], [-58.4989875, -34.4616998], [-58.4991837, -34.4618354], [-58.4991674, -34.4618451], [-58.4991237, -34.461839], [-58.4991166, -34.4618167], [-58.4990383, -34.4617638], [-58.4989957, -34.4617567], [-58.4989814, -34.4617374], [-58.4989093, -34.4617425], [-58.4988818, -34.4617395], [-58.4988605, -34.4617618], [-58.4988656, -34.4618055], [-58.4988869, -34.461835], [-58.4987691, -34.4618208], [-58.4987061, -34.4618157], [-58.4985995, -34.4618242], [-58.4984898, -34.4618713], [-58.4984185, -34.4618909], [-58.4984063, -34.4619335], [-58.4983748, -34.4619447], [-58.4983515, -34.4619508], [-58.4982813, -34.4619447], [-58.4982478, -34.4619691], [-58.4982458, -34.4619843], [-58.4982072, -34.4619986], [-58.4981929, -34.4620311], [-58.4980924, -34.4620636], [-58.4980456, -34.4620555], [-58.4980113, -34.4620933], [-58.497944, -34.4620859], [-58.4979044, -34.4620931], [-58.4978597, -34.46209], [-58.497811, -34.4621128], [-58.4977997, -34.4621276], [-58.4977814, -34.4621571], [-58.4977134, -34.4621815], [-58.4976769, -34.4622144], [-58.4975782, -34.462217], [-58.4974838, -34.4622235], [-58.497372, -34.4622957], [-58.4973054, -34.462426], [-58.4970509, -34.4624176], [-58.4965429, -34.4626655], [-58.4963182, -34.4627995], [-58.4962523, -34.4628387], [-58.4961405, -34.4629053], [-58.4961852, -34.4630679], [-58.4958356, -34.4634279], [-58.4957709, -34.4634231], [-58.4957147, -34.463419], [-58.4955264, -34.4634051], [-58.4954116, -34.4634908], [-58.4949803, -34.4636183], [-58.4944508, -34.4637483], [-58.4940531, -34.4639246], [-58.4939749, -34.4640524], [-58.4940314, -34.4642388], [-58.4939808, -34.4645159], [-58.4939302, -34.464641], [-58.4939124, -34.464847], [-58.4939243, -34.4650824], [-58.4939627, -34.4652025], [-58.4933321, -34.4653958], [-58.4932846, -34.4654828], [-58.4934479, -34.4656604], [-58.4934345, -34.4657046], [-58.4934023, -34.4657643], [-58.4933862, -34.4658329], [-58.4933084, -34.4659678], [-58.4932494, -34.4659589], [-58.4931743, -34.4659567], [-58.4931153, -34.4659545], [-58.4930402, -34.4658793], [-58.4929624, -34.4658992], [-58.4928846, -34.4659456], [-58.4928444, -34.4660164], [-58.4928431, -34.4661148], [-58.4928551, -34.4661911], [-58.4926406, -34.4662619], [-58.4925547, -34.4663238], [-58.4924689, -34.4664122], [-58.4923536, -34.4665339], [-58.4922624, -34.466629], [-58.4922409, -34.4667152], [-58.4922677, -34.4667661], [-58.4922248, -34.4668346], [-58.4921739, -34.4668899], [-58.4922114, -34.4669408], [-58.4922463, -34.4670049], [-58.4921899, -34.4670491], [-58.4921202, -34.4670867], [-58.4921256, -34.4671508], [-58.4921363, -34.4672194], [-58.4922087, -34.4672592], [-58.4923053, -34.4672636], [-58.4924394, -34.4672172], [-58.4924823, -34.467341], [-58.492367, -34.467425], [-58.4923133, -34.4675047], [-58.4923267, -34.4676263], [-58.4923616, -34.4676793], [-58.4922999, -34.4677037], [-58.4922141, -34.4677501], [-58.4922409, -34.4677899], [-58.4923106, -34.4678165], [-58.4923106, -34.4680044], [-58.4922221, -34.4680464], [-58.4921524, -34.4680221], [-58.492139, -34.4679204], [-58.4920478, -34.4679027], [-58.4919566, -34.4679337], [-58.4918493, -34.4679757], [-58.4917474, -34.4680309], [-58.4916535, -34.468084], [-58.4916133, -34.4681526], [-58.4915274, -34.4682366], [-58.4914309, -34.468272], [-58.4913424, -34.468314], [-58.4912217, -34.4683936], [-58.4911707, -34.4684688], [-58.491168, -34.4685197], [-58.4911305, -34.4686037], [-58.4911492, -34.4686678], [-58.4911734, -34.4687563], [-58.4913477, -34.4688049], [-58.4914711, -34.4688447], [-58.4915918, -34.4688292], [-58.4916696, -34.4687916], [-58.4917474, -34.4688226], [-58.4916535, -34.4689066], [-58.4916052, -34.4689973], [-58.4915569, -34.4691123], [-58.4915087, -34.4692405], [-58.4915006, -34.469298], [-58.4915623, -34.469402], [-58.4916347, -34.4694904], [-58.4916696, -34.4696098], [-58.4917125, -34.469685], [-58.4917876, -34.4698133], [-58.4918574, -34.4698641], [-58.4919325, -34.4698398], [-58.4919459, -34.4697115], [-58.4920076, -34.4697005], [-58.4920612, -34.4697536], [-58.4921631, -34.4697779], [-58.4922838, -34.4697491], [-58.4922775, -34.4698674], [-58.492265, -34.4700477], [-58.4922168, -34.470083], [-58.4921578, -34.4700919], [-58.4921175, -34.4701295], [-58.4920558, -34.4702024], [-58.4920853, -34.4702555], [-58.4921122, -34.4703174], [-58.4921497, -34.4703816], [-58.4921631, -34.4704789], [-58.4921926, -34.4705518], [-58.4920157, -34.4711739], [-58.4917481, -34.4714553], [-58.491484, -34.4719026], [-58.4914845, -34.4713855], [-58.4915663, -34.471192], [-58.491514, -34.4711124], [-58.4915839, -34.4708256], [-58.4915878, -34.4707553], [-58.4915824, -34.4706834], [-58.4915435, -34.4706403], [-58.4914805, -34.4706259], [-58.4914389, -34.470616], [-58.4914456, -34.4705839], [-58.4914684, -34.4705651], [-58.4914564, -34.4705242], [-58.4914228, -34.4704833], [-58.4913625, -34.4704623], [-58.4913585, -34.4704346], [-58.4913853, -34.4704125], [-58.491392, -34.4703782], [-58.491392, -34.4703418], [-58.4913652, -34.4702931], [-58.4913169, -34.4702633], [-58.4912767, -34.4702544], [-58.491282, -34.4702201], [-58.4912592, -34.4702024], [-58.4912096, -34.4701792], [-58.4911694, -34.4701715], [-58.4911197, -34.4701748], [-58.4910446, -34.4701936], [-58.4909883, -34.470208], [-58.4909575, -34.4702212], [-58.4908918, -34.4702555], [-58.4908435, -34.4702809], [-58.4908193, -34.4703053], [-58.4908032, -34.4703539], [-58.4908113, -34.4703882], [-58.4908462, -34.4704059], [-58.4908757, -34.4704103], [-58.4908904, -34.4704346], [-58.4909427, -34.4704667], [-58.4910017, -34.4705375], [-58.4911305, -34.4706104], [-58.4911828, -34.4706535], [-58.4912243, -34.4707055], [-58.4912525, -34.4707542], [-58.4913115, -34.4707796], [-58.4913393, -34.4708003], [-58.4912835, -34.4708692], [-58.4912341, -34.4708903], [-58.4910199, -34.4709551], [-58.4908272, -34.4707667], [-58.4907358, -34.470714], [-58.49061, -34.4707468], [-58.4904477, -34.4708417], [-58.4903859, -34.4708087], [-58.4902857, -34.4707486], [-58.4901618, -34.4707741], [-58.4900798, -34.4708415], [-58.4901745, -34.4708306], [-58.4902602, -34.4708561], [-58.4901108, -34.4709162], [-58.4899741, -34.4710456], [-58.4900097, -34.4711765], [-58.4900543, -34.4713608], [-58.4901399, -34.4714738], [-58.4902237, -34.4716615], [-58.4902875, -34.4717763], [-58.4902638, -34.4718182], [-58.4903349, -34.4719239], [-58.490375, -34.4720788], [-58.4904643, -34.4721589], [-58.4903901, -34.4722382], [-58.4902104, -34.4721239], [-58.4902143, -34.4720856], [-58.4900816, -34.4719184], [-58.4899686, -34.4718127], [-58.4897919, -34.4716633], [-58.4896989, -34.4716797], [-58.4897627, -34.4718054], [-58.4898557, -34.4719476], [-58.4898156, -34.4719895], [-58.4898429, -34.4720441], [-58.4898374, -34.4720879], [-58.4897718, -34.4720387], [-58.4896941, -34.4720604], [-58.4896024, -34.4719166], [-58.4894803, -34.4717362], [-58.4893272, -34.4716742], [-58.4892452, -34.4716998], [-58.489227, -34.471789], [-58.4893254, -34.471871], [-58.4892762, -34.4719075], [-58.4893126, -34.4719621], [-58.489329, -34.4720223], [-58.4893946, -34.472179], [-58.4894919, -34.4722865], [-58.4895969, -34.4724778], [-58.4896552, -34.4725293], [-58.4894967, -34.4727293], [-58.4894059, -34.4727424], [-58.4893138, -34.4726289], [-58.4892355, -34.4725876], [-58.4891881, -34.4725038], [-58.4891389, -34.4725056], [-58.4890619, -34.4724651], [-58.4890103, -34.4723534], [-58.4890055, -34.472343], [-58.4887941, -34.4720988], [-58.4886192, -34.4720587], [-58.4882839, -34.472066], [-58.4881669, -34.4722623], [-58.4880579, -34.4724742], [-58.4879595, -34.4724414], [-58.4877227, -34.4726017], [-58.4876716, -34.472773], [-58.4876097, -34.4729443], [-58.4873837, -34.4729443], [-58.4873509, -34.4730791], [-58.4874238, -34.4731739], [-58.4875754, -34.4731139], [-58.4876826, -34.4731666], [-58.4876258, -34.4732676], [-58.4874238, -34.4733051], [-58.4872125, -34.4732832], [-58.4872601, -34.473407], [-58.4871833, -34.4734982], [-58.4870849, -34.4735092], [-58.4868881, -34.473531], [-58.4867861, -34.4736331], [-58.4866454, -34.4737394], [-58.4866221, -34.473757], [-58.4866797, -34.4738088], [-58.486695, -34.4738226], [-58.486746, -34.4738882], [-58.48652, -34.4740667], [-58.486531, -34.474125], [-58.48668, -34.4742875], [-58.4865237, -34.4742125], [-58.4863998, -34.4742344], [-58.4862576, -34.4743401], [-58.4862827, -34.4744896], [-58.4863198, -34.4745452], [-58.4862148, -34.4745761], [-58.4861913, -34.4746725], [-58.4862395, -34.4747355], [-58.4863186, -34.4747751], [-58.4863989, -34.4747639], [-58.4863864, -34.4748246], [-58.4863606, -34.4748541], [-58.4862735, -34.4748702], [-58.4862475, -34.4749026], [-58.4861705, -34.4749618], [-58.4861664, -34.4749391], [-58.4861461, -34.4749059], [-58.4861794, -34.4748815], [-58.4861761, -34.474854], [-58.4861015, -34.4748507], [-58.4859572, -34.4748799], [-58.4858663, -34.4749648], [-58.4857901, -34.4750502], [-58.4856668, -34.4751346], [-58.4856032, -34.4751733], [-58.4855813, -34.4751562], [-58.4854644, -34.4752146], [-58.4853933, -34.4752479], [-58.485383, -34.4752926], [-58.4853726, -34.4753316], [-58.4854071, -34.4753694], [-58.4854667, -34.4753832], [-58.4855034, -34.4753818], [-58.4855043, -34.4754092], [-58.4854771, -34.4754719], [-58.4853733, -34.4754784], [-58.4853235, -34.4754972], [-58.4852938, -34.4755356], [-58.4852256, -34.4755173], [-58.4851574, -34.4755321], [-58.4850806, -34.475568], [-58.485036, -34.4756116], [-58.4850203, -34.4756475], [-58.4849425, -34.4756632], [-58.4848901, -34.4757121], [-58.48487, -34.4757567], [-58.4848127, -34.4757814], [-58.4848281, -34.4758572], [-58.4849032, -34.4758956], [-58.4849049, -34.4759865], [-58.4848158, -34.475941], [-58.4847127, -34.4759707], [-58.4846288, -34.4759917], [-58.4846009, -34.4760371], [-58.484516, -34.4761251], [-58.4844139, -34.4761665], [-58.484323, -34.4761822], [-58.4843178, -34.4762765], [-58.4842619, -34.4763971], [-58.4842322, -34.4764233], [-58.4840879, -34.4767474], [-58.4838221, -34.4772388], [-58.4837917, -34.477295], [-58.4834668, -34.4774889], [-58.4830459, -34.4778891], [-58.4830494, -34.4780272], [-58.48299, -34.4780516], [-58.4829725, -34.4781146], [-58.483011, -34.4781879], [-58.482976, -34.4782177], [-58.4829464, -34.4782839], [-58.4829673, -34.4783592], [-58.4828834, -34.478485], [-58.4828956, -34.4785567], [-58.4828628, -34.4785739], [-58.4828502, -34.4785182], [-58.4828065, -34.4784798], [-58.4827174, -34.4784868], [-58.4825741, -34.478485], [-58.4825098, -34.4785116], [-58.4824622, -34.4785313], [-58.4823644, -34.4785881], [-58.4823592, -34.4786108], [-58.4822948, -34.4786146], [-58.4822875, -34.478615], [-58.482125, -34.4786475], [-58.4819817, -34.4786056], [-58.4819642, -34.478672], [-58.4818804, -34.4786807], [-58.481863, -34.4786496], [-58.481772, -34.4785864], [-58.4817147, -34.4786125], [-58.4816794, -34.4787207], [-58.4817431, -34.4787917], [-58.4816331, -34.4788522], [-58.4815664, -34.4789227], [-58.4816047, -34.479024], [-58.4816269, -34.4791031], [-58.481729, -34.4791846], [-58.4817233, -34.479344], [-58.4816653, -34.4794293], [-58.4816158, -34.4795689], [-58.4814713, -34.4798099], [-58.481449, -34.4798645], [-58.4814717, -34.4799596], [-58.4815854, -34.480046], [-58.4818036, -34.4801571], [-58.4818691, -34.4801991], [-58.4817085, -34.4802288], [-58.4817357, -34.4802955], [-58.4818086, -34.4803325], [-58.4819106, -34.4802782], [-58.4819363, -34.4804489], [-58.4818774, -34.4806825], [-58.4818075, -34.4810269], [-58.4817631, -34.4811462], [-58.4817559, -34.4811655], [-58.4816744, -34.4811853], [-58.4815854, -34.481252], [-58.4815063, -34.481383], [-58.4814297, -34.4815263], [-58.4812518, -34.4815609], [-58.4811678, -34.4816203], [-58.4812567, -34.4816796], [-58.4811492, -34.4817987], [-58.4810714, -34.4818056], [-58.4809429, -34.4817438], [-58.4807081, -34.4816524], [-58.4805104, -34.4817661], [-58.4804536, -34.4819786], [-58.4804363, -34.482159], [-58.4805648, -34.4822702], [-58.4804857, -34.4823814], [-58.480495, -34.4825466], [-58.4806756, -34.4825497], [-58.4805861, -34.4828211], [-58.4805647, -34.482968], [-58.4804866, -34.48326], [-58.4804524, -34.4833187], [-58.4803457, -34.4834107], [-58.4802073, -34.4834428], [-58.4800784, -34.4834587], [-58.4799826, -34.4834509], [-58.4798857, -34.4835123], [-58.4798617, -34.4836121], [-58.4798976, -34.483795], [-58.4798744, -34.4839065], [-58.4798861, -34.4840038], [-58.4799701, -34.4841595], [-58.47998, -34.4841941], [-58.4800644, -34.4843275], [-58.4799946, -34.4843456], [-58.479942, -34.4844009], [-58.4799235, -34.4844599], [-58.4802815, -34.484634], [-58.4804665, -34.4847349], [-58.4804285, -34.4849206], [-58.4804376, -34.4851089], [-58.4804534, -34.4853253], [-58.4804332, -34.4856331], [-58.4803529, -34.4857805], [-58.4803875, -34.4858672], [-58.4805248, -34.4859569], [-58.4805658, -34.4860721], [-58.4803718, -34.4861974], [-58.4803163, -34.4862904], [-58.4803116, -34.4863774], [-58.4803502, -34.4864362], [-58.4804172, -34.4864832], [-58.4804944, -34.4868925], [-58.4805682, -34.4873586], [-58.4806065, -34.4876001], [-58.480466, -34.4879871], [-58.4800473, -34.489257], [-58.4795822, -34.4894783], [-58.4794572, -34.4896585], [-58.4795759, -34.4897434], [-58.4795625, -34.4897681], [-58.4801624, -34.4900236], [-58.4803458, -34.4900879], [-58.4804457, -34.4901293], [-58.4809676, -34.4903458], [-58.4810583, -34.4903834], [-58.4811609, -34.4904259], [-58.4812019, -34.4904429], [-58.4812864, -34.4904779], [-58.4814173, -34.4905322], [-58.4825401, -34.491001], [-58.4832575, -34.4912864], [-58.4834057, -34.4913486], [-58.4835003, -34.4913881], [-58.4840199, -34.4916053], [-58.4842698, -34.4917127], [-58.4843016, -34.4917264], [-58.4844309, -34.4917819], [-58.4845403, -34.4918291], [-58.4846248, -34.4918656], [-58.4867073, -34.4928251], [-58.4873222, -34.4931013], [-58.4881724, -34.4934795], [-58.4895619, -34.4940981], [-58.4908966, -34.4947075], [-58.491, -34.4947547], [-58.4911158, -34.4948056], [-58.4912103, -34.4948534], [-58.4913816, -34.4949337], [-58.4915353, -34.4950035], [-58.4915715, -34.4950208], [-58.4919843, -34.4952199], [-58.4921898, -34.4953135], [-58.4931134, -34.4957291], [-58.4932126, -34.4957737], [-58.4932386, -34.4957854], [-58.4933383, -34.4958302], [-58.4934593, -34.4958846], [-58.4940832, -34.4961683], [-58.4944196, -34.4963166], [-58.4946026, -34.4963989], [-58.4950209, -34.496587], [-58.4950867, -34.4966166], [-58.4954322, -34.496772], [-58.4955183, -34.4968107], [-58.495836, -34.4969537], [-58.4959864, -34.4970213], [-58.4968646, -34.4974163], [-58.4969546, -34.4974568], [-58.497173, -34.4975462], [-58.4972399, -34.4975856], [-58.4973909, -34.4976537], [-58.4975474, -34.4977216], [-58.4976306, -34.4977635], [-58.497679, -34.4977878], [-58.4978485, -34.4978613], [-58.4979611, -34.4979101], [-58.4980051, -34.4979301], [-58.4985893, -34.4981957], [-58.4992697, -34.4985051], [-58.4993665, -34.4985491], [-58.4994695, -34.498596], [-58.5001846, -34.4989212], [-58.500305, -34.4989759], [-58.5003747, -34.4990076], [-58.5004351, -34.499035], [-58.5005276, -34.4990772], [-58.5005972, -34.499109], [-58.5011696, -34.4993718], [-58.5012312, -34.4994001], [-58.5013905, -34.4994714], [-58.502259, -34.4998691], [-58.5023112, -34.4998924], [-58.5023572, -34.4999129], [-58.5024741, -34.4999663], [-58.5025729, -34.5000114], [-58.5033181, -34.5003518], [-58.5033933, -34.5003862], [-58.5036122, -34.5004861], [-58.5041369, -34.5007258], [-58.5042219, -34.5007646], [-58.5043352, -34.5008194], [-58.5044622, -34.5008746], [-58.5044805, -34.5008826], [-58.5049819, -34.5011117], [-58.5050996, -34.5011654], [-58.505257, -34.5012373], [-58.505538, -34.5013657], [-58.5060405, -34.5015949], [-58.5061122, -34.5016276], [-58.5062211, -34.5016773], [-58.5062826, -34.5017054], [-58.5063839, -34.5017517], [-58.5068117, -34.5019466], [-58.5070834, -34.5020713], [-58.5071815, -34.5021163], [-58.5077876, -34.5023932], [-58.5079115, -34.5024498], [-58.5080285, -34.5025032], [-58.5081486, -34.502558], [-58.5082065, -34.5025844], [-58.5082921, -34.5026235], [-58.5085072, -34.5027217], [-58.5086197, -34.5027731], [-58.5090569, -34.5029728], [-58.5091425, -34.5030119], [-58.50917, -34.5030245], [-58.5092239, -34.5030491], [-58.5092946, -34.5030814], [-58.5093218, -34.5030938], [-58.5098092, -34.5033164], [-58.5101259, -34.503461], [-58.5104506, -34.5036093], [-58.5109654, -34.5038445], [-58.5110604, -34.5038879], [-58.5111334, -34.5039212], [-58.5112208, -34.5039611], [-58.5113083, -34.5040011], [-58.5122429, -34.5044279], [-58.5126661, -34.5046214], [-58.5133031, -34.5049127], [-58.5133539, -34.5049363], [-58.5134017, -34.5049585], [-58.5134282, -34.5049705], [-58.5135592, -34.5050296], [-58.5144581, -34.5054396], [-58.5146538, -34.5055302], [-58.5155864, -34.5059568], [-58.5157672, -34.5060375], [-58.5160671, -34.5061671], [-58.5170183, -34.506578], [-58.5173553, -34.5067293], [-58.5180375, -34.5070355], [-58.5180757, -34.5070526], [-58.5182159, -34.5071155], [-58.5188562, -34.5074029], [-58.51919, -34.5075527], [-58.519857, -34.5078521], [-58.5198717, -34.5078568], [-58.5199746, -34.5079049], [-58.5200427, -34.5079392], [-58.5202006, -34.5080085], [-58.5202982, -34.5080501], [-58.5203572, -34.508079], [-58.5208625, -34.5083034], [-58.5210766, -34.5083995], [-58.5213937, -34.5085393], [-58.5215089, -34.5085909], [-58.5221291, -34.5088686], [-58.522476, -34.5090278], [-58.5225376, -34.509056], [-58.5227796, -34.509167], [-58.5235579, -34.5095241], [-58.5237879, -34.5096296], [-58.5241211, -34.5097714], [-58.5241555, -34.5097872], [-58.5243664, -34.5098844], [-58.5244971, -34.5099446], [-58.5246332, -34.510007], [-58.5247767, -34.510073], [-58.5248609, -34.5101069], [-58.5248849, -34.5101183], [-58.5250143, -34.51018], [-58.5252004, -34.5102693], [-58.5252251, -34.5102811], [-58.5256034, -34.5104661], [-58.5260345, -34.5106718], [-58.5261874, -34.5107445], [-58.5263709, -34.51083], [-58.5265041, -34.5108919], [-58.5265453, -34.5109103], [-58.5267914, -34.5110232], [-58.527362, -34.5112846], [-58.5276426, -34.5114139], [-58.5278927, -34.5115276], [-58.5283425, -34.5117336], [-58.528446, -34.5117834], [-58.5289391, -34.5120092], [-58.5289809, -34.5120284], [-58.52942, -34.5122295], [-58.5300996, -34.5125384], [-58.5302297, -34.5125988], [-58.5303207, -34.5126396], [-58.5304307, -34.51269], [-58.5309662, -34.5129353], [-58.5310241, -34.5129618], [-58.5311537, -34.5130221], [-58.5312201, -34.5130626], [-58.5311567, -34.513152], [-58.5310652, -34.5132811], [-58.5309662, -34.5134207], [-58.5305779, -34.5139737], [-58.5305343, -34.5140357], [-58.530598, -34.5140714], [-58.5308024, -34.5141859], [-58.5313501, -34.5145094], [-58.5314207, -34.5145511], [-58.531474, -34.5145824], [-58.5320061, -34.5148948], [-58.5320589, -34.5149277], [-58.5321305, -34.5149723], [-58.5322226, -34.5150325], [-58.5331881, -34.5156648], [-58.5332912, -34.5157313], [-58.5335117, -34.5158974], [-58.5335525, -34.5159279], [-58.5338515, -34.5161453], [-58.5339062, -34.5161833], [-58.5339925, -34.5162458], [-58.5344775, -34.5165962], [-58.5344941, -34.5166088], [-58.534507, -34.5166175], [-58.5345771, -34.5166682], [-58.5346318, -34.5167072], [-58.5350066, -34.5169786], [-58.5351122, -34.5170549], [-58.5356167, -34.5174225], [-58.5357704, -34.5175335], [-58.5364086, -34.5179919], [-58.5364465, -34.5180191], [-58.5364771, -34.5180423], [-58.5370209, -34.5184342], [-58.5370708, -34.5184741], [-58.537102, -34.518499], [-58.5371445, -34.518466], [-58.5376964, -34.5180369], [-58.5378198, -34.5179327], [-58.538466, -34.5174108], [-58.5385554, -34.5173395], [-58.5386795, -34.5172512], [-58.539418, -34.5178832], [-58.5398888, -34.5182903], [-58.5400864, -34.5184526], [-58.5403381, -34.5186728], [-58.5405672, -34.5188732], [-58.540595, -34.5188971], [-58.5406653, -34.5189575], [-58.5407124, -34.5189987], [-58.5414949, -34.5196821], [-58.5415591, -34.5197382], [-58.54161, -34.5197812], [-58.5424316, -34.5204752], [-58.5431714, -34.5211239], [-58.5432866, -34.5212152], [-58.5434216, -34.5213328], [-58.5441765, -34.5219854], [-58.5443041, -34.5221003], [-58.5449393, -34.5226589], [-58.5450391, -34.5227466], [-58.5456258, -34.5232148], [-58.5459403, -34.5234301], [-58.5463619, -34.5238152], [-58.5468147, -34.524174], [-58.5475597, -34.5248401], [-58.5481909, -34.5253832], [-58.5483833, -34.5255543], [-58.5492419, -34.5262848], [-58.5505191, -34.5273977], [-58.5506386, -34.5275009], [-58.5511706, -34.5279594], [-58.5518211, -34.5285241], [-58.5524469, -34.5290673], [-58.5531053, -34.5296325], [-58.5537214, -34.5301774], [-58.5547264, -34.5293261], [-58.55555, -34.5286173], [-58.5556969, -34.5284902], [-58.556329, -34.5279532], [-58.556885, -34.5274913], [-58.5571072, -34.5272974], [-58.5578584, -34.5266381], [-58.5582211, -34.5263259], [-58.5586133, -34.5259973], [-58.5589918, -34.5256804], [-58.5593813, -34.5253481], [-58.5600752, -34.5247415], [-58.5608974, -34.524057], [-58.5610951, -34.5238829], [-58.5616531, -34.5234107], [-58.5619607, -34.5231535], [-58.5624272, -34.5227482], [-58.5632721, -34.5220391], [-58.5634482, -34.5218891], [-58.5640154, -34.5214011], [-58.5645386, -34.5209489], [-58.564698, -34.520812], [-58.5654272, -34.5201826], [-58.566141, -34.5195683], [-58.5664746, -34.5192862], [-58.5668741, -34.5189283], [-58.5674861, -34.5184105], [-58.5684958, -34.5175346], [-58.5686164, -34.5174314], [-58.5687173, -34.5173502], [-58.5695088, -34.5166689], [-58.570067, -34.5161815], [-58.5705401, -34.5157793], [-58.570773, -34.515583], [-58.5715236, -34.5149358], [-58.5721815, -34.5143713], [-58.5725498, -34.5140528], [-58.5735718, -34.513182], [-58.5742866, -34.5125676], [-58.5745867, -34.5123138], [-58.5748932, -34.5120462], [-58.5755811, -34.5114455], [-58.5763478, -34.5107873], [-58.5765825, -34.5105851], [-58.577044, -34.5101888], [-58.5775936, -34.5097211], [-58.5783815, -34.5090388], [-58.5784539, -34.5089761], [-58.5786096, -34.5088438], [-58.5791701, -34.5083635], [-58.5796196, -34.507976], [-58.5798727, -34.5077535], [-58.5800619, -34.5076406], [-58.5807498, -34.5070374], [-58.5808839, -34.5068694], [-58.5814096, -34.5064284], [-58.5815705, -34.50633], [-58.5821181, -34.5058563], [-58.5822009, -34.5057388], [-58.5823354, -34.5056245], [-58.5823698, -34.5055951], [-58.5824547, -34.5055725], [-58.5826913, -34.5053665], [-58.5831793, -34.5049483], [-58.58325, -34.5048856], [-58.5837394, -34.5044583], [-58.5838076, -34.5044039], [-58.5844106, -34.503886], [-58.5849562, -34.5034273], [-58.5849848, -34.5033898], [-58.5850602, -34.5033551], [-58.5851043, -34.5033251], [-58.5856168, -34.5028924], [-58.586276, -34.5023145], [-58.5863991, -34.5021845], [-58.5864485, -34.502142], [-58.5871306, -34.5015546], [-58.5871869, -34.5015063], [-58.587874, -34.500917], [-58.5886406, -34.5002584], [-58.5893595, -34.4996182], [-58.5901087, -34.4989506], [-58.5907411, -34.4983522], [-58.5962432, -34.4929345], [-58.599802, -34.4894301], [-58.5926777, -34.4857289], [-58.592448, -34.4855832], [-58.5921256, -34.4853229], [-58.591668, -34.4851324], [-58.5912197, -34.4849216], [-58.5887371, -34.4836364], [-58.5882663, -34.4833281], [-58.5881525, -34.4832712], [-58.5876056, -34.4830684], [-58.5874708, -34.483001], [-58.5863001, -34.4823918], [-58.5861949, -34.4823208], [-58.5861312, -34.4822493], [-58.5848284, -34.4802033], [-58.5847257, -34.4800735], [-58.5846443, -34.4800137], [-58.5845204, -34.4799524], [-58.5827988, -34.4792196], [-58.5811584, -34.4784435], [-58.5790392, -34.4774207], [-58.5789213, -34.477388], [-58.5788081, -34.4773754], [-58.5787438, -34.4773562], [-58.5786691, -34.4773196], [-58.5786283, -34.4772725], [-58.5779718, -34.4760989], [-58.5779005, -34.4760259], [-58.5778241, -34.4759861], [-58.5777221, -34.4759618], [-58.5751227, -34.4755875], [-58.5750302, -34.4755621], [-58.5749177, -34.4755117], [-58.5749449, -34.4754757]]]}}]}