{"type": "Feature", "properties": {"fuente": "Decreto 910/2012 art. 2 (Edici\u00f3n Extra BO San Isidro N\u00b0 645, abril 2012), 6 v\u00e9rtices; pol\u00edgono armado en el orden publicado [c\u00e1lculo propio]"}, "geometry": {"type": "Polygon", "coordinates": [[[-58.49973333333333, -34.461533333333335], [-58.50083333333333, -34.462380555555555], [-58.49967222222222, -34.463319444444444], [-58.49912777777778, -34.46293611111111], [-58.49834722222222, -34.463633333333334], [-58.49734166666667, -34.462872222222224], [-58.49973333333333, -34.461533333333335]]]}}